X,Y,OBJECTID,SITEID,SITENAME,AGENCY,OBSERVATIONTYPE,LATDD,LONGDD,HORIZONTALDATUM,TOTALDEPTH,CASEDDEPTH,COMMENTS
-81.8419709909263,27.5974387133633,1,579770,ROMP 41 AVPK PZ MONITOR,SWFWMD,Well,27.59743361,-81.84196778,,1401,828,
-81.7376087562021,28.1686191325505,2,17652,LAKE ALFRED DEEP NR LAKE ALFRED,SWFWMD,Well,28.16861389,-81.73760556,,425,102,
-82.3994422424457,27.0447160637115,3,25999,ROMP TR 4-2 U FLDN AQ INTERFACE MONITOR,SWFWMD,Well,27.04471111,-82.39943889,,475,460,
-82.0061949126366,27.2608855700255,4,24402,AMAX 3 NR PINE LEVEL,SWFWMD,Well,27.26088055,-82.00619166,,1547,340,
-82.1810593270262,28.1276442226757,5,19391,BLACKWATER CREEK ELAPP FLDN,SWFWMD,Well,28.127639,-82.181056,,154,94,
-81.7735448480523,27.1880466720029,6,24104,ROMP 16 U FLDN AQ MONITOR,SWFWMD,Well,27.18804167,-81.77354167,,942,757,
-81.6161531327839,27.0720133143621,7,24195,ROMP 13 U FLDN AQ MONITOR (SWNN),SWFWMD,Well,27.07200833,-81.61615,,786,671,
-81.9160587810816,27.4543106187211,8,23924,ROMP 31 U FLDN AQ MONITOR,SWFWMD,Well,27.45430555,-81.91605555,,1152,460,
-82.5968090273067,28.8533109442286,9,20062,ROMP TR 21-2 U FLDN AQ CHLORIDE MONITOR,SWFWMD,Well,28.85330556,-82.59680555,,111,106,
-82.6820868163436,28.3712830422062,10,20375,CR-1 U FLDN AQ MONITOR,SWFWMD,Well,28.37127777,-82.68208334,,136,119,
-81.6643920423526,28.3136386585311,11,574272,POLK COUNTY NERUSA HH-MW1 UPPER FLDN,SWFWMD,Well,28.31363338,-81.66438886,,190,46,
-81.9242421449996,28.0844663321286,12,24727,FISH LAKE DEEP NR LAKELAND,SWFWMD,Well,28.08446111,-81.92423889,,311,265,
-82.5461367442248,27.5831578586279,13,25701,ROMP TR 8-1 U FLDN AQ MONITOR (SWNN),SWFWMD,Well,27.58315278,-82.54613333,,530,390,
-81.8023004307728,27.8116968213193,14,670285,HOMELAND DEP 9 FLDN,SWFWMD,Well,27.81169167,-81.80229722,,746,0,
-82.0985588634196,28.2453941456397,15,17545,HOWARD STREET FLDN,SWFWMD,Well,28.24538889,-82.09855556,,172,134,
-82.0234143969733,28.220144136196,16,18826,ROMP 87 U FLDN AQ MONITOR (AVPK),SWFWMD,Well,28.22013889,-82.02341111,,380,300,
-81.6225392679502,27.9035885164331,17,25343,ROMP 57 U FLDN AQ MONITOR,SWFWMD,Well,27.90358333,-81.62253611,,635,160,
-82.4030950284679,27.1597883134308,18,26019,ROMP TR 5-3 U FLDN AQ MONITOR,SWFWMD,Well,27.15978333,-82.40309167,,1125,1020,
-82.4459784072445,28.2665969130142,19,18393,PASCO 13 NR DREXEL FLDN,SWFWMD,Well,28.26659166,-82.445975,,47,43,
-81.8306115591825,28.1826413545942,20,17696,ROMP 76 U FLDN AQ MONITOR,SWFWMD,Well,28.18263611,-81.83060833,,315,264,
-81.6544531806828,28.2012552528225,21,17715,THORNHILL RANCH DEEP,SWFWMD,Well,28.20125,-81.65445,,151,108,
-82.113325506697,27.3093411399947,22,25593,EDGEVILLE 3 DEEP,SWFWMD,Well,27.30933612,-82.11332223,,600,487,
-81.9230032512434,28.0002274233899,23,24897,SANLON RANCH FLDN,SWFWMD,Well,28.00022223,-81.923,,1220,293,
-82.4009533632164,27.2710577853665,24,26070,FLORIDA CITIES TEST 1,SWFWMD,Well,27.27105278,-82.40095,,446,104,
-82.5815756894796,28.7640748047021,25,21049,HOMOSASSA 3 FLDN,SWFWMD,Well,28.76406944,-82.58157223,,99,82,
-81.6100586997113,27.5177134234263,26,24948,SMITH DEEP,SWFWMD,Well,27.51770833,-81.61005556,,849,66,
-81.8068643015766,27.3366717088407,27,24390,MARSHALL DEEP (USGS),SWFWMD,Well,27.33666667,-81.80686111,,478,137,
-81.8368948798161,27.6387134510355,28,24946,CARGILL FA-1 FLDN,SWFWMD,Well,27.63870834,-81.83689167,,918,408,
-82.1301060651557,27.193154997913,29,25878,ROMP 18 U FLDN AQ MONITOR (SWNN),SWFWMD,Well,27.19315,-82.13010278,,845,505,
-81.5806059342803,28.2594663829405,30,25144,LOUGHMAN DEEP,SWFWMD,Well,28.25946111,-81.58060278,,250,85,
-82.4793089399461,27.1939799841879,31,26035,ROMP 20 U FLDN AQ MONITOR (SWNN),SWFWMD,Well,27.193975,-82.47930556,,840,500,
-82.1775782982158,27.3148244710407,32,26216,ROMP 23 U FLDN AQ MONITOR,SWFWMD,Well,27.31481945,-82.177575,,1000,904,
-81.731225417875,28.0208385384471,33,25370,ROMP 73 U FLDN AQ MONITOR,SWFWMD,Well,28.02083333,-81.73122222,,389,161,
-81.7422642791437,27.0411716322551,34,24215,ROMP 12 U FLDN AQ MONITOR (NOCA),SWFWMD,Well,27.04116666,-81.74226111,,700,505,
-82.5102811735535,27.348893916646,35,25656,ROMP TR SA-3 UPPER FLDN,SWFWMD,Well,27.34888889,-82.51027778,,1218,1096,
-82.0399532931655,28.3575247260231,36,17590,ROMP 89 U FLDN AQ MONITOR,SWFWMD,Well,28.35751944,-82.03995,,143,20,
-82.0070338114065,27.3664633770967,37,24008,ROMP 25 U FLDN AQ MONITOR,SWFWMD,Well,27.36645834,-82.00703056,,1785,960,
-82.3370700706761,28.9555554128513,38,23595,ROMP 116 U FLDN AQ MONITOR,SWFWMD,Well,28.95555,-82.33706667,,55,39,
-82.2633613687069,28.6447773448602,39,23616,CE 25 BARNHART FLDN,SWFWMD,Well,28.644772,-82.263358,,140,0,
-81.510759121005,27.7565271496115,40,23840,CL-2 U FLDN AQ MONITOR,SWFWMD,Well,27.756522,-81.510756,,442,412,
-81.5603091359709,27.791699156629,41,23845,ROMP 55 U FLDN AQ MONITOR,SWFWMD,Well,27.791694,-81.560306,,1200,212,
-81.5063061222674,27.8140551634413,42,23860,RIDGE WRAP VC-10A FLDN,SWFWMD,Well,27.81405,-81.506303,,263,245,
-81.5732361398004,27.7625661491035,43,23863,CL-3 U FLDN AQ (SWNN-OCAL) MONITOR,SWFWMD,Well,27.762561,-81.573233,,440,228,
-81.6560364848134,27.2091244589078,44,24175,ROMP 15 U FLDN AQ MONITOR MOD,SWFWMD,Well,27.20911945,-81.65603334,,1360,654,
-82.0163116494877,29.1838582573994,45,713731,CE 76 FLDN,SWFWMD,Well,29.18385278,-82.01630833,,153,124,
-82.3320561485897,28.0757301988572,46,433083,FL-MB-750 FLDN (AT ELOIAN),SWFWMD,Well,28.07572499,-82.33205278,,48,19,
-82.3357283082556,28.076024677886,47,433087,FL-MB-550 FLDN (AT IDLEWOOD),SWFWMD,Well,28.07601947,-82.33572494,,70,43,
-82.3949033556968,27.155760537896,48,25917,ROMP TR 5-2 U FLDN AQ MONITOR (SWNN),SWFWMD,Well,27.15575556,-82.3949,,560,510,
-81.8550421157777,27.9318385170594,49,739109,LAKE HANCOCK S U FLDN AQ MONITOR,SWFWMD,Well,27.93183333,-81.85503889,,210,158,
-82.2052811262312,28.4816441965081,50,23545,WR-2 U FLDN AQ MONITOR,SWFWMD,Well,28.48163889,-82.20527778,,130,80,
-82.5456700774618,27.3469494721105,51,25646,SARASOTA 11th STREET DEEP,SWFWMD,Well,27.34694445,-82.54566667,,479,43,
-82.2960533820667,28.7523413690034,52,23627,FERRIS PACKING COMPANY FLDN,SWFWMD,Well,28.752336,-82.29605,,400,200,
-81.9501699244701,27.9580329685788,53,18041,ROMP 60X U FLDN AQ MONITOR,SWFWMD,Well,27.95802778,-81.95016667,,806,212,
-82.3054367201656,28.8068692714522,54,749149,FORT COOPER LAKE U FLDN AQ MONITOR,SWFWMD,Well,28.80686389,-82.30543333,,62,40,
-82.5766974423939,28.1427552162785,55,19532,ST PETE CALM 33A FLDN,SWFWMD,Well,28.14275,-82.576694,,359,81,
-82.0848060875428,28.4382997450507,56,717345,ROMP 100 U FLDN AQ MONITOR,SWFWMD,Well,28.43829444,-82.08480278,,215,75,
-82.148058899736,28.8569498451398,57,670350,BIG JONES CREEK U FLDN AQ MONITOR,SWFWMD,Well,28.856944,-82.1480556,,48,20,
-82.1316977818484,28.8429776173054,58,670311,LITTLE JONES CREEK U FLDN AQ MONITOR,SWFWMD,Well,28.84297222,-82.13169444,,48,24,
-82.2528033759895,28.9349443035167,59,751429,GUM SPRINGS U FLDN AQ MONITOR,SWFWMD,Well,28.93493889,-82.2528,,50,25,
-81.864142227944,27.8839491716044,60,24838,ROMP 59 U FLDN AQ INTERFACE MONITOR,SWFWMD,Well,27.883944,-81.864139,,1048,203,
-82.3415311205859,27.1671438767207,61,25900,ROMP 19 U FLDN AQ MONITOR (SWNN),SWFWMD,Well,27.16713889,-82.34152778,,420,410,
-82.2544449829293,27.1727827685633,62,25907,ROMP 19X U FLDN AQ MONITOR (SWNN),SWFWMD,Well,27.17277778,-82.25444166,,420,410,
-82.4513256022868,27.136202197339,63,26023,ROMP TR 5-1 U FLDN AQ SULFATE MONITOR,SWFWMD,Well,27.13619722,-82.45132223,,510,492,
-82.4611006278029,28.0528496425136,64,670753,115th STREET FLDN,SWFWMD,Well,28.05284444,-82.46109722,,45,30,
-81.8872560098679,27.7955745931453,65,657524,ROMP 45.5 AVPK PZ MONITOR,SWFWMD,Well,27.79556944,-81.88725278,,915,555,
-82.2570644378916,27.4577995047642,66,26171,ROMP 33 U FLDN AQ MONITOR,SWFWMD,Well,27.45779445,-82.25706111,,750,404,
-81.5980391484868,27.8243881636432,67,23890,ROMP 44 U FLDN AQ MONITOR,SWFWMD,Well,27.824383,-81.598036,,402,232,
-82.3268116953482,28.0786996326889,68,433088,FL-MB-2200 FLDN (AT ROCKGLEN),SWFWMD,Well,28.07869443,-82.32680833,,41,19,
-82.1079753062273,28.1391992269897,69,19363,CONE RANCH CM-4D U FLDN AQ MONITOR,SWFWMD,Well,28.139194,-82.107972,,175,100,
-82.0639532723178,27.4708411754143,70,25567,ROMP 32 U FLDN AQ MONITOR (AVPK),SWFWMD,Well,27.47083611,-82.06395,,1215,909,
-82.2180449719486,26.9442604877029,71,25074,ROMP TR 3-1 U FLDN AQ MONITOR,SWFWMD,Well,26.94425555,-82.21804167,,620,600,
-81.4801058882266,27.6044745621563,72,25532,ROMP 43XX U FLDN AQ MONITOR,SWFWMD,Well,27.60446945,-81.48010278,,1363,409,
-82.2396977664837,27.4774495050757,73,26136,KIBLER DEEP,SWFWMD,Well,27.47744444,-82.23969444,,1123,208,
-81.5294751258299,27.7443861457364,74,25339,COLEY DEEP,SWFWMD,Well,27.744381,-81.529472,,319,208,
-82.5159474262609,28.1774302255404,75,19686,ST PETE 42 DEEP,SWFWMD,Well,28.177425,-82.515944,,398,70,
-82.5070974234555,28.1823192276642,76,19687,ST PETE 45 DEEP,SWFWMD,Well,28.182314,-82.507094,,707,59,
-82.2952813737723,28.5185333132499,77,23575,BROOKSVILLE EAST FLDN,SWFWMD,Well,28.518528,-82.295278,,137,101,
-81.3395919409931,27.2666578129441,78,25411,ROMP 28X U FLDN AQ MONITOR,SWFWMD,Well,27.26665278,-81.33958889,,1385,585,
-82.2567561503079,28.8211137207762,79,670313,LAKE TSALA APOPKA (FLYING EAGLE) U FLDN AQ MONITOR,SWFWMD,Well,28.82110833,-82.25675278,,62,42,
-82.5318922996573,27.621699532533,80,25838,FLORIDA POWER FLDN AT PINEY POINT,SWFWMD,Well,27.62169444,-82.53188889,,950,104,
-81.8111976561567,27.8433940522808,81,670300,LW4P U FLDN AQ MONITOR,SWFWMD,Well,27.84338889,-81.81119444,,310,151,
-81.8054754330381,27.8658385031204,82,670305,LW3P U FLDN AQ MONITOR,SWFWMD,Well,27.86583333,-81.80547222,,320,170,
-82.4327784339169,29.1120221178356,83,750199,ROMP 128 U FLDN AQ MONITOR,SWFWMD,Well,29.11201667,-82.432775,,87,60,
-81.8120865441528,27.8933468413391,84,25162,LW1P U FLDN AQ MONITOR,SWFWMD,Well,27.89334167,-81.81208333,,235,95,
-81.7229698610282,28.092102452749,85,25227,LAKE ALFRED DEEP AT LAKE ALFRED,SWFWMD,Well,28.09209723,-81.72296667,,555,282,
-82.4901924181673,28.1837242279212,86,19678,HARRY MATTS DEEP,SWFWMD,Well,28.183719,-82.490189,,60,59,
-81.7861004284859,27.7643301464068,87,24804,ROMP 45 U FLDN AQ MONITOR (AVPK),SWFWMD,Well,27.764325,-81.78609723,,757,680,
-81.9554504789008,28.0715052156224,88,24916,ROMP 70 U FLDN AQ MONITOR,SWFWMD,Well,28.0715,-81.95544722,,645,185,
-82.5040314297186,28.3848382756447,89,20531,CROSS BAR 1W WOLFE U FLDN AQ (CB-1W),SWFWMD,Well,28.384833,-82.504028,,777,112,
-82.5388364389822,28.3790332735546,90,20532,CROSS BAR 2W CREWS LAKE U FLDN AQ (CB-2W),SWFWMD,Well,28.379028,-82.538833,,160,120,
-82.4777254232398,28.4272272869071,91,20539,CROSS BAR 1NW KUKA U FLDN AQ (CB-1NW),SWFWMD,Well,28.427222,-82.477722,,150,100,
-82.465447419448,28.4279222869692,92,20541,MASARYKTOWN DEEP,SWFWMD,Well,28.427917,-82.465444,,76,29,
-82.6252814644856,28.3935882750522,93,20547,ENGLE PARK FLDN,SWFWMD,Well,28.393583,-82.625278,,130,80,
-82.4675864075568,28.0363381929171,94,18670,ROMP 66 U FLDN AQ MONITOR,SWFWMD,Well,28.036333,-82.467583,,250,42,
-82.2429203436074,28.083727210396,95,18677,ROMP 68 U FLDN AQ MONITOR (AVPK),SWFWMD,Well,28.083722,-82.242917,,490,440,
-82.3473923712782,28.003561188259,96,18713,TBC 05 VANDENBERG AP FLDN,SWFWMD,Well,28.003556,-82.347389,,100,55,
-82.4034173960494,28.2729052514148,97,18913,CYPRESS CREEK 3 FLDN,SWFWMD,Well,28.2729,-82.403414,,352,136,
-81.5939337063916,27.9198107425161,98,25241,ROMP 58 U FLDN AQ MONITOR,SWFWMD,Well,27.91980556,-81.59393056,,330,155,
-81.9765310135853,27.1745383326803,99,24041,ROMP 17 U FLDN AQ MONITOR (AVPK),SWFWMD,Well,27.17453334,-81.97652777,,1430,1115,
-82.489120063631,27.4278717141044,100,26203,ROMP TR 7-4 U FLDN AQ MONITOR (SWNN),SWFWMD,Well,27.42786667,-82.48911667,,800,560,
-82.3298227813008,26.9256215964227,101,25060,ROMP TR 3-3 SWNN PZ MONITOR REPL,SWFWMD,Well,26.92561667,-82.32981945,,900,680,
-81.9814587851924,26.8403965806965,102,25083,ROMP TR 1-2 U FLDN AQ MONITOR,SWFWMD,Well,26.84039167,-81.98145555,,1184,980,
-82.3436703716286,28.0454491985214,103,18740,TBC WL-01 FLDN,SWFWMD,Well,28.045444,-82.343667,,110,46,
-82.3464753708329,27.98517218355,104,18757,TBC 2E-SMC FLDN,SWFWMD,Well,27.985167,-82.346472,,90,37,
-82.352642372522,27.9852551840347,105,18786,TBC 2W-SMC FLDN,SWFWMD,Well,27.98525,-82.352639,,96,40,
-82.209531330952,27.9923381887292,106,18797,DV-1 U FLDN AQ (SWNN) MONITOR,SWFWMD,Well,27.992333,-82.209528,,345,160,
-82.433420403782,28.2434022439362,107,18498,ROMP 84 TMPA-AVPK,SWFWMD,Well,28.243397,-82.433417,,666,90,
-82.4770844154922,28.1951222307868,108,18508,WILSON FLDN REPL,SWFWMD,Well,28.195117,-82.477081,,135,95,
-82.2542644242788,27.0777494076098,109,25937,ROMP 8 SWNN PZ MONITOR,SWFWMD,Well,27.07774444,-82.25426111,,842,510,
-82.343725372371,28.0562272010516,110,18616,ROMP 67 U FLDN AQ MONITOR (AVPK),SWFWMD,Well,28.056222,-82.343722,,490,440,
-82.236961359606,28.601663335393,111,23522,WR-6B SHALLOW U FLDN AQ MONITOR,SWFWMD,Well,28.601658,-82.236958,,80,50,
-82.2568643651221,28.5937613326963,112,23534,ROMP 103 U FLDN AQ MONITOR,SWFWMD,Well,28.593756,-82.256861,,198,111,
-82.5455864281884,28.001699183004,113,19919,ROMP TR 12-3 U FLDN AQ MONITOR REPL,SWFWMD,Well,28.001694,-82.545583,,342,294,
-82.57542043738,28.0111991843749,114,19945,CHANNEL G BM FLDN,SWFWMD,Well,28.011194,-82.575417,,120,115,
-82.2524203418519,27.940811175609,115,18029,TURNER FLDN,SWFWMD,Well,27.940806,-82.252417,,342,60,
-82.054114275303,27.6478661092134,116,18052,ROMP 40 U FLDN AQ MONITOR,SWFWMD,Well,27.647861,-82.054111,,1140,408,
-82.4227813836998,27.7410051228892,117,18065,ROMP TR 9-3 U FLDN AQ MONITOR (SWNN),SWFWMD,Well,27.741,-82.422778,,525,289,
-82.3931423769955,27.7652831297947,118,18077,ROMP TR 9-2 U FLDN AQ MONITOR (SWNN),SWFWMD,Well,27.765278,-82.393139,,462,247,
-82.6512254637614,28.151394215917,119,19653,ELDRIDGE-WILDE 11 FLDN,SWFWMD,Well,28.151389,-82.651222,,400,110,
-82.6546144653343,28.1619492184679,120,19654,ELDRIDGE-WILDE 113B FLDN,SWFWMD,Well,28.161944,-82.654611,,120,0,
-82.0218062879566,28.3309722757142,121,17604,GREEN SWAMP L-11M MED DEEP,SWFWMD,Well,28.330967,-82.021803,,18,0,
-82.0218092880267,28.3309632756425,122,17605,GREEN SWAMP L-11M DEEP,SWFWMD,Well,28.330958,-82.021806,,49,0,
-82.0221972929491,28.4612133066923,123,17606,GREEN SWAMP L-12B DEEP,SWFWMD,Well,28.461208,-82.022194,,30,0,
-81.9821342810396,28.4616633084409,124,17608,WITHLACOOCHEE STATE FOREST GREEN SWAMP FLDN,SWFWMD,Well,28.461658,-81.982131,,175,99,
-81.911356255279,28.3106972738812,125,17708,ROMP 88 U FLDN AQ MONITOR,SWFWMD,Well,28.310692,-81.911353,,385,195,
-82.1162253141111,28.2820882615528,126,17719,US 98 NR DADE CITY FLDN,SWFWMD,Well,28.282083,-82.116222,,200,41,
-82.3145863576105,27.8582831538729,127,18104,ROMP 62 U FLDN AQ MONITOR,SWFWMD,Well,27.858278,-82.314583,,692,625,
-82.3385863642245,27.8714221566692,128,18106,US PHOSPHORIC AT RIVERVIEW,SWFWMD,Well,27.871417,-82.338583,,658,653,
-82.2933923688625,28.3942272839665,129,18326,BR-2 U FLDN AQ MONITOR,SWFWMD,Well,28.394222,-82.293389,,210,98,
-82.3131863758505,28.4255992908601,130,18337,PLESS PARK FLDN,SWFWMD,Well,28.425594,-82.313183,,180,150,
-82.7270314859329,28.1572832155973,131,22774,JOHNSON SALT BAYOU FLDN,SWFWMD,Well,28.157278,-82.727028,,74,64,
-82.7804755002993,28.1341442088208,132,22780,ROMP TR 15-1 U FLDN AQ CHLORIDE MONITOR,SWFWMD,Well,28.134139,-82.780472,,85,80,
-82.7576144940826,28.1290612075971,133,22788,ROMP TR 15-2 U FLDN AQ CHLORIDE MONITOR,SWFWMD,Well,28.129056,-82.757611,,55,50,
-82.6372814567655,28.0663941958983,134,19560,ROMP TR 13-3 U FLDN AQ MONITOR,SWFWMD,Well,28.066389,-82.637278,,807,724,
-82.6152814514493,28.0851992007144,135,19563,ST PETE E-102 FLDN,SWFWMD,Well,28.085194,-82.615278,,1200,697,
-81.9255202638261,28.4548023082286,136,17728,ROMP 101 U FLDN AQ MONITOR,SWFWMD,Well,28.454797,-81.925517,,410,120,
-82.1611973145617,27.9085331704668,137,17769,ROMP 61 U FLDN AQ MONITOR,SWFWMD,Well,27.908528,-82.161194,,1000,300,
-82.2513093328526,27.6754771115025,138,17822,ROMP 123 HTRN AS/U FLDN AQ MONITOR,SWFWMD,Well,27.675472,-82.251306,,620,117,
-82.4055864004575,28.3726992759784,139,20507,CROSS BAR 3E BARTHLE BROS U FLDN AQ (CB-3E),SWFWMD,Well,28.372694,-82.405583,,150,100,
-82.6903924745395,28.1233382080417,140,21155,NWHWRAP-1D DEEP U FLDN AQ MONITOR,SWFWMD,Well,28.123333,-82.690389,,627,571,
-82.6909474746789,28.122311207859,141,21157,DUNN FLDN,SWFWMD,Well,28.122306,-82.690944,,77,57,
-82.7389474889639,28.1258382079327,142,21164,ROMP TR 15-3 U FLDN AQ CHLORIDE MONITOR,SWFWMD,Well,28.125833,-82.738944,,150,147,
-82.7203644763236,27.9089221557804,143,21212,ROMP TR 13-2X U FLDN AQ MONITOR (SWNN) 1,SWFWMD,Well,27.908917,-82.720361,,279,269,
-82.2370033591775,28.6016633345822,144,23542,WR-6B DEEP U FLDN AQ MONITOR,SWFWMD,Well,28.601658,-82.237,,356,326,
-82.2911143581294,28.0775052077797,145,18620,LHFDA 22 FLDN,SWFWMD,Well,28.0775,-82.291111,,152,68,
-82.3523093732996,28.0287831938544,146,18634,TBC 603 FLDN,SWFWMD,Well,28.028778,-82.352306,,0,0,
-82.4013923913313,28.1233662162755,147,19193,CYPRESS CREEK ELAPP SOUTH FLDN,SWFWMD,Well,28.123361,-82.401389,,164,104,
-82.3918363891459,28.1550052233009,148,19194,CYPRESS CREEK ELAPP NORTH FLDN,SWFWMD,Well,28.155,-82.391833,,124,80,
-82.181781340259,28.5101993147373,149,23558,ROMP 99X U FLDN AQ MONITOR,SWFWMD,Well,28.510194,-82.181778,,222,143,
-82.4800314097396,28.0094491862392,150,19230,NWHWRAP-2D SHALLOW U FLDN AQ MONITOR,SWFWMD,Well,28.009444,-82.480028,,390,290,
-82.4876704151438,28.10772721015,151,19585,ROMP 65 FMW-3 UPPER FLDN,SWFWMD,Well,28.107722,-82.487667,,127,92,
-82.6672254693202,28.1731722208918,152,19899,ELDRIDGE-WILDE N3 FLDN,SWFWMD,Well,28.173167,-82.667222,,350,100,
-82.6513364644915,28.1696722207953,153,19900,ELDRIDGE-WILDE 2N FLDN,SWFWMD,Well,28.169667,-82.651333,,292,62,
-82.4528094169549,28.4440612916052,154,20868,CROSS BAR 2N MASARYKTOWN CANAL U FLDN AQ (CB-2N),SWFWMD,Well,28.444056,-82.452806,,150,100,
-82.4434754145699,28.4700612984111,155,20878,ROMP 98 U FLDN AQ MONITOR,SWFWMD,Well,28.470056,-82.443472,,143,79,
-81.8910587971938,28.0993663338535,156,24726,TENOROC ROAD INT NR LAKELAND,SWFWMD,Well,28.09936111,-81.89105556,,72,45,
-82.5714314655068,28.8764803918064,157,20085,ROMP TR 21-3 AVPK PZ CHLORIDE MONITOR,SWFWMD,Well,28.876475,-82.571428,,251,240,
-82.5531424530309,28.6582473396981,158,20120,ROMP TR 20-3 U FLDN AQ MONITOR (OCAL),SWFWMD,Well,28.658242,-82.553139,,203,100,
-82.6005864612067,28.5175613054995,159,20893,WW-4 WEEKI WACHEE U FLDN AQ MONITOR,SWFWMD,Well,28.517556,-82.600583,,523,481,
-82.5778364545828,28.5113383042354,160,20922,WEEKI WACHEE F FLDN,SWFWMD,Well,28.511333,-82.577833,,304,62,
-82.6530314746038,28.4501162874752,161,20936,ROMP TR 18-2 AVPK PZ MONITOR,SWFWMD,Well,28.450111,-82.653028,,480,447,
-82.6559204760097,28.4580882894701,162,20937,ROMP TR 18-2A U FLDN AQ INTERFACE MONITOR,SWFWMD,Well,28.458083,-82.655917,,209,153,
-82.4508954282576,28.7925223744815,163,20971,CSPR-2 U FLDN AQ MONITOR,SWFWMD,Well,28.792517,-82.450892,,95,55,
-82.6067534736602,28.7975223718642,164,20986,CSPR-4 U FLDN AQ MONITOR,SWFWMD,Well,28.797517,-82.60675,,43,18,
-82.4805924343375,28.7386443607657,165,21015,ROMP 108 U FLDN AQ MONITOR,SWFWMD,Well,28.738639,-82.480589,,230,191,
-82.3651423882626,28.3468112705827,166,18340,CR 581 NORTH FLDN,SWFWMD,Well,28.346806,-82.365139,,130,77,
-82.3620593883072,28.3794492782301,167,18351,ROMP 92 (CB-4E) U FLDN AQ MONITOR REPL,SWFWMD,Well,28.379444,-82.362056,,130,100,
-82.1216143119728,28.1768662360524,168,18356,J ALSTON FLDN,SWFWMD,Well,28.176861,-82.121611,,55,47,
-82.1217253122188,28.1752832359989,169,18357,ALSTON DEEP FLDN,SWFWMD,Well,28.175278,-82.121722,,98,59,
-82.0178302876904,28.3550262814249,170,17589,GREEN SWAMP MARSH FLDN,SWFWMD,Well,28.355021,-82.017827,,122,44,
-82.0208722890048,28.3644222835207,171,17591,GREEN SWAMP L-11K DEEP,SWFWMD,Well,28.364417,-82.020869,,36,0,
-82.5739534592082,28.6658443416208,172,20125,ROMP TR 20-2 U FLDN AQ MONITOR,SWFWMD,Well,28.665839,-82.57395,,303,103,
-82.7109754823197,28.1951442246416,173,22832,NWHWRAP-3D DEEP U FLDN AQ MONITOR,SWFWMD,Well,28.195139,-82.710972,,411,363,
-82.6801704743612,28.2063382283476,174,22836,SEVEN SPRINGS ELEMENTARY FLDN,SWFWMD,Well,28.206333,-82.680167,,68,56,
-82.7151974845717,28.2109222284934,175,22837,ANCLOTE ELEMENTARY SCHOOL FLDN,SWFWMD,Well,28.210917,-82.715194,,98,88,
-81.4352391998852,27.368868941669,176,23725,ROMP 28 AVPK,SWFWMD,Well,27.36886389,-81.43523611,,1642,960,
-82.6118164829531,29.0221304250929,177,22957,CE 70 FLDN,SWFWMD,Well,29.022125,-82.611813,,67,62,
-82.7231185152138,29.0336374242944,178,22964,ROMP TR 124 U FLDN AQ MONITOR (AVPK) 2,SWFWMD,Well,29.033632,-82.723115,,250,200,
-82.6765315018496,29.0337474256478,179,22966,CE 62 FLORIDA POWER FLDN,SWFWMD,Well,29.033742,-82.676528,,155,0,
-82.6893615053178,29.0414074273014,180,22976,ROMP TR 125 U FLDN AQ SULFATE MONITOR,SWFWMD,Well,29.041402,-82.689358,,280,270,
-82.5706334741815,29.1288884515247,181,22980,TIDEWATER 1 FLDN,SWFWMD,Well,29.128883,-82.57063,,784,298,
-82.4191024274905,29.053440438033,182,23020,CE 14 DUNNELLON DEEP,SWFWMD,Well,29.053435,-82.419099,,202,123,
-82.5321064312473,28.1866242279402,183,22842,SOUTH PASCO WEST DEEP,SWFWMD,Well,28.186619,-82.532103,,676,116,
-82.5135174256575,28.1955082298786,184,22845,STATE ROAD 54 DEEP,SWFWMD,Well,28.195503,-82.513514,,345,178,
-82.5517644548122,28.7219243550844,185,21035,CHASSAHOWITZKA 1 DEEP,SWFWMD,Well,28.721919,-82.551761,,176,166,
-82.3648114011365,28.7252883607803,186,21053,ROMP 109 U FLDN AQ MONITOR,SWFWMD,Well,28.725283,-82.364808,,260,189,
-82.2435423791705,29.1089154555097,187,670761,ROMP 129 U FLDN AQ MONITOR,SWFWMD,Well,29.10891,-82.243539,,155,50,
-82.5710864401269,28.1172272101839,188,19597,ST PETE JAMES 11 FLDN,SWFWMD,Well,28.117222,-82.571083,,300,76,
-82.5163644256073,28.1632272227624,189,19608,ST PETE-PASCO SOUTH BM U FLDN AQ MONITOR,SWFWMD,Well,28.163222,-82.516361,,700,93,
-82.4711144249078,28.5320883120336,190,20581,SPRING HILL FLDN,SWFWMD,Well,28.532083,-82.471111,,107,80,
-82.5049864245912,28.2468192426938,191,21063,BEXLEY 2 FLDN,SWFWMD,Well,28.246814,-82.504983,,149,51,
-82.5179254280991,28.2157692355075,192,22854,LEDANTEC FLDN,SWFWMD,Well,28.215764,-82.517922,,55,44,
-82.4954474290167,28.4452272903861,193,20824,CROSS BAR 2NW SPRING HILL 12 U FLDN AQ (CB-2NW),SWFWMD,Well,28.445222,-82.495444,,150,100,
-82.4532814176212,28.4806443004071,194,20829,CROSS BAR 4N AIRPORT U FLDN AQ (CB-4N),SWFWMD,Well,28.480639,-82.453278,,251,80,
-82.5826974533306,28.4349492855768,195,20841,ROMP 97 U FLDN AQ MONITOR,SWFWMD,Well,28.434944,-82.582694,,355,310,
-82.6364204688551,28.4381722852105,196,20846,ROMP TR 18-3 U FLDN AQ MONITOR,SWFWMD,Well,28.438167,-82.636417,,378,58,
-82.6330034688318,28.4618112906395,197,20854,ROMP TR 18-1 U FLDN AQ MONITOR,SWFWMD,Well,28.461806,-82.633,,580,445,
-82.5328094425251,28.533561311203,198,20584,WEEKI WACHEE FLDN NR WEEKI WACHEE,SWFWMD,Well,28.533556,-82.532806,,252,179,
-82.6156424670643,28.5451163116454,199,20690,ROMP TR 19-2 U FLDN AQ CHLORIDE MONITOR,SWFWMD,Well,28.545111,-82.615639,,302,277,
-82.5257564439599,28.6157083307459,200,20720,CENTRALIA 2 U FLDN AQ MONITOR,SWFWMD,Well,28.615703,-82.525753,,132,117,
-82.4564954245482,28.6569863421839,201,20727,ROMP 107 U FLDN AQ MONITOR,SWFWMD,Well,28.656981,-82.456492,,240,140,
-82.404336406599,28.556172319455,202,20756,ROMP 105 U FLDN AQ MONITOR (AVPK) 1,SWFWMD,Well,28.556167,-82.404333,,490,470,
-82.1425593033856,27.7408661297173,203,17840,ROMP 48 U FLDN AQ MONITOR (TMPA/SWNN),SWFWMD,Well,27.740861,-82.142556,,541,215,
-82.2183363422795,28.2590612530177,204,18846,AUSTIN SMITH FLDN,SWFWMD,Well,28.259056,-82.218333,,102,68,
-82.2370033499857,28.3271162694301,205,18868,BR-3 U FLDN AQ MONITOR,SWFWMD,Well,28.327111,-82.237,,246,133,
-82.3291143746249,28.2666992519131,206,18875,WESLEY CHAPEL WWTP FLDN,SWFWMD,Well,28.266694,-82.329111,,116,94,
-82.2543643372387,27.7629221320325,207,17932,ROMP 49 U FLDN AQ MONITOR (AVPK),SWFWMD,Well,27.762917,-82.254361,,1140,792,
-82.7198924788178,28.001311178632,208,22698,BOY SCOUT (ST PETE) FLDN,SWFWMD,Well,28.001306,-82.719889,,125,115,
-82.7290034821071,28.0220331828076,209,22703,ROMP TR 14-3 U FLDN AQ MONITOR (SWNN),SWFWMD,Well,28.022028,-82.729,,319,299,
-82.7217254803962,28.0330881859368,210,22710,COUNTRYSIDE GOLF & COUNTRY CLUB FLDN,SWFWMD,Well,28.033083,-82.721722,,130,120,
-82.6901704701311,28.0008941788406,211,22725,ROMP TR 14-1 U FLDN AQ MONITOR (SWNN),SWFWMD,Well,28.000889,-82.690167,,288,268,
-82.6117534503614,28.069894197291,212,19972,NWHWRAP-4D DEEP U FLDN AQ MONITOR,SWFWMD,Well,28.069889,-82.61175,,1106,998,
-82.5383924321428,28.1558112199133,213,19976,LUTZ-LAKE FERN DEEP,SWFWMD,Well,28.155806,-82.538389,,375,65,
-82.607809449535,28.0928662030995,214,19983,DIOCESE FLDN,SWFWMD,Well,28.092861,-82.607806,,180,142,
-82.5775894650242,28.7996473735126,215,20048,CSPR-1 U FLDN AQ MONITOR,SWFWMD,Well,28.799642,-82.577586,,61,52,
-82.4786204398978,28.9036864008286,216,20075,NORTH LECANTO DEEP,SWFWMD,Well,28.903681,-82.478617,,335,288,
-82.1458643206574,28.2228112462504,217,18374,CHANCEY ROAD FLDN,SWFWMD,Well,28.222806,-82.145861,,87,50,
-82.1843643314725,28.2314222470782,218,19404,ZEPHYRHILLS PARK FLDN,SWFWMD,Well,28.231417,-82.184361,,100,55,
-82.6703924692221,28.1492832147,219,22759,ELDRIDGE-WILDE 2S DEEP,SWFWMD,Well,28.149278,-82.670389,,290,61,
-82.6962814775944,28.1577272164685,220,22764,BISHOP FLDN,SWFWMD,Well,28.157722,-82.696278,,76,65,
-82.6964754771189,28.1485332144828,221,22765,NORTH LAKE TARPON FLDN,SWFWMD,Well,28.148528,-82.696472,,780,758,
-82.4887364479186,29.0382664320324,222,23421,CE 77 FLDN,SWFWMD,Well,29.038261,-82.488733,,190,171,
-82.3454113996496,28.8542223919859,223,23485,INVERNESS DOT FLDN,SWFWMD,Well,28.854217,-82.345408,,450,290,
-82.2195223600417,28.7538083719685,224,23500,ROMP 110 U FLDN AQ MONITOR,SWFWMD,Well,28.753803,-82.219519,,150,83,
-82.2406973606308,28.5942583333073,225,23516,WR-6A DEEP U FLDN AQ MONITOR,SWFWMD,Well,28.594253,-82.240694,,358,326,
-82.136836317267,28.21686624518,226,18388,PLAZA MATERIALS FLDN,SWFWMD,Well,28.216861,-82.136833,,137,71,
-82.4124063990692,28.2807992537588,227,18395,CYPRESS CREEK TMR-4 DEEP,SWFWMD,Well,28.280794,-82.412403,,592,99,
-82.1481949795728,27.9667301847565,228,770770,DV-2 U FLDN AQ (AVPK) MONITOR,SWFWMD,Well,27.966725,-82.14819167,,848,565,
-82.3237253721292,28.2403382463303,229,19327,ROMP 85 U FLDN AQ MONITOR (AVPK),SWFWMD,Well,28.240333,-82.323722,,505,450,
-82.3571143647713,27.7114221174039,230,18214,ROMP 50 U FLDN AQ MONITOR (SWNN),SWFWMD,Well,27.711417,-82.357111,,562,200,
-82.3699753768282,27.9517551754466,231,18285,ROMP TR 11-2 U FLDN AQ MONITOR,SWFWMD,Well,27.95175,-82.369972,,315,300,
-82.3698643764595,27.9573111766475,232,18296,SWFWMD AT S-160 FLDN,SWFWMD,Well,27.957306,-82.369861,,240,85,
-82.1355863127781,28.0687832095248,233,18311,MCINTOSH FLDN,SWFWMD,Well,28.068778,-82.135583,,155,99,
-82.359414383841,28.2745382531369,234,18421,SADDLEWOOD FLDN,SWFWMD,Well,28.274533,-82.359411,,137,50,
-82.6046144527093,28.220172234063,235,22883,STARKEY REGIONAL FLDN,SWFWMD,Well,28.220167,-82.604611,,380,280,
-82.4570704530594,29.4379015275101,236,22929,ROMP 134 U FLDN AQ MONITOR (OCAL-AVPK-OLDM),SWFWMD,Well,29.437896,-82.457067,,1185,70,
-82.3120033706907,28.302422261246,237,18880,MCKENDREE ROAD FLDN,SWFWMD,Well,28.302417,-82.312,,130,80,
-82.3342613780903,28.3110162625278,238,18883,TAMPA BAY GOLF & TENNIS CLUB FLDN,SWFWMD,Well,28.311011,-82.334258,,148,97,
-82.2781143623379,28.3446722725782,239,18887,SAN ANTONIO PARK FLDN,SWFWMD,Well,28.344667,-82.278111,,185,134,
-82.4037783965915,28.2598132486521,240,18910,CYPRESS CREEK TMR-5 DEEP,SWFWMD,Well,28.259808,-82.403775,,610,102,
-82.0409477065867,27.2853994671469,241,24414,ROMP 35 U FLDN AQ MONITOR (SWNN),SWFWMD,Well,27.28539445,-82.04094445,,741,537,
-81.588489250898,27.5834689939103,242,23956,ROMP 43 U FLDN AQ MONITOR (AVPK),SWFWMD,Well,27.58346389,-81.58848611,,1210,719,
-82.6078364504925,28.1290612115668,243,19808,LAKE ALICE FLDN,SWFWMD,Well,28.129056,-82.607833,,137,94,
-82.1355533126117,28.0687968759102,244,768554,MCINTOSH AVPK,SWFWMD,Well,28.06879167,-82.13555,,900,560,
-82.5545864351664,28.1337272145403,245,670316,BROOKER CREEK FLDN,SWFWMD,Well,28.133722,-82.554583,,150,100,
-82.1420033238881,28.3600332793263,246,17516,ROMP 90 U FLDN AQ MONITOR (AVPK),SWFWMD,Well,28.360028,-82.142,,665,424,
-82.6207814590491,28.2783112470952,247,20339,MOON LAKE DEEP,SWFWMD,Well,28.278306,-82.620778,,115,65,
-82.6822534763589,28.2616722416246,248,20349,ROMP TR 16-3 U FLDN AQ INTERFACE MONITOR,SWFWMD,Well,28.261667,-82.68225,,515,494,
-82.1801143310707,28.2507272520121,249,19414,ROMP 86 U FLDN AQ MONITOR,SWFWMD,Well,28.250722,-82.180111,,436,424,
-82.293225362584,28.2173112410458,250,19418,FOX RIDGE FLDN,SWFWMD,Well,28.217306,-82.293222,,155,104,
-81.8078087367594,26.9458271657111,251,25090,ROMP 5 U FLDN AQ MONITOR (SWNN),SWFWMD,Well,26.94582222,-81.80780555,,970,720,
-82.6778644769532,28.3223662568661,252,20364,ROMP TR 17-3 U FLDN AQ MONITOR,SWFWMD,Well,28.322361,-82.677861,,196,184,
-82.434392265063,27.3378216913942,253,753497,SARASOTA SERVICE OFFICE U FLDN AQ MONITOR,SWFWMD,Well,27.33781667,-82.43438889,,760,477,
-82.1944200213998,28.8209526106035,254,759562,TSALA APOPKA LAKE 6 U FLDN AQ MONITOR,SWFWMD,Well,28.82094722,-82.19441667,,46,30,
-81.8708171220778,27.9843246405921,255,739103,LAKE HANCOCK NW U FLDN AQ MONITOR,SWFWMD,Well,27.98431944,-81.87081389,,180,130,
-82.1490116169979,27.0763299707268,256,25981,ROMP 9 AVPK PZ MONITOR,SWFWMD,Well,27.076325,-82.14900833,,1230,1180,
-82.7018644842739,28.3214222558846,257,20366,ROMP TR 17-1 U FLDN AQ MONITOR,SWFWMD,Well,28.321417,-82.701861,,139,131,
-82.6662254716226,28.2573112409071,258,20390,ROMP TR 16-4 AVPK PZ MONITOR,SWFWMD,Well,28.257306,-82.666222,,780,740,
-82.7091424836158,28.2450332367777,259,20317,GULF MIDDLE SCHOOL FLDN,SWFWMD,Well,28.245028,-82.709139,,35,15,
-82.7112254847802,28.2550882392522,260,20322,ROMP TR 16-2 SWNN,SWFWMD,Well,28.255083,-82.711222,,230,210,
-82.4364474085532,28.359172271549,261,20469,CROSS BAR 1E PHILLIPS U FLDN AQ (CB-1E),SWFWMD,Well,28.359167,-82.436444,,150,100,
-82.4034754012764,28.4192552869063,262,20475,CROSS BAR 2NE BARTHLE A NORTH U FLDN AQ (CB-2NE),SWFWMD,Well,28.41925,-82.403472,,150,100,
-82.452836415799,28.4265882877295,263,20481,CROSS BAR 1N FINEST FARMS U FLDN AQ (CB-1N),SWFWMD,Well,28.426583,-82.452833,,150,80,
-81.8236172325155,28.379461292293,264,17526,EVA DEEP,SWFWMD,Well,28.379456,-81.823614,,192,100,
-82.7961975006549,27.9801161707816,265,21143,GARDEN STREET TRIANGLE FLDN,SWFWMD,Well,27.980111,-82.796194,,208,54,
-82.7775594928468,27.9163661559092,266,21131,ROMP TR 13-1X U FLDN AQ MONITOR (SWNN),SWFWMD,Well,27.916361,-82.777556,,264,254,
-82.2015423578031,28.8554083966841,267,23032,SUMTER 13 JC 59 UPPER FLDN REPL,SWFWMD,Well,28.855403,-82.201539,,33,28,
-82.0493863051005,28.6107863420859,268,23078,WEBSTER CITY FLDN,SWFWMD,Well,28.610781,-82.049383,,423,200,
-82.1271953338098,28.7748523793297,269,23109,LP-4 U FLDN AQ MONITOR 120-FT,SWFWMD,Well,28.774847,-82.127192,,120,100,
-82.1271953338098,28.7748523793297,270,23110,LP-4 U FLDN AQ MONITOR 240-FT,SWFWMD,Well,28.774847,-82.127192,,240,200,
-82.0642603148788,28.7721883801768,271,23115,ROMP 111 U FLDN AQ MONITOR,SWFWMD,Well,28.772183,-82.064257,,192,62,
-82.0289143087478,28.866849404082,272,23135,MASTERS AVENUE AT WILDWOOD,SWFWMD,Well,28.866844,-82.028911,,125,45,
-82.1533953423095,28.8032633856597,273,23143,LP-3 U FLDN AQ MONITOR,SWFWMD,Well,28.803258,-82.153392,,150,110,
-82.0946363252914,28.8001163860167,274,23147,LP-6 U FLDN AQ MONITOR,SWFWMD,Well,28.800111,-82.094633,,154,42,
-82.2514422196982,27.5887106460341,275,26090,ROMP 39 AVPK PZ MONITOR,SWFWMD,Well,27.58870556,-82.25143889,,1120,960,
-82.3771563892149,28.2705362521796,276,19427,PHEASANT RUN-QUAIL HOLLOW FLDN,SWFWMD,Well,28.270531,-82.377153,,111,94,
-82.2313643430594,28.1483662262579,277,19461,HILLSBOROUGH RIVER STATE PARK PARKING LOT DEEP,SWFWMD,Well,28.148361,-82.231361,,50,37,
-82.5916974451572,28.1022272059445,278,19536,COSME 3 FLDN,SWFWMD,Well,28.102222,-82.591694,,354,79,
-82.5812814422065,28.1093942074993,279,19538,HORSE LAKE FLDN,SWFWMD,Well,28.109389,-82.581278,,94,54,
-82.1770293346563,28.3833742840642,280,23207,LYKES PASCO FLDN,SWFWMD,Well,28.383369,-82.177026,,36,0,
-82.2247863711533,29.0260424363804,281,23228,CE 78 FLDN,SWFWMD,Well,29.026037,-82.224783,,82,61,
-82.2357663741832,29.02607243587,282,23229,ROMP 119 U FLDN AQ SULFATE MONITOR,SWFWMD,Well,29.026067,-82.235763,,502,106,
-82.3192453973098,29.0186454318155,283,23243,CE 23 DUNNELLON FLDN,SWFWMD,Well,29.01864,-82.319242,,45,19,
-82.3549313852318,28.3241862655115,284,18965,SR 52 AND CR 581 DEEP,SWFWMD,Well,28.324181,-82.354928,,113,83,
-82.4225644036091,28.3232132631894,285,18970,ROMP 93 U FLDN AQ MONITOR,SWFWMD,Well,28.323208,-82.422561,,700,149,
-82.4460724110033,28.3218942628119,286,18973,SR 52 DEEP EAST FLDN NR GOWERS CORNER,SWFWMD,Well,28.321889,-82.446069,,73,38,
-82.0742755118759,27.9271718435735,287,171194,TBW SCHM-3D FLDN,SWFWMD,Well,27.92716667,-82.07427222,,880,218,
-82.1294338594969,27.8888301665667,288,179575,TBW SCHM-11D FLDN,SWFWMD,Well,27.888825,-82.12943055,,918,220,
-81.5364721313432,27.8404051689224,289,23873,CL-1 U FLDN AQ MONITOR,SWFWMD,Well,27.8404,-81.536469,,315,220,
-82.4949474175983,28.1166162117083,290,19545,BERGER DEEP,SWFWMD,Well,28.116611,-82.494944,,134,44,
-82.3096922954921,29.3269166161987,291,750867,ROMP 132 U FLDN AQ MONITOR,SWFWMD,Well,29.32691111,-82.30968889,,994,239,
-81.7967031957739,27.4592800668872,292,23974,ROMP 30 U FLDN AQ MONITOR,SWFWMD,Well,27.459275,-81.7967,,1266,380,
-81.8246587533854,27.2996300336999,293,24385,ROMP 26 U FLDN AQ MONITOR,SWFWMD,Well,27.299625,-81.82465556,,1320,580,
-81.8839893200654,27.0611827479082,294,24357,ROMP 16.5 U FLDN AQ MONITOR,SWFWMD,Well,27.06117778,-81.88398611,,827,600,
-82.0778922966713,28.0860052155667,295,19456,CONE RANCH TBW TP-2 FLDN,SWFWMD,Well,28.086,-82.077889,,700,44,
-82.5073924210342,28.1172272119984,296,19551,ST PETE HILLSBORO 13 DEEP,SWFWMD,Well,28.117222,-82.507389,,347,46,
-82.3780313906533,28.3126362621391,297,18934,CYPRESS CREEK TMR-2 DEEP,SWFWMD,Well,28.312631,-82.378028,,625,120,
-81.4196419758171,27.5027273116279,298,670785,ROMP 29A AVPK PZ MONITOR,SWFWMD,Well,27.50272222,-81.41963889,,1553,1260,
-82.4702784172103,28.3249772629128,299,20425,CROSS BAR 1S PASCO TRAILS U FLDN AQ (CB-1S),SWFWMD,Well,28.324972,-82.470275,,150,100,
-82.5183924315623,28.3209192603002,300,20427,CROSS BAR 2SW CSX U FLDN AQ (CB-2SW),SWFWMD,Well,28.320914,-82.518389,,150,100,
-82.5501094403916,28.330491262001,301,20458,SR 52 DEEP WEST NR FIVAY JUNCTION,SWFWMD,Well,28.330486,-82.550106,,73,60,
-82.4412254094167,28.3418382669221,302,20467,CROSS BAR 1SE PHILLIPS B2 U FLDN AQ (CB-1SE),SWFWMD,Well,28.341833,-82.441222,,206,79,
-82.25280935173,28.2196442426921,303,19039,NEW RIVER LIBRARY FLDN,SWFWMD,Well,28.219639,-82.252806,,135,80,
-82.0904473025961,28.1813942374519,304,19080,ALSTON TRACT FLDN,SWFWMD,Well,28.181389,-82.090444,,112,50,
-82.3149213971865,29.0328104356079,305,23244,ROMP 119.5 U FLDN AQ MONITOR (MARION 1 TRACT),SWFWMD,Well,29.032805,-82.314918,,216,56,
-82.2568733800616,29.0366334377913,306,23245,CE 74 FLDN OBSERVATION NR OCALA,SWFWMD,Well,29.036628,-82.25687,,51,0,
-82.390618419702,29.0455514366193,307,23250,ROMP 121 AVPK,SWFWMD,Well,29.045546,-82.390615,,602,143,
-82.3182083984317,29.0536544401285,308,23253,CE 22 FLDN,SWFWMD,Well,29.053649,-82.318205,,60,39,
-82.4188504284886,29.0800874439982,309,23274,CE 13 FLDN,SWFWMD,Well,29.080082,-82.418847,,93,43,
-82.4515924388688,29.0877284446464,310,23316,RAINBOW SPRINGS FLDN NR DUNNELLON,SWFWMD,Well,29.087723,-82.451589,,442,125,
-82.1941693663341,29.151595466963,311,23335,WR-5 U FLDN AQ MONITOR,SWFWMD,Well,29.15159,-82.194166,,182,140,
-82.7173924811808,28.0834221977892,312,21079,HIGHLAND LAKES GOLF COURSE FLDN,SWFWMD,Well,28.083417,-82.717389,,106,95,
-82.1647783164585,27.9369662880343,313,105483,TBW SCHM-2D FLDN,SWFWMD,Well,27.93696111,-82.164775,,910,115,
-82.638892460636,28.1659222196162,314,19716,ELDRIDGE-WILDE 139G FLDN,SWFWMD,Well,28.165917,-82.638889,,195,44,
-81.570350382991,28.4608414296738,315,790304,LAKE SAWYER FLDN NR WINDERMERE,SWFWMD,Well,28.46083611,-81.57034722,,178,103,Same well as 82713405
-82.5502534127799,27.4372328249698,316,26127,ROMP TR 7-2 U FLDN AQ MONITOR (TMPA/SWNN),SWFWMD,Well,27.43722778,-82.55025,,465,358,
-82.7575594906401,28.0259221832226,317,21099,ROMP TR 14-2 U FLDN AQ MONITOR (OCAL),SWFWMD,Well,28.025917,-82.757556,,460,440,
-82.7268644794987,27.9647551689478,318,21125,CLEARWATER-DUNEDIN 27 DEEP,SWFWMD,Well,27.96475,-82.726861,,548,523,
-82.7343924816442,27.971366170707,319,21128,PINELLAS 665 FLDN,SWFWMD,Well,27.971361,-82.734389,,299,81,
-82.0918173222586,28.7491243740699,320,23086,LP-5 U FLDN AQ MONITOR,SWFWMD,Well,28.749119,-82.091814,,139,109,
-81.5870948217132,28.0224718815367,321,25324,RIDGE WRAP VC-13A FLDN,SWFWMD,Well,28.02246667,-81.58709167,,200,178,
-81.3533086167255,27.1499605624893,322,23823,ROMP 14 U FLDN AQ MONITOR (SWNN),SWFWMD,Well,27.14995556,-81.35330556,,730,650,
-82.3366200110427,27.3120883534909,323,25717,ROMP 22 AVPK PZ MONITOR,SWFWMD,Well,27.31208333,-82.33661666,,1660,1200,
-82.2344089208883,28.7920470474342,324,759565,TSALA APOPKA LAKE 4 U FLDN AQ MONITOR,SWFWMD,Well,28.79204167,-82.23440556,,50,35,
-82.3060506122843,28.9045581830059,325,759559,TSALA APOPKA LAKE 2 U FLDN AQ MONITOR,SWFWMD,Well,28.90455278,-82.30604722,,69,46,
-82.3350033700963,28.076477206674,326,728018,MORRIS BRIDGE IDLEWOOD U FLDN AQ MONITOR,SWFWMD,Well,28.076472,-82.335,,100,61,
-82.2282453662427,28.8806364021752,327,755810,ROMP 112 U FLDN AQ MONITOR,SWFWMD,Well,28.880631,-82.228242,,67,42,
-82.0469004834169,27.1267466509335,328,24032,ROMP 9.5 U FLDN AQ MONITOR (MW-1),SWFWMD,Well,27.12674167,-82.04689723,,800,505,
-81.7996587673724,27.9658718592883,329,739106,LAKE HANCOCK E U FLDN AQ MONITOR,SWFWMD,Well,27.96586667,-81.79965556,,200,150,
-81.5650725820774,27.8969690713597,330,25354,ROMP 57X U FLDN AQ MONITOR,SWFWMD,Well,27.89696389,-81.56506944,,315,274,
-82.6353364624502,28.247533239523,331,20238,STARKEY 10 DEEP,SWFWMD,Well,28.247528,-82.635333,,392,153,
-82.3796783900029,28.2888742560165,332,18439,CYPRESS CREEK TMR-1 DEEP,SWFWMD,Well,28.288869,-82.379675,,535,142,
-82.394992394435,28.2960302574763,333,18454,CYPRESS CREEK TMR-3 DEEP,SWFWMD,Well,28.296025,-82.394989,,625,160,
-82.4121144011715,28.3460882694808,334,18984,CROSS BAR 1ESE BARTHLE C SOUTH U FLDN AQ (CB-1ESE),SWFWMD,Well,28.346083,-82.412111,,150,100,
-82.536475671138,28.6891720106257,335,20732,WR-1 MALIBAR U FLDN AQ PRODUCTION MONITOR,SWFWMD,Well,28.68916666,-82.53647222,,350,161,
-82.441156146208,27.0578855080044,336,26003,ROMP TR 4-1 U FLDN AQ INTERFACE MONITOR,SWFWMD,Well,27.05788055,-82.44115278,,821,765,
-82.6353644593763,28.1623382188019,337,19711,ELDRIDGE-WILDE N4 FLDN,SWFWMD,Well,28.162333,-82.635361,,350,100,
-82.5178284268331,28.1819442269524,338,19691,ST PETE E-105 DEEP,SWFWMD,Well,28.181939,-82.517825,,1360,1012,
-82.2004753355881,28.1940052384134,339,19015,ZEPHYRHILLS PRISON FLDN,SWFWMD,Well,28.194,-82.200472,,99,42,
-82.1676143261948,28.1955052391561,340,19026,ROMP 86A U FLDN AQ MONITOR (AVPK),SWFWMD,Well,28.1955,-82.167611,,560,500,
-82.3182634038202,29.1834484709356,341,23349,ROMP 120 U FLDN AQ MONITOR,SWFWMD,Well,29.183443,-82.31826,,403,110,
-82.2746003723897,28.6487413456177,342,23393,TOWNSEN PARK UPPER FLDN,SWFWMD,Well,28.648736,-82.274597,,100,50,
-82.3853367213724,28.9964776308596,343,778949,JORDAN SINK FLDN,SWFWMD,Well,28.99647221,-82.3853333,,70,32,
-80.1797959106289,26.1733959415673,344,BF-4S,BF-4S,SFWMD,Well,26.17339115,-80.17979322,,1200,1000,
-80.1239363011161,26.3144490701649,345,BF-6,BF-6,SFWMD,Well,26.31444425,-80.12393363,,1128,960,
-81.3091910743665,25.8936294486518,346,BICY-MZ2,BICY-MZ2,SFWMD,Well,25.89362476,-81.30918807,,838,890,
-80.0917801898463,26.493851595398,347,BOYRO_EPXU,BOYRO_EPXU,SFWMD,Well,26.49384673,-80.09177752,,1160,995,
-81.497004556959,26.7086210204508,348,BRY-MW,BRY-MW,SFWMD,Well,26.70861613,-81.49700147,,750,556,
-82.0357636174698,26.7724704810942,349,BSU-MZU,BSU-MZU,SFWMD,Well,26.77246559,-82.03576037,,1287,1207,
-80.6029777863516,25.3825312424017,350,ENP-100,ENP-100,SFWMD,Well,25.38252666,-80.602975,,1333,620,
-81.7819849584575,26.6959054754614,351,FPL-MW,FPL-MW,SFWMD,Well,26.69590059,-81.78198179,,800,540,
-80.3151539505413,27.4559718812895,352,FPU-MZU,FPU-MZU,SFWMD,Well,27.45596678,-80.31515119,,1019,900,
-80.8220471245182,26.1714101098393,353,G-2618,G-2618,SFWMD,Well,26.17140534,-80.82204425,,1164,1104,
-80.2877760437642,25.8284863633757,354,G-3061,G-3061,SFWMD,Well,25.82848167,-80.28777333,,1105,955,
-81.0853911351884,26.8385401494083,355,GLF-6,GLF-6,SFWMD,Well,26.83853522,-81.08538816,,1560,840,
-81.2022390139607,27.2716134470618,356,HIF-40,HIF-40,SFWMD,Well,27.27160841,-81.202236,,600,540,
-80.9561082133896,27.2197700310948,357,HIF-42U,HIF-42U,SFWMD,Well,27.219765,-80.95610527,,1040,560,
-81.7305650657124,26.1703981659559,358,I75-MZ2,I75-MZ2,SFWMD,Well,26.17039341,-81.73056193,,1050,905,
-82.1104388105864,26.4422236989683,359,IWA-MZU,IWA-MZU,SFWMD,Well,26.44221889,-82.11043556,,869,840,
-81.4313641694794,26.4137548191559,360,IWSD-MZ2,IWSD-MZ2,SFWMD,Well,26.41375,-81.43136111,,1140,1060,
-81.7963156160294,24.5685051800813,361,KW-MZL,KW-MZL,SFWMD,Well,24.56850083,-81.7963125,,1320,1280,
-80.9493747995314,26.6080077047607,362,L2-PW2,L2-PW2,SFWMD,Well,26.60800283,-80.94937188,,1160,810,
-82.0556494135935,26.6520180773955,363,L-6436,L-6436,SFWMD,Well,26.65201321,-82.05564617,,1080,898,
-81.471590868166,26.7531832379671,364,LAB-MZ1,LAB-MZ1,SFWMD,Well,26.75317833,-81.47158779,,837,670,
-80.4828536134382,26.9913280499085,365,MF-35B,MF-35B,SFWMD,Well,26.99132306,-80.48285081,,1340,390,
-80.6046211875721,26.9906845244347,366,MF-37U,MF-37U,SFWMD,Well,26.99067954,-80.60461835,,1039,765,
-80.4756975075962,27.2059491931042,367,MF-40U,MF-40U,SFWMD,Well,27.20594415,-80.4756947,,970,790,
-80.3856136069094,27.0851377873363,368,MF-52,MF-52,SFWMD,Well,27.08513278,-80.38561083,,1320,400,
-81.1908988318384,28.3783441092781,369,MOSSPK_D,MOSSPK_D,SFWMD,Well,28.3783388,-81.19089578,,480,240,
-80.8711841698162,27.1548232403219,370,OKF-100U,OKF-100U,SFWMD,Well,27.15481822,-80.87118125,,1350,565,
-81.1141976332078,27.4020325397432,371,OKF-105U,OKF-105U,SFWMD,Well,27.40202747,-81.11419464,,525,372,
-80.7855664615514,27.2378868903912,372,OKF-106,OKF-106,SFWMD,Well,27.23788185,-80.78556357,,818,717,
-81.1158992987037,27.4011555930094,373,OKF-42,OKF-42,SFWMD,Well,27.40115052,-81.1158963,,1152,370,
-81.5347127471156,28.4717657340729,374,ORF-61,ORF-61,SFWMD,Well,28.47176041,-81.5347096,,650,142,
-81.1614730503028,28.3947080982421,375,ORF-62,ORF-62,SFWMD,Well,28.39470279,-81.16147001,,600,290,
-81.4243224376628,28.1549943036912,376,OSF-102,OSF-102,SFWMD,Well,28.15498905,-81.42431933,,180.9,158.6,
-81.6337024989928,28.3340620087151,377,OSF-103,OSF-103,SFWMD,Well,28.33405672,-81.63369932,,150,67,
-81.1327322800008,27.6596558460399,378,OSF-104U,OSF-104U,SFWMD,Well,27.65965071,-81.13272927,,550,330,
-81.0521744037595,27.8730526970196,379,OSF-3,OSF-3,SFWMD,Well,27.87304751,-81.05217141,,310,243,
-81.1982821898101,27.803060445539,380,OSF-52,OSF-52,SFWMD,Well,27.80305528,-81.19827916,,880,172,
-81.0448670795859,27.9007020555836,381,OSF-62,OSF-62,SFWMD,Well,27.90069686,-81.04486409,,630,260,
-81.279617771397,28.0724071200176,382,OSF-64,OSF-64,SFWMD,Well,28.07240189,-81.27961471,,610,310,
-81.1897598917286,28.0272454279282,383,OSF-66,OSF-66,SFWMD,Well,28.0272402,-81.18975685,,640,342,
-81.3282004790626,28.2523687657306,384,OSF-70R,OSF-70R,SFWMD,Well,28.25236349,-81.3281974,,246,130,
-80.1401193627383,26.9351374786054,385,PB-747,PB-747,SFWMD,Well,26.9351325,-80.14011667,,1264,995,
-80.2922130032065,26.3544546266578,386,PBF-14,PBF-14,SFWMD,Well,26.3544498,-80.29221028,,1225,1020,
-80.3635257155301,26.7378041106403,387,PBF-15U,PBF-15U,SFWMD,Well,26.73779919,-80.36352296,,1144,1144,
-80.1035113096798,26.6763435698871,388,PBF-3,PBF-3,SFWMD,Well,26.67633865,-80.10350863,,1252,1050,
-80.7159489698565,26.6998287950865,389,PBF-7U,PBF-7U,SFWMD,Well,26.69982389,-80.71594611,,1447,992,
-81.1329328144453,27.6593840639381,390,POF-20R,POF-20R,SFWMD,Well,27.65937893,-81.13292981,,397,287,
-81.3995098400199,28.0483544456067,391,POF-22,POF-22,SFWMD,Well,28.04834922,-81.39950674,,431.6,204.6,
-81.1838921004627,27.7484436978364,392,POF-23,POF-23,SFWMD,Well,27.74843854,-81.18388908,,320,248,
-81.7231235010326,26.0959111729836,393,SCC-MZU,SCC-MZU,SFWMD,Well,26.09590644,-81.72312037,,910,850,
-80.4019472349778,27.4283384294131,394,SLF-21,SLF-21,SFWMD,Well,27.42833333,-80.40194445,,707,156,
-80.4897250343578,27.3377550707779,395,SLF-75,SLF-75,SFWMD,Well,27.33775,-80.48972222,,700,480,
-81.7259423323712,29.8378486299957,396,C-0123,Sungarden Twr,SJRWMD,Well,29.83784299,-81.72593908,,457,348,
-80.4306437186681,27.576901968151,397,IR0312,Oslo,SJRWMD,Well,27.57689684,-80.43064092,,568,120,
-81.1375001101218,29.4338889100124,398,F-0176,Bulow Ruins,SJRWMD,Well,29.43388335,-81.13749704,,120,91,
-80.7386212183315,28.3273494670803,399,BR1558,Kennedy MS,SJRWMD,Well,28.32734416,-80.7386183,,180,140,
-82.2216667761101,29.4395997408787,400,M-0367,Huff,SJRWMD,Well,29.43959421,-82.22166339,,215,71,
-82.189052054155,29.5991986294235,401,A-0005,Owens-Illinois,SJRWMD,Well,29.59919306,-82.18904867,,0,0,
-82.1238831633998,29.1969050188408,402,M-0239,NE 10th St,SJRWMD,Well,29.19689954,-82.12387982,,75,65,
-82.3138889991576,29.728888906157,403,A-0706,Alachua Co F-3,SJRWMD,Well,29.72888331,-82.31388558,,210,145,
-81.9407945533656,29.2964166858553,404,M-0025,Gores Landing,SJRWMD,Well,29.29641118,-81.94079126,,280,258,
-82.0322456647422,29.1933205738742,405,M-0026,Silver Spg,SJRWMD,Well,29.19331509,-82.03224234,,192,174,
-81.9012362203656,29.1869861312027,406,M-0044,Redwater Lk,SJRWMD,Well,29.18698065,-81.90123294,,199,46,
-80.9422201095194,28.236940022821,407,OS0238,TH-4 Deer Pk,SJRWMD,Well,28.23693474,-80.94221714,,373,173,
-81.0954120529942,28.4611922439472,408,OR0265,Cocoa F,SJRWMD,Well,28.46118691,-81.09540903,,375,200,
-81.2272198328888,28.9286852980947,409,V-0772,Galaxy MS,SJRWMD,Well,28.92867986,-81.22721675,,140,100,
-81.6182945546515,29.413523907975,410,P-0776,Marvin Jones Rd,SJRWMD,Well,29.41351836,-81.61829135,,160,155,
-81.5072912214969,29.2530202981327,411,V-4034,Old Bubbly,SJRWMD,Well,29.25301479,-81.50728805,,180,107,
-81.822458999582,29.7230461305964,412,P-4086,Etonia E V Rd,SJRWMD,Well,29.72304052,-81.82245572,,310,255,
-81.8308234426354,29.5407791865592,413,P-0132,Greenways,SJRWMD,Well,29.54077362,-81.83082017,,210,155,
-81.5441667780881,30.1272222407066,414,D-1413,Julington Ck,SJRWMD,Well,30.12721653,-81.54416356,,430,375,
-81.8344445559855,30.0600000192463,415,C-1063,Lk Asbury,SJRWMD,Well,30.05999433,-81.83444126,,450,395,
-81.0627003886221,29.1848969651152,416,V-1150,Daytona Bch AP,SJRWMD,Well,29.18489146,-81.06269735,,183,97,
-80.9924520556398,29.1273141875446,417,V-1163,Buschman Pk,SJRWMD,Well,29.12730869,-80.99244904,,130,90,
-81.1538478890328,29.1610264100853,418,V-1216,Tiger Bay Site 2,SJRWMD,Well,29.16102091,-81.15384482,,150,100,
-81.6103337206199,28.5291359648668,419,OR1123,Johns LK E,SJRWMD,Well,28.52913063,-81.61033054,,170,60,
-81.3203089978509,28.6889527982579,420,S-0715,Lk Hodge,SJRWMD,Well,28.68894742,-81.3203059,,180,80,
-81.7053314973615,28.6887647431539,421,L-1023,Duda-Whittle,SJRWMD,Well,28.68875937,-81.70532829,,174,124,
-81.3418278327993,28.9441143779825,422,V-0083,Blue Spg,SJRWMD,Well,28.94410894,-81.34182472,,432,84,
-81.4634924166197,29.2470501216081,423,V-0531,Pierson AP,SJRWMD,Well,29.24704461,-81.46348926,,210,130,
-81.5138894386171,29.4319476403222,424,P-2037,Stella Lk,SJRWMD,Well,29.43194209,-81.51388626,,160,110,
-81.7969703869563,29.6255125196549,425,P-0510,Hollister Work Cntr,SJRWMD,Well,29.62550693,-81.79696712,,300,175,
-81.7906958047573,28.899678420015,426,L-0620,Carrot Barn,SJRWMD,Well,28.899673,-81.79069256,,304,147,
-82.0756515951595,29.599102632115,427,A-0071,Hawthorne Twr,SJRWMD,Well,29.59909706,-82.07564825,,113,95,
-82.2869296540636,29.6846557002022,428,A-0693,Alachua Fairgrounds,SJRWMD,Well,29.68465011,-82.28692624,,440,192,
-82.1491128663439,29.661030491414,429,A-0708,Alachua Co F-5,SJRWMD,Well,29.6610249,-82.1491095,,191,120,
-81.8841402998927,29.0821503418868,430,M-0013,Moss Bluff,SJRWMD,Well,29.08214488,-81.88413703,,225,80,
-81.8491177734072,29.3687001939048,431,M-0024,Forest Rd 97 & CR316,SJRWMD,Well,29.36869467,-81.8491145,,90,53,
-82.119993106535,28.9855648869342,432,M-0031,Pedro,SJRWMD,Well,28.98555946,-82.11998977,,66,45,
-82.0316682843711,30.0550032783797,433,C-1017,Camp Blanding N Rd,SJRWMD,Well,30.05499759,-82.03166493,,550,500,
-82.1540011980446,29.0663008870809,434,M-0041,SR475B,SJRWMD,Well,29.06629544,-82.15399785,,80,29,
-80.7669658498869,28.38237850191,435,BR1557,Cocoa HS,SJRWMD,Well,28.38237318,-80.76696292,,190,150,
-81.1695798741051,29.1685714895612,436,V-0086,Tiger Bay,SJRWMD,Well,29.16856599,-81.16957681,,222,122,
-81.0943330017965,28.9514200263925,437,V-0101,Alamana,SJRWMD,Well,28.95141458,-81.09432996,,121,113,
-81.0716164353591,28.9928700799863,438,V-0110,Samsula,SJRWMD,Well,28.99286462,-81.0716134,,261,105,
-81.3419391180693,29.0272421175654,439,V-0115,SR44 & Ridgewood,SJRWMD,Well,29.02723666,-81.341936,,350,252,
-81.4520173741461,29.249466814041,440,V-0147,Franklin St,SJRWMD,Well,29.2494613,-81.45201422,,140,128,
-81.8829374174702,29.6699278763188,441,P-0772,Lk Grandin,SJRWMD,Well,29.66992228,-81.88293412,,200,165,
-81.5878588902715,29.5352533352726,442,P-0817,Lk Broward,SJRWMD,Well,29.53524776,-81.58785569,,200,100,
-81.6156171346638,29.9591759780637,443,C-0579,Bayard Point,SJRWMD,Well,29.9591703,-81.61561391,,655,320,
-81.2744436430136,28.6600033022374,444,S-1056,Citrus Rd,SJRWMD,Well,28.65999793,-81.27444056,,365,166,
-81.6858338688412,29.9402813982474,445,C-1056,Walkill,SJRWMD,Well,29.94027573,-81.68583062,,440,385,
-81.6597228139273,29.872781339121,446,C-1026,Bayard nr Walkill,SJRWMD,Well,29.87277569,-81.65971958,,380,330,
-81.705000661545,30.2294480294454,447,D-1394,NAS Jax WP 3,SJRWMD,Well,30.2294423,-81.7049974,,736,390,
-81.4424419839225,29.7840982407985,448,SJ0317,Sykes Frms,SJRWMD,Well,29.7840926,-81.44243881,,290,99,
-80.6763881926544,28.5077813001095,449,BR1748,Ransom Rd Pine Is,SJRWMD,Well,28.50777595,-80.67638529,,210,170,
-81.9849072765884,29.776524923897,450,C-0031,Lk Geneva,SJRWMD,Well,29.7765193,-81.98490395,,244,192,
-82.0356767859846,29.802244422732,451,C-0120,Lk Brooklyn,SJRWMD,Well,29.8022388,-82.03567344,,227,192,
-81.222913922921,29.5539842985084,452,F-0158,ITT Palm Coast,SJRWMD,Well,29.55397871,-81.22291082,,284,183,
-81.4608061589794,28.8898922936405,453,L-0816,Seminole SF,SJRWMD,Well,28.88988687,-81.46080302,,220,120,
-82.2622238378308,29.5655583659595,454,A-0750,Paynes Pr Buffalo,SJRWMD,Well,29.5655528,-82.26222044,,269,91,
-82.0410873350066,29.3679528510709,455,M-0052,Ft. McCoy Twr,SJRWMD,Well,29.36794733,-82.041084,,160,60,
-81.5791624435381,29.0808780545343,456,L-0066,Alexander Spg,SJRWMD,Well,29.08087259,-81.57915926,,102,74,
-81.895910020568,28.6894206409824,457,L-0095,Groveland Twr,SJRWMD,Well,28.68941528,-81.89590676,,365,150,
-81.6799245852933,28.5250116215258,458,L-0052,Johns Lk,SJRWMD,Well,28.52500629,-81.67992139,,115,73,
-80.6099985620957,27.7780591108904,459,IR0921,Morrison,SJRWMD,Well,27.77805393,-80.6099957,,541,165,
-80.5786094878199,27.5875034298073,460,IR0954,SJWCD,SJRWMD,Well,27.5874983,-80.57860664,,480,432,
-80.7783318228238,27.7047257018887,461,IR0968,Blue Cyp S315,SJRWMD,Well,27.70472055,-80.77832892,,440,303,
-81.3973832982551,28.8239784199081,462,S-1230,Yankee Lk,SJRWMD,Well,28.82397301,-81.39738018,,404,120,
-80.4297206306011,27.6463924804628,463,IR1006,Dodger Stadium E,SJRWMD,Well,27.64638733,-80.42971783,,460,405,
-80.377220606854,27.6347259034104,464,IR1008,Vero Bch Pwr Plant,SJRWMD,Well,27.63472076,-80.37721782,,685,595,
-81.7692314774264,28.7446789474982,465,L-0043,Lk Yale Grvs,SJRWMD,Well,28.74467357,-81.76922825,,200,112,
-81.2053389284532,29.6317232951763,466,F-0200,Washington Oaks SP,SJRWMD,Well,29.63171769,-81.20533583,,148,143,
-82.2912518542032,30.4406721538518,467,BA0009,Taylor SR250 & SR125,SJRWMD,Well,30.44066639,-82.29124841,,898,417,
-82.2722239756056,30.2597253508368,468,BA0011,Sanderson,SJRWMD,Well,30.25971963,-82.27222055,,825,282,
-81.9799738268853,30.291153305891,469,D-0254,Seaboard RR,SJRWMD,Well,30.29114757,-81.97997048,,722,422,
-80.4547208329811,27.8698315777185,470,BR0625,Sebastian SP,SJRWMD,Well,27.86982637,-80.45471802,,454,299,
-81.5431143726795,30.2861730775983,471,D-0547,Southside Twr,SJRWMD,Well,30.28616733,-81.54311115,,740,490,
-81.6421088679843,30.3847036955896,472,D-0667,Panama Pk,SJRWMD,Well,30.38469792,-81.64210562,,905,571,
-81.5260117762038,29.3786225278013,473,P-0696,Silver Pd,SJRWMD,Well,29.37861699,-81.5260086,,400,80,
-81.5524312154904,29.4052142494931,474,P-0705,Niles Rd,SJRWMD,Well,29.4052087,-81.55242803,,400,105,
-81.3411110914701,28.9202810571224,475,V-1091,S of Blue Spg,SJRWMD,Well,28.92027562,-81.34110798,,200,110,
-81.3555077194343,28.6823978668452,476,S-1014,Charlotte St,SJRWMD,Well,28.68239249,-81.35550461,,300,142,
-81.5756116010067,30.1578426012384,477,D-1313,Greenland Pines ES,SJRWMD,Well,30.15783688,-81.57560838,,422,374,
-81.9652791146314,29.517502642032,478,P-0166,Camp Kateri,SJRWMD,Well,29.51749708,-81.9652758,,230,180,
-81.3283196002644,29.704128822236,479,SJ0602,I-95 RS at SR206,SJRWMD,Well,29.7041232,-81.32831647,,193,163,
-81.1263888811836,29.2847257694629,480,V-1094,I-95 Ormond Bch RS,SJRWMD,Well,29.28472024,-81.12638582,,155,100,
-80.9496178851099,28.0226527990767,481,OS0004,Bull Ck Loop W,SJRWMD,Well,28.02264757,-80.94961492,,343,202,
-82.2472070547679,29.6092916853652,482,A-0054,Bill Holblack,SJRWMD,Well,29.60928611,-82.24720366,,80,0,
-80.8374135041287,28.8202423281663,483,V-0840,Migor Shiloh Rd,SJRWMD,Well,28.8202369,-80.83741054,,195,145,
-81.4389860414905,28.7760785460593,484,OR0662,Rock Spg,SJRWMD,Well,28.77607315,-81.43898291,,0,0,
-81.3170835525991,29.3063005577696,485,F-0251,Relay Twr,SJRWMD,Well,29.30629503,-81.31708044,,147,78,
-81.3905085736744,29.562231343654,486,F-0294,Dinner Is,SJRWMD,Well,29.56222576,-81.39050543,,124,95,
-81.0072962204503,28.1160284795954,487,OS0023,Bull Ck 1 Crabgrass,SJRWMD,Well,28.11602323,-81.00729323,,520,396,
-81.0191707953818,27.8075533460319,488,OS0230,Adams Rch,SJRWMD,Well,27.80754817,-81.01916782,,392,364,
-80.9591541674678,27.8289672657709,489,OS0231,Campbell Rch,SJRWMD,Well,27.82896209,-80.9591512,,420,364,
-81.9269458339082,29.8772252943328,490,C-1011,Camp Blanding CR315,SJRWMD,Well,29.87721965,-81.92694252,,340,290,
-82.0134017934852,29.769877659629,491,C-0436,Lk Geneva,SJRWMD,Well,29.76987204,-82.01339846,,146,146,
-81.644078263319,30.0609842843406,492,SJ0508,Greenbrier Rd,SJRWMD,Well,30.06097859,-81.64407502,,563,278,
-81.3120251423859,29.7555483520724,493,SJ0516,Dupont Cntr,SJRWMD,Well,29.75554272,-81.31202201,,238,204,
-81.4469112234974,30.2811722404998,494,D-0259,Bch Haven,SJRWMD,Well,30.28116649,-81.44690803,,845,365,
-82.0068350888244,29.7191498182368,495,P-0001,Swan Lk,SJRWMD,Well,29.71914421,-82.00683176,,170,90,
-81.9887099075548,29.6323164898403,496,P-0008,Chesser,SJRWMD,Well,29.6323109,-81.98870658,,144,131,
-81.1124964769905,28.5271450375264,497,OR0617,Long Brch,SJRWMD,Well,28.52713969,-81.11249345,,550,210,
-81.3743046817379,28.5614451211419,498,OR0468,Lk Ivanhoe,SJRWMD,Well,28.56143977,-81.37430157,,450,189,
-81.4656275145313,28.7111730613935,499,OR0548,Wekiva Spg SP,SJRWMD,Well,28.71116768,-81.46562437,,155,100,
-81.8301431938361,30.5947979884471,500,N-0220,Callahan Fairground,SJRWMD,Well,30.59479217,-81.83013988,,650,450,
-81.1059994862462,28.8425032742719,501,V-0165,Took Frm,SJRWMD,Well,28.84249785,-81.10599645,,255,58,
-81.4948590416207,29.3279113148843,502,V-0184,Seville Twr,SJRWMD,Well,29.32790579,-81.49485587,,100,75,
-81.1266859725258,29.1431090066456,503,V-0188,Tomoka Twr,SJRWMD,Well,29.14310351,-81.12668292,,150,92,
-81.3041747174143,28.9108588149366,504,V-0196,Orange City Twr,SJRWMD,Well,28.91085338,-81.30417162,,234,88,
-81.4947897404307,29.2497417060453,505,V-0068,W Pierson,SJRWMD,Well,29.2497362,-81.49478657,,125,63,
-81.4836896212723,29.2967918295852,506,V-0510,J C Mew,SJRWMD,Well,29.29678631,-81.48368646,,130,85,
-81.309011174359,29.1044615905292,507,V-0742,Lee AP,SJRWMD,Well,29.10445611,-81.30900807,,460,140,
-81.3204891236083,29.2249782568176,508,V-0769,SR40 & 11,SJRWMD,Well,29.22497275,-81.32048601,,440,85,
-81.4919286645555,29.2313417412126,509,V-0577,Shell Harbor Rd E,SJRWMD,Well,29.23133624,-81.4919255,,120,75,
-81.0876049826379,28.7873449073434,510,S-0086,Osceola Landfill,SJRWMD,Well,28.7873395,-81.08760195,,225,70,
-81.6520562348618,29.5686474743992,511,P-4043,Murphy Is,SJRWMD,Well,29.56864189,-81.65205301,,273,185,
-80.8048735112138,27.5305897214889,512,OK0001,Ft Drum,SJRWMD,Well,27.53058461,-80.8048706,,960,125,
-81.95833462924,29.4991693238615,513,M-0441,G&M Cattle Rch,SJRWMD,Well,29.49916377,-81.95833132,,210,155,
-82.0625013058719,29.4316694103238,514,M-0443,Citra Rch,SJRWMD,Well,29.43166387,-82.06249797,,115,83,
-81.9727790145866,29.3861139112104,515,M-0463,Ft. McCoy ES,SJRWMD,Well,29.38610838,-81.9727757,,180,135,
-81.9836126563251,28.9980588912738,516,M-0467,Lk Weir MS,SJRWMD,Well,28.99805345,-81.98360936,,118,58,
-81.8591677660171,29.4283362799596,517,M-0471,Forest Rd 75,SJRWMD,Well,29.42833074,-81.85916449,,380,317,
-81.7242359421088,28.988526687038,518,M-0612,Nicotoon Lk,SJRWMD,Well,28.98852125,-81.72423272,,170,120,
-81.1734589981736,28.8916214096005,519,V-1149,Heritage MS,SJRWMD,Well,28.89161598,-81.17345594,,160,105,
-81.5742712213065,29.6591639072606,520,P-0172,Orange Mill,SJRWMD,Well,29.6591583,-81.57426802,,543,112,
-81.1623326098534,29.1663380771482,521,V-1190,Indian Lk,SJRWMD,Well,29.16633258,-81.16232954,,150,100,
-81.0441192763031,29.0914191867841,522,V-1161,Gamble Place,SJRWMD,Well,29.0914137,-81.04411625,,149,96,
-81.3175770539644,28.8484230757608,523,V-1138,Empire ASR,SJRWMD,Well,28.84841766,-81.31757395,,167,112,
-81.2577384436164,29.4563669645345,524,F-0384,Bunnell Justice Ln,SJRWMD,Well,29.4563614,-81.25773534,,160,110,
-81.5184087186386,28.8068914090993,525,L-1020,Mt Plymouth Lk,SJRWMD,Well,28.80688601,-81.51840556,,190,140,
-82.1790378871562,29.3687397411337,526,M-0527,CR316 Reddick,SJRWMD,Well,29.36873422,-82.17903452,,120,70,
-80.5922023313637,28.4054127992959,527,BR1990,Jetty Pk,SJRWMD,Well,28.40540747,-80.59219946,,320,276,
-80.7541245520535,27.9980455784906,528,BR1995,Three Forks,SJRWMD,Well,27.99804035,-80.75412164,,385,235,
-81.8221548299944,28.6002658532587,529,L-1036,Cherry Lk,SJRWMD,Well,28.60026051,-81.82215159,,165,112,
-81.1679471115164,29.1836550204551,530,V-1193,Scoggin Lk,SJRWMD,Well,29.18364952,-81.16794404,,150,97,
-81.3209498312978,28.7689977980584,531,S-0975,Liberty Pk,SJRWMD,Well,28.7689924,-81.32094673,,190,140,
-81.367012412565,28.6966667212201,532,S-0125,Seminole 125,SJRWMD,Well,28.69666134,-81.3670093,,146,63,
-81.7650764697626,28.5541701643771,533,L-0001,Clermont,SJRWMD,Well,28.55416483,-81.76507325,,525,112,
-81.6913896570754,29.6318532889964,534,P-0891,EH Miller Sch,SJRWMD,Well,29.63184769,-81.69138642,,280,220,
-80.477919422546,27.7773911620699,535,IR1183,Adams property,SJRWMD,Well,27.77738598,-80.4779166,,405,354,
-81.6878527643186,28.5655592251141,536,L-0199,Turnpike,SJRWMD,Well,28.56555388,-81.68784957,,146,110,
-81.3072883883828,28.7216656676748,537,S-0829,Seminole Env Cntr,SJRWMD,Well,28.72166028,-81.30728529,,180,85,
-81.7503305907294,28.5083956340628,538,L-1024,Crooked R Preserve,SJRWMD,Well,28.50839031,-81.75032738,,150,100,
-81.1233378963567,28.6328294047831,539,S-0721,Mills Lk,SJRWMD,Well,28.63282403,-81.12333486,,175,125,
-81.8128901861384,29.1581141243048,540,M-0720,Ocala NF off FR5 S,SJRWMD,Well,29.15810864,-81.81288693,,0,0,
-80.824780510933,27.7689205631805,541,IR0189,Rollins Blue Cyp Rch,SJRWMD,Well,27.76891539,-80.82477759,,630,0,
-81.9328742501325,29.7121920412805,542,P-0822,FL Rock MW1,SJRWMD,Well,29.71218643,-81.93287094,,255,162,
-81.3199140311813,29.5935925789293,543,F-0165,Old Brick Rd,SJRWMD,Well,29.59358698,-81.3199109,,140,127,
-81.2083973830104,28.6594451201091,544,S-1193,Oviedo WTP,SJRWMD,Well,28.65943974,-81.20839432,,220,87,
-80.9608936955992,28.1416855663894,545,OS0069,TH-6 Deer Pk,SJRWMD,Well,28.14168031,-80.96089072,,422,220,
-81.6209295712406,30.4527421109885,546,D-1307,Camden Rd,SJRWMD,Well,30.45273632,-81.62092632,,978,536,
-81.6419456386205,29.1691696226525,547,M-0501,SR19 & 40,SJRWMD,Well,29.16916414,-81.64194243,,270,210,
-81.4494448518927,30.0450040013572,548,SJ2556,Twelve Mile Swamp,SJRWMD,Well,30.0449983,-81.44944167,,680,275,
-81.6431604869033,29.4269670548608,549,P-0270,Fruitland Handy Way,SJRWMD,Well,29.42696151,-81.64315727,,124,91,
-82.1266486125533,29.4775582618723,550,A-0725,Orange Lk,SJRWMD,Well,29.47755272,-82.12664525,,40,30,
-81.7968485376256,28.862556342871,551,L-0290,Leesburg Twr,SJRWMD,Well,28.86255093,-81.7968453,,400,190,
-81.4333338346167,30.419726004823,552,D-1383,Ft. George,SJRWMD,Well,30.41972022,-81.43333064,,619,460,
-81.4885884418304,28.6051108535586,553,OR1110,Lk Gem ES,SJRWMD,Well,28.6051055,-81.4885853,,180,130,
-81.4497225396852,29.6925036678933,554,SJ0408,Yarborough,SJRWMD,Well,29.69249805,-81.44971937,,293,185,
-81.4902642741505,29.907423328404,555,SJ0027,Bakersville Twr,SJRWMD,Well,29.90741766,-81.49026108,,464,225,
-81.7422397513159,29.4736170919121,556,P-0472,Johnson Field,SJRWMD,Well,29.47361154,-81.7422365,,144,96,
-81.569528343509,29.4744643766032,557,P-0246,Thunderbird AP,SJRWMD,Well,29.47445882,-81.56952515,,144,104,
-81.2738331684023,29.0973394001679,558,V-0808,Lk Daugharty,SJRWMD,Well,29.09733392,-81.27383007,,140,90,
-81.2205354807388,28.8707754546302,559,V-0810,Snook Rd,SJRWMD,Well,28.87077003,-81.22053241,,311,290,
-81.9286131259936,28.7502818694551,560,L-0924,Leesburg WWTF,SJRWMD,Well,28.75027649,-81.92860985,,140,70,
-81.9310873932056,29.9810338631393,561,C-0128,Penny Frms Twr,SJRWMD,Well,29.98102819,-81.93108407,,405,366,
-81.8991683659465,28.8561148140542,562,L-0927,Lk Griffin SP,SJRWMD,Well,28.85610941,-81.8991651,,195,145,
-80.7652403849519,27.6328872455768,563,IR1202,Prince parcel,SJRWMD,Well,27.63288211,-80.76523748,,460,411,
-81.9392745544521,29.0599461308329,564,M-0445,Tiger Den,SJRWMD,Well,29.05994068,-81.93927126,,226,160,
-81.4881231637166,28.7075677973653,565,OR0893,Prevatt Lk,SJRWMD,Well,28.70756242,-81.48812002,,140,74,
-81.7310529723033,28.3577913294974,566,L-0877,Hilochee,SJRWMD,Well,28.35778604,-81.73104977,,200,110,
-81.638334609035,30.6675038419921,567,N-0320,Yulee Twr,SJRWMD,Well,30.667498,-81.63833135,,750,490,
-80.5711096913646,27.7788924670297,568,IR0916,Sebastian Buffer,SJRWMD,Well,27.77888729,-80.57110684,,510,356,
-81.041448200135,28.7049980445979,569,S-0025,Kilbee Rch E,SJRWMD,Well,28.70499265,-81.04144518,,154,58,
-81.3355673310679,28.9573444649622,570,V-1152,Blue Spg N,SJRWMD,Well,28.95733902,-81.33556422,,140,90,
-81.688638442942,28.8109972429084,571,L-1027,Stewart,SJRWMD,Well,28.81099184,-81.68863523,,245,195,
-81.6214865243355,30.5360746655733,572,D-0673,Tisonia Twr,SJRWMD,Well,30.53606886,-81.62148327,,857,450,
-80.8553324885024,28.6077781642824,573,BR0001,Champion Rd,SJRWMD,Well,28.60777279,-80.85532953,,136,132,
-80.7939427596606,28.4961150780273,574,BR0586,Tico AP,SJRWMD,Well,28.49610973,-80.79393982,,135,93,
-80.6555543633631,28.0875036735185,575,BR1983,Erna Nixon Pk,SJRWMD,Well,28.08749842,-80.65555148,,360,255,
-81.8344446754857,28.4691699695998,576,L-0950,Eva Twr,SJRWMD,Well,28.46916466,-81.83444144,,180,80,
-81.4828045264372,28.5241651963038,577,OR1102,Lk Hiawasee,SJRWMD,Well,28.52415986,-81.48280139,,160,110,
-81.0797222051736,29.3258369448929,578,V-0900,Tomoka SP,SJRWMD,Well,29.32583141,-81.07971916,,477,200,
-81.569927779351,28.9227225170236,579,L-0935,Lk Norris,SJRWMD,Well,28.92271709,-81.5699246,,238,138,
-81.5805841199493,29.3557363792561,580,P-0736,Middle Rd,SJRWMD,Well,29.35573085,-81.58058092,,100,70,
-81.3922232507257,30.1648939796645,581,SJ0355,Landrum MS,SJRWMD,Well,30.16488825,-81.39222008,,410,310,
-80.9983326937922,28.4975033946632,582,OR0886,Tosohatchee Reserve,SJRWMD,Well,28.49749805,-80.9983297,,345,240,
-81.3272982680984,30.0227491032634,583,SJ2574,Guana SP,SJRWMD,Well,30.02274341,-81.32729512,,320,255,
-81.2356216240263,29.7155313611288,584,SJ0333,Ft Matanzas,SJRWMD,Well,29.71552573,-81.23561852,,352,170,
-81.3761876179264,29.9346940687187,585,SJ0331,Woodlawn Rd,SJRWMD,Well,29.93468839,-81.37618446,,527,275,
-80.8811652151942,28.7644396728904,586,BR1835,Parrish Pk,SJRWMD,Well,28.76443426,-80.88116224,,347,130,
-81.4867569857527,30.4730202427095,587,D-1236,Pumpkin Hill,SJRWMD,Well,30.47301444,-81.48675378,,570,520,
-81.375624477784,28.5177840017152,588,OR0827,Wadeview Pk,SJRWMD,Well,28.51777866,-81.37562137,,460,365,
-81.8484346692483,30.1182989776494,589,C-0592,Tynes ES,SJRWMD,Well,30.11829327,-81.84843137,,540,470,
-81.966217292069,30.0969096796019,590,C-0599,Canvasback Rd,SJRWMD,Well,30.09690398,-81.96621396,,470,400,
-80.9561683075876,28.6724986762509,591,BR1914,Buck Lk,SJRWMD,Well,28.67249329,-80.95616532,,171,120,
-81.5531381448249,29.8241378438516,592,SJ0320,Riverdale Pk,SJRWMD,Well,29.8241322,-81.55313494,,260,180,
-81.7228729751151,30.0841332190808,593,C-0495,Thunderbolt ES,SJRWMD,Well,30.08412752,-81.72286971,,470,420,
-81.5609193217863,29.9844137953075,594,SJ0324,Trout Ck Pk,SJRWMD,Well,29.98440811,-81.56091611,,340,280,
-82.1017629995088,29.535528153689,595,A-0421,Lochloosa,SJRWMD,Well,29.53552259,-82.10175965,,132,82,
-80.5336309530572,27.8738356143471,596,BR1935,Micco,SJRWMD,Well,27.87383041,-80.53362811,,370,305,
-81.4537042817153,30.703297177452,597,N-0304,Ft Clinch SP,SJRWMD,Well,30.70329133,-81.45370107,,727,580,
-81.1114472497842,29.4385910549341,598,F-0209,Gamble Rogers SP,SJRWMD,Well,29.43858549,-81.11144419,,200,120,
-81.0672790565389,29.0405442730669,599,V-0117,Samsula N,SJRWMD,Well,29.0405388,-81.06727602,,241,97,
-81.8628772755275,29.9782997920212,600,C-0607,State Rd 16,SJRWMD,Well,29.97829412,-81.86287397,,420,320,
-81.3845254656162,30.1330250449527,601,SJ0005,Palm Valley SJ-5,SJRWMD,Well,30.13301932,-81.3845223,,0,0,
-80.858112140857,28.3677874134331,602,BR1932,Frank Burton Smith Pk,SJRWMD,Well,28.3677821,-80.85810919,,224,120,
-81.8242728460708,30.4810740392366,603,N-0311,Red Shirt Farms,SJRWMD,Well,30.48106825,-81.82426954,,658,460,
-80.6083959425699,28.3374375237626,604,BR2125,Lori Wilson Pk,SJRWMD,Well,28.33743221,-80.60839307,,235,185,
-81.8078473333323,29.801819463473,605,P-4083,Etonia Buck Spg Rd,SJRWMD,Well,29.80181383,-81.80784405,,215,160,
-81.7103301095491,29.2976900200502,606,M-0413,FSR 90 W SR19,SJRWMD,Well,29.2976845,-81.71032688,,75,60,
-81.736683165498,29.4106786290808,607,P-0427,Frontier Dance Hall,SJRWMD,Well,29.41067309,-81.73667992,,148,95,
-80.9642662198275,28.6121477994549,608,BR1526,Seminole Rch,SJRWMD,Well,28.61214243,-80.96426323,,300,235,
-81.3696276106782,29.6251677969309,609,SJ0115,County Line,SJRWMD,Well,29.6251622,-81.36962447,,609,142,
-81.6325948331455,29.483110852066,610,P-0408,Fruitland,SJRWMD,Well,29.48310529,-81.63259162,,148,127,
-80.9459837206798,28.3976555774106,611,OR0029,Palmetto,SJRWMD,Well,28.39765026,-80.94598074,,390,244,
-81.7083084408646,28.4211000207834,612,L-0730,Keene Lk,SJRWMD,Well,28.42109471,-81.70830524,,465,385,
-82.082640109755,29.2228777972159,613,M-0039,NE 35th St Ocala,SJRWMD,Well,29.22287231,-82.08263677,,40,20,
-80.6326101074836,27.6615333581398,614,IR0955,Delta Frms,SJRWMD,Well,27.66152821,-80.63260725,,430,380,
-82.0619970536791,29.1394811287731,615,M-0528,Rotary Pk,SJRWMD,Well,29.13947566,-82.06199373,,135,60,
-81.6536623329175,29.6872861302721,616,P-0830,Barge Port,SJRWMD,Well,29.68728052,-81.6536591,,328,216,
-81.4197131658797,29.321281407571,617,V-0096,R. Nolan,SJRWMD,Well,29.32127588,-81.41971002,,138,0,
-81.7654792792972,30.4253722400304,618,D-1309,Dinsmore,SJRWMD,Well,30.42536646,-81.76547599,,620,510,
-80.8499101085885,28.6259900218251,619,BR1572,Astronaut HS,SJRWMD,Well,28.62598464,-80.84990715,,228,180,
-82.1864692782472,30.2724875180396,620,BA0054,Macclenny Twr,SJRWMD,Well,30.27248179,-82.18646587,,706,370,
-82.3436767784941,30.5431872391478,621,BA0057,Eddy Twr,SJRWMD,Well,30.54318145,-82.34367332,,700,360,
-82.1895426099814,29.5707016857935,622,A-0420,Lybass,SJRWMD,Well,29.57069612,-82.18953923,,190,119,
-81.8415204875669,29.496980755315,623,P-0450,Forest Rds 77 & 77B,SJRWMD,Well,29.4969752,-81.84151721,,241,215,
-81.0172214974433,28.3938922958271,624,OR0669,Cocoa 13T,SJRWMD,Well,28.39388698,-81.0172185,,315,295,
-81.3739641365138,29.4666562318612,625,F-0353,Westside Bapt,SJRWMD,Well,29.46665067,-81.373961,,240,185,
-81.3653670759306,29.1420504035587,626,V-1030,DeLeon Spg SP,SJRWMD,Well,29.14204492,-81.36536395,,200,120,
-82.0108349239548,29.9830587600726,627,C-1014,Camp Blanding SR16,SJRWMD,Well,29.98305309,-82.01083158,,430,210,
-82.018598999835,29.7916860522933,628,C-0442,Moody,SJRWMD,Well,29.79168043,-82.01859566,,240,185,
-81.9566821267372,29.8200473183527,629,C-0453,Gold Head SP,SJRWMD,Well,29.82004169,-81.95667881,,375,196,
-81.1532628872969,29.1546997435526,630,V-1213,Tiger Bay Site 1,SJRWMD,Well,29.15469425,-81.15325982,,150,100,
-80.9221942928804,29.017928550911,631,V-0508,Smith St & US1,SJRWMD,Well,29.01792308,-80.9221913,,210,170,
-81.3840303731013,28.8016281436676,632,S-0718,Sylvan Lk,SJRWMD,Well,28.80162274,-81.38402725,,202,110,
-81.1188409876907,28.7138365681859,633,S-0001,Geneva FS,SJRWMD,Well,28.71383118,-81.11883795,,204,92,
-81.5808945218876,28.7083592750173,634,OR0106,Plymouth Twr,SJRWMD,Well,28.7083539,-81.58089135,,395,100,
-81.9529921197121,30.7831710114176,635,N-0221,St. Marys WMA,SJRWMD,Well,30.78316515,-81.95298876,,812,540,
-81.4687784478802,29.306583551794,636,V-0064,Cowarts Rd,SJRWMD,Well,29.30657803,-81.46877529,,158,113,
-81.3181250268964,29.0015921216322,637,V-0867,Holiday Hills,SJRWMD,Well,29.00158667,-81.31812192,,194,101,
-81.7421032117027,28.4586053107627,638,L-0677,Lk Louisa SP,SJRWMD,Well,28.4586,-81.7421,,485,160,
-81.7132016556622,28.4245250261308,639,L-0709,Smokehouse Lk,SJRWMD,Well,28.42451972,-81.71319845,,101,81,
-81.6857260001389,29.3118363376011,640,M-0021,Salt Run,SJRWMD,Well,29.31183082,-81.68572278,,277,268,
-82.0905760781261,29.194683830497,641,M-0040,SR40 Ocala,SJRWMD,Well,29.19467835,-82.09057274,,90,61,
-81.3655559646874,29.2044476041548,642,V-0062,Barberville,SJRWMD,Well,29.2044421,-81.36555284,,155,132,
-81.1580623325424,29.1665666869146,643,V-1222,Tiger Bay Site 4,SJRWMD,Well,29.16656119,-81.15805927,,150,102,
-81.1548437211294,29.1664355760465,644,V-1219,Tiger Bay Site 3,SJRWMD,Well,29.16643008,-81.15484066,,150,100,
-81.265941698742,29.2293367166964,645,V-0090,Union Camp,SJRWMD,Well,29.22933121,-81.2659386,,151,74,
-81.2098523986161,29.0413505285708,646,V-0118,I-4 W of SR44,SJRWMD,Well,29.04134506,-81.20984932,,241,72,
-81.9377485917759,30.1572117572719,647,C-0583,Yellow Water Ck,SJRWMD,Well,30.15720605,-81.93774526,,540,480,
-81.1147215344184,28.6805588156758,648,S-1201,Snow Hill,SJRWMD,Well,28.68055343,-81.1147185,,140,100,
-82.1497981664766,29.2736004424666,649,M-0419,Sheriffs Office,SJRWMD,Well,29.27359494,-82.14979481,,62,47,
-81.9233236451267,30.4011059091988,650,N-0237,Carey State Forest,SJRWMD,Well,30.40110014,-81.92332031,,500,450,
-81.4755546288002,28.547781316494,651,OR0047,Orlo Vista,SJRWMD,Well,28.54777597,-81.47555149,,350,328,
-82.0558347022166,29.0516701013942,652,M-0465,Belleview ES,SJRWMD,Well,29.05166465,-82.05583138,,120,64,
-81.2566556008949,29.4641980626137,653,F-0087,Flagler,SJRWMD,Well,29.4641925,-81.2566525,,0,0,
-81.5840812230989,30.2716572401016,654,D-1499,Goodnow Rd,SJRWMD,Well,30.27165149,-81.58407799,,620,520,
-81.5086107580182,28.6663925372375,655,OR0796,Crate Mill,SJRWMD,Well,28.66638717,-81.50860761,,270,185,
-81.3904367144441,29.0131560011727,656,L-0059,Crows Bluff,SJRWMD,Well,29.01315054,-81.39043359,,170,153,
-80.5135123844005,27.6905118389853,657,IR0963,Corrigan Rch,SJRWMD,Well,27.69050668,-80.51350956,,440,390,
-80.6960978498687,28.4485590807966,658,BR2115,Kings Pk,SJRWMD,Well,28.44855374,-80.69609494,,200,150,
-81.1168993319421,28.736478218812,659,S-1253,Geneva FS,SJRWMD,Well,28.73647282,-81.11689629,,280,130,
-81.5723068126732,29.113011349772,660,L-0040,Alexander Spg CR445,SJRWMD,Well,29.11300587,-81.57230363,,171,140,
-81.743964322354,28.3783441804016,661,L-0051,Horsehead Pd,SJRWMD,Well,28.37833889,-81.74396111,,115,85,
-82.1758267497854,30.1728032256608,662,BA0019,Manning,SJRWMD,Well,30.17279752,-82.17582335,,710,410,
-80.7293376023517,27.9988563694454,663,BR0645,Platt,SJRWMD,Well,27.99885114,-80.7293347,,0,0,
-81.3164495903804,28.8264144134644,664,S-1397,Sanford Zoo,SJRWMD,Well,28.826409,-81.31644649,,180,120,
-81.3650745304441,28.7352284331757,665,S-1408,Lk Mary,SJRWMD,Well,28.73522304,-81.36507142,,200,150,
-81.8358348685496,28.99278091395,666,M-0483,Blue House,SJRWMD,Well,28.99277547,-81.83583161,,240,192,
-82.3915088162918,30.2127371121033,667,BA0096,Olustee Battlefield,SJRWMD,Well,30.2127314,-82.39150535,,0,0,
-81.8914713715124,28.8119377426032,668,L-0054,College St,SJRWMD,Well,28.81193235,-81.89146811,,213,90,
-81.4531055605622,29.3483370010483,669,V-0924,Crescent Lk CA,SJRWMD,Well,29.34833147,-81.4531024,,138,95,
-81.2625878357407,29.5353850767501,670,F-0208,Bunnell Twr,SJRWMD,Well,29.53537949,-81.26258473,,211,150,
-81.7556401663888,29.1746974158236,671,M-0717,Ocala NF off FR13,SJRWMD,Well,29.17469193,-81.75563693,,190,140,
-81.674797181632,28.602502482474,672,L-0658,Montverde,SJRWMD,Well,28.60249713,-81.67479398,,291,164,
-81.1553368268881,29.273872073662,673,F-0286,Ormond Bch Flagler 2,SJRWMD,Well,29.27386655,-81.15533376,,270,90,
-81.6396681236353,29.0330030654349,674,L-1047,Ocala NF NR CR445,SJRWMD,Well,29.03299761,-81.63966492,,200,150,
-81.7055562471562,30.5361149345388,675,D-1503,Wright,SJRWMD,Well,30.53610913,-81.70555297,,540,434,
-81.8269457025004,29.1823641234143,676,M-0723,Ocala NF off FR5 N,SJRWMD,Well,29.18235864,-81.82694244,,225,175,
-81.3928130104323,28.5599540044626,677,OR0046,Lk Adair,SJRWMD,Well,28.55994866,-81.3928099,,400,105,
-81.4573031974039,30.0857983844153,678,SJ0029,Durbin Twr,SJRWMD,Well,30.08579268,-81.45730001,,603,350,
-81.6942757830344,29.6641616261238,679,P-0123,DHQ,SJRWMD,Well,29.66415602,-81.69427254,,394,182,
-81.2033132018866,28.8090254422245,680,V-0818,Osteen,SJRWMD,Well,28.80902003,-81.20331014,,188,128,
-81.627778318384,30.1658370004382,681,D-1301,Mandarin Terrace,SJRWMD,Well,30.16583128,-81.62777508,,780,500,
-81.7745453286014,30.2994092828911,682,D-0221,Rolling Hills,SJRWMD,Well,30.29940353,-81.77454204,,0,0,
-81.4937006212115,30.385521150365,683,D-0424,Ft Caroline Nat Pk,SJRWMD,Well,30.38551537,-81.49369741,,705,424,
-81.9330582832486,30.6913926826506,684,N-0334,Hilliard ES,SJRWMD,Well,30.69138685,-81.93305493,,565,515,
-81.3948071530867,30.3146895698297,685,D-0160,Neptune Bch,SJRWMD,Well,30.31468381,-81.39480398,,585,340,
-81.8728591609993,28.7441626749442,686,L-0902,Palatlakaha Dam M1,SJRWMD,Well,28.7441573,-81.8728559,,204,134,
-81.5200879225969,30.1916342345268,687,D-1350,Chesser Lk Rd E,SJRWMD,Well,30.1916285,-81.52008471,,570,470,
-81.7809329090193,30.1994099262723,688,D-1292,Indian Trls,SJRWMD,Well,30.1994042,-81.78092962,,621,432,
-81.2825709794283,29.8738623852007,689,SJ0323,Anastasia SP,SJRWMD,Well,29.87385672,-81.28256785,,315,215,
-81.5759121357304,29.589973731415,690,P-0164,San Mateo,SJRWMD,Well,29.58996814,-81.57590893,,260,173,
-80.3974105013966,27.7515587509532,691,IR0988,Capt Forsters Pres,SJRWMD,Well,27.75155357,-80.3974077,,490,440,
-81.3050652776488,29.4113683743683,692,F-0179,SR 11,SJRWMD,Well,29.41136282,-81.30506216,,150,90,
-81.5342895544322,29.1628916868917,693,L-0045,Astor,SJRWMD,Well,29.1628862,-81.53428638,,254,175,
-81.083963997955,29.1732922426504,694,V-0099,I-95 & US92 Daytona,SJRWMD,Well,29.17328674,-81.08396095,,498,152,
-81.9133349292487,28.5350037995772,695,L-0062,Mascotte,SJRWMD,Well,28.53499847,-81.91333167,,160,63,
-81.0669436681183,28.3947256212052,696,OR0740,Cocoa A,SJRWMD,Well,28.39472031,-81.06694065,,516,301,
-80.9550303861537,28.9758284948122,697,V-0435,Glencoe Rd,SJRWMD,Well,28.97582304,-80.95502739,,174,100,
-81.1302277749586,29.3804397377586,698,V-0443,Bellmeade Corp,SJRWMD,Well,29.38043419,-81.13022471,,180,101,
-81.0559499762673,29.2869147059298,699,V-0449,Granada Bridge,SJRWMD,Well,29.28690917,-81.05594694,,121,92,
-80.9846971577779,29.1751480229068,700,V-0200,Daytona Bch Shrs,SJRWMD,Well,29.17514252,-80.98469414,,160,98,
-81.0927770614037,28.546947802923,701,OR0007,Bithlo,SJRWMD,Well,28.54694245,-81.09277404,,492,151,
-81.309230460936,28.348497228391,702,OR0030,Boggy Ck Rd,SJRWMD,Well,28.34849193,-81.30922738,,0,0,
-81.3595142598005,29.0870226506072,703,V-0156,Glenwood,SJRWMD,Well,29.08701718,-81.35951114,,195,65,
-81.2395609433648,28.9701794648366,704,V-0777,Lk Helen,SJRWMD,Well,28.97017402,-81.23955786,,196,115,
-81.2231385994245,29.0960700037922,705,V-0081,Deland USGS,SJRWMD,Well,29.09606452,-81.22313552,,639,94,
-81.0690218576794,28.9056727867195,706,V-0198,Lk Ashby Twr,SJRWMD,Well,28.90566735,-81.06901883,,122,88,
-81.6459064572675,28.36751072882,707,OR0064,Lk Oliver,SJRWMD,Well,28.36750544,-81.64590328,,0,0,
-82.3034334144741,29.6062755713782,708,Alachua Sink,Alachua Sink,ACEPD,Well,29.60627,-82.30343,,0,0,
-82.4587534615843,29.6676855815998,709,Alcorn,Alcorn,ACEPD,Well,29.66768,-82.45875,,0,0,
-82.663608530351,29.9191356343629,710,Alford,Alford,ACEPD,Well,29.91913,-82.663605,,0,0,
-82.5417134792697,29.4806655352343,711,Asbell,Asbell,ACEPD,Well,29.48066,-82.54171,,0,0,
-82.1511833750138,29.7391556075093,712,Balu DD,Balu DD,ACEPD,Well,29.73915,-82.15118,,0,0,
-82.5201734747147,29.5258055464599,713,Batey,Batey,ACEPD,Well,29.5258,-82.52017,,0,0,
-82.0827733509047,29.6038955767672,714,Bickmeyer,Bickmeyer,ACEPD,Well,29.60389,-82.08277,,0,0,
-82.3696934417147,29.8051656161604,715,Bliss,Bliss,ACEPD,Well,29.80516,-82.36969,,0,0,
-82.6915495384927,29.9088586311708,716,Brady,Brady,ACEPD,Well,29.908853,-82.691546,,0,0,
-82.3862434488404,29.8711856310995,717,Broadway,Broadway,ACEPD,Well,29.87118,-82.38624,,0,0,
-82.7200935471144,29.9098506310317,718,Brown,Brown,ACEPD,Well,29.909845,-82.72009,,0,0,
-82.70985854123,29.8440616158747,719,Butt,Butt,ACEPD,Well,29.844056,-82.709855,,0,0,
-82.7063185338214,29.672580575961,720,CB Hines,CB Hines,ACEPD,Well,29.672575,-82.706315,,0,0,
-82.5153744804547,29.7228725925,721,Clark,Clark,ACEPD,Well,29.722867,-82.515371,,0,0,
-82.5402534897715,29.7701256035752,722,Dollar General,Dollar General,ACEPD,Well,29.77012,-82.54025,,0,0,
-82.2779634109917,29.7032655948057,723,DOT FL-28,DOT FL-28,ACEPD,Well,29.70326,-82.27796,,0,0,
-82.7605655585997,29.9137836301528,724,Douglas,Douglas,ACEPD,Well,29.913778,-82.760562,,0,0,
-82.1615133692301,29.4851555470005,725,Fahning (Taylor),Fahning (Taylor),ACEPD,Well,29.48515,-82.16151,,0,0,
-82.64471952323,29.8613536212826,726,Fleming,Fleming,ACEPD,Well,29.861348,-82.644716,,0,0,
-82.3602834337754,29.6691555843601,727,Garrett,Garrett,ACEPD,Well,29.66915,-82.36028,,0,0,
-82.5690824974133,29.7708586027826,728,GC Jones,GC Jones,ACEPD,Well,29.770853,-82.569079,,0,0,
-82.4320134529013,29.6293855737095,729,Gorenberg,Gorenberg,ACEPD,Well,29.62938,-82.43201,,0,0,
-82.5243234810937,29.6652155790949,730,Gresham,Gresham,ACEPD,Well,29.66521,-82.52432,,0,0,
-82.6585925280194,29.8793856249348,731,Hall-Manship,Hall-Manship,ACEPD,Well,29.87938,-82.658589,,0,0,
-82.4399934566355,29.6840655856006,732,Haufler,Haufler,ACEPD,Well,29.68406,-82.43999,,0,0,
-82.6841385295653,29.7269745885761,733,Hodge,Hodge,ACEPD,Well,29.726969,-82.684135,,0,0,
-82.6857155347153,29.8588456198179,734,Hodson,Hodson,ACEPD,Well,29.85884,-82.685712,,0,0,
-82.4904134722826,29.6886555852633,735,Hogle,Hogle,ACEPD,Well,29.68865,-82.49041,,0,0,
-82.427573450043,29.5958755652171,736,Holliman,Holliman,ACEPD,Well,29.59587,-82.42757,,0,0,
-82.5806014995925,29.7331595936665,737,Julie Pocklington,Julie Pocklington,ACEPD,Well,29.733154,-82.580598,,0,0,
-82.6419075245493,29.9153996345795,738,July,July,ACEPD,Well,29.915394,-82.641904,,0,0,
-82.7114685401644,29.8147326087676,739,Karst Environmental,Karst Environmental,ACEPD,Well,29.814727,-82.711465,,0,0,
-82.5996705072467,29.8014666087924,740,Lander,Lander,ACEPD,Well,29.801461,-82.599667,,0,0,
-82.8398385766276,29.7957126003008,741,LeClaire,LeClaire,ACEPD,Well,29.795707,-82.839835,,0,0,
-82.6158325108277,29.7721436014913,742,Loncala Office,Loncala Office,ACEPD,Well,29.772138,-82.615829,,0,0,
-82.6521505200904,29.739347593043,743,Loncala Ranch,Loncala Ranch,ACEPD,Well,29.739342,-82.652147,,0,0,
-82.6506645244661,29.8451676173511,744,Main,Main,ACEPD,Well,29.845162,-82.650661,,0,0,
-82.4405434553441,29.6417455758444,745,Majors,Majors,ACEPD,Well,29.64174,-82.44054,,0,0,
-82.3384634231424,29.5578955594918,746,Martin,Martin,ACEPD,Well,29.55789,-82.33846,,0,0,
-82.612613514122,29.8824726272192,747,Mcalhaney,Mcalhaney,ACEPD,Well,29.882467,-82.61261,,0,0,
-82.6157325062802,29.6464395720528,748,McDilda,McDilda,ACEPD,Well,29.646434,-82.615729,,0,0,
-82.53978348233,29.5895955604348,749,McGraw,McGraw,ACEPD,Well,29.58959,-82.53978,,0,0,
-82.3135534196403,29.6681555855024,750,"McGurn Investments (HRS,G-06)","McGurn Investments (HRS,G-06)",ACEPD,Well,29.66815,-82.31355,,0,0,
-82.5787435043835,29.8621756236987,751,Milne,Milne,ACEPD,Well,29.86217,-82.57874,,0,0,
-82.315433423199,29.7484356043448,752,MW 2-F,MW 2-F,ACEPD,Well,29.74843,-82.31543,,0,0,
-82.3059834194013,29.7114055964892,753,MW 4-F,MW 4-F,ACEPD,Well,29.7114,-82.30598,,0,0,
-82.617186506667,29.6370445700411,754,Newberry Cemetary,Newberry Cemetary,ACEPD,Well,29.637039,-82.617183,,0,0,
-82.1015233622096,29.7753956168745,755,Olson,Olson,ACEPD,Well,29.77539,-82.10152,,0,0,
-82.6535525240393,29.8227486125112,756,Poe Springs Production,Poe Springs Production,ACEPD,Well,29.822743,-82.653549,,0,0,
-82.7442535490738,29.7942716032511,757,Raulerson,Raulerson,ACEPD,Well,29.794266,-82.74425,,0,0,
-82.803163570207,29.8929156244635,758,Rauseo,Rauseo,ACEPD,Well,29.89291,-82.80316,,0,0,
-82.4044834474622,29.7170655948766,759,Schert,Schert,ACEPD,Well,29.71706,-82.40448,,0,0,
-82.675514530472,29.8369436148024,760,Smith,Smith,ACEPD,Well,29.836938,-82.675511,,0,0,
-82.393653442031,29.6514955796219,761,Stahmer,Stahmer,ACEPD,Well,29.65149,-82.39365,,0,0,
-82.731508542842,29.7260285869048,762,Stavely,Stavely,ACEPD,Well,29.726023,-82.731505,,0,0,
-82.7457665522291,29.8735166209669,763,Stevenson,Stevenson,ACEPD,Well,29.873511,-82.745763,,0,0,
-82.7027115413875,29.9147206322456,764,Sulek,Sulek,ACEPD,Well,29.914715,-82.702708,,0,0,
-82.7356145472793,29.8218666091919,765,Taylor,Taylor,ACEPD,Well,29.821861,-82.735611,,0,0,
-82.5110234725142,29.5526755531458,766,Tipton,Tipton,ACEPD,Well,29.55267,-82.51102,,0,0,
-82.4149634469757,29.6201855713593,767,TREEO Center,TREEO Center,ACEPD,Well,29.62018,-82.41496,,0,0,
-82.3232934216909,29.6552055823289,768,United Methodist Church,United Methodist Church,ACEPD,Well,29.6552,-82.32329,,0,0,
-82.48396346959,29.6888455859371,769,VISA #1,VISA #1,ACEPD,Well,29.68884,-82.48396,,0,0,
-82.4147554489559,29.6749475849019,770,VISA #2,VISA #2,ACEPD,Well,29.674942,-82.414752,,0,0,
-82.4362014558106,29.6697285826316,771,VISA #3,VISA #3,ACEPD,Well,29.669723,-82.436198,,0,0,
-82.390613440765,29.6341155759383,772,VISA #4,VISA #4,ACEPD,Well,29.63411,-82.39061,,0,0,
-82.3021934140578,29.6135255728388,773,Wells,Wells,ACEPD,Well,29.61352,-82.30219,,0,0,
-82.433743463662,29.9209156412969,774,Willis,Willis,ACEPD,Well,29.92091,-82.43374,,0,0,
-82.5320204844574,29.6966145858611,775,Wood,Wood,ACEPD,Well,29.696609,-82.532017,,0,0,
-82.5262934846993,29.7453455977445,776,Yates,Yates,ACEPD,Well,29.74534,-82.52629,,0,0,
-84.5217640731705,29.9187507326396,777,182,CAMP G JOHNSTON #10,NWFWMD,Well,29.91874515,-84.52176001,,174,80,
-85.1916930766608,30.2426722983212,778,748,BAKER / MCCOLLUM,NWFWMD,Well,30.24266666,-85.19168881,,200,180,
-85.2987392438573,30.4236187245794,779,2145,OKALOOSA ASPHALT,NWFWMD,Well,30.42361305,-85.29873494,,239,147,
-85.5104630032233,30.7699701212817,780,4912,WILLIAM FISHER,NWFWMD,Well,30.76996438,-85.51045862,,120,106,
-84.7188153648133,29.9590630624713,781,215,BUCKEYE CELLULOSE 41,NWFWMD,Well,29.95905748,-84.71881124,,0,0,
-84.9313623734046,30.1412210397458,782,413,PLACID OIL - SUPPLY,NWFWMD,Well,30.14121542,-84.93135818,,204,163,
-86.2191132931576,30.4111847809776,783,2034,S.L. MATTHEWS,NWFWMD,Well,30.41117914,-86.21910873,,330,165,
-86.8092240845454,30.4130734573298,784,2051,COLONIAL PINES TRAILER PARK,NWFWMD,Well,30.41306784,-86.80921935,,1100,0,
-84.3774304121552,30.4228719054401,785,2137,NWFWMD-BRADFORD BROOK DEEP,NWFWMD,Well,30.42286621,-84.37742637,,140,133,
-86.5205732094114,30.4798288233179,786,2995,EAFB MAIN #61 HARDSTAND,NWFWMD,Well,30.47982318,-86.52056856,,702,404,
-86.0575073384277,30.7270166179371,787,4754,ARGYLE TOWER,NWFWMD,Well,30.7270109,-86.05750281,,236,226,
-86.7994737537578,30.7365866335001,788,4788,STATE HATCHERY #3,NWFWMD,Well,30.73658094,-86.79946901,,587,510,
-85.1097151480487,30.7358635829116,789,4795,INTERNATIONAL PAPER @ CYPRESS,NWFWMD,Well,30.73585784,-85.10971088,,210,94,
-84.9517559707205,30.8256919507989,790,5147,W.R. BUCKHALTER,NWFWMD,Well,30.82568618,-84.95175175,,200,110,
-85.1673704121663,30.9740347718414,791,5671,NWFWMD-HWY 71 NORTH OF MALONE,NWFWMD,Well,30.97402897,-85.16736612,,117,70,
-85.6098598620828,30.4309528504624,792,5958,NWFWMD-GEORGE'S 40 FLORIDAN,NWFWMD,Well,30.43094719,-85.60985547,,270,170,
-84.3130303059387,30.2467389448802,793,7495,NWFWMD-NITRATE #4,NWFWMD,Well,30.24673328,-84.31302629,,70,50,
-84.6520046291537,29.989876654743,794,9092,NWFWMD TRACTOR RD. TH-2,NWFWMD,Well,29.98987106,-84.65200052,,476,210,
-85.8176463761715,30.4398829610542,795,9638,NW BAY CTY - SITE #1 UFA MONITOR,NWFWMD,Well,30.4398773,-85.81764192,,295,189,
-84.6611779969642,29.8461382718371,796,111,CARRABELLE ICE PLANT,NWFWMD,Well,29.84613271,-84.6611739,,93,64,
-84.1764871229754,30.1991428765497,797,671,NEWPORT RECREATION/NITRATE POT. MAP,NWFWMD,Well,30.19913722,-84.17648315,,69,12,
-85.696995158511,30.3994980158845,798,1760,ERIK REPPEN,NWFWMD,Well,30.39949236,-85.69699074,,231,185,
-86.4203458717038,30.453643273806,799,2696,EAFB WHITE POINT #3,NWFWMD,Well,30.45363763,-86.42034125,,550,360,
-85.1279031625006,30.5709255341436,800,3775,ALTHA EAST #2,NWFWMD,Well,30.57091982,-85.1278989,,220,162,
-86.2157412331237,30.5728660755793,801,3797,EAFB RANGE 63 #31,NWFWMD,Well,30.5728604,-86.21573666,,440,278,
-84.9001889858204,30.7090027140425,802,4681,USGS #39/HOMER HIRT,NWFWMD,Well,30.70899697,-84.90018478,,101,70,
-86.6755722469751,30.8002268043222,803,5078,BAKER #1,NWFWMD,Well,30.80022109,-86.67556754,,595,514,
-86.1479463165849,30.8463828681248,804,5240,RAY PETER,NWFWMD,Well,30.84637713,-86.14794175,,320,180,
-85.9071392855089,30.8503084961677,805,5254,C. HOUSEHOLDER,NWFWMD,Well,30.85030275,-85.90713479,,350,240,
-85.6402099994462,30.9879528614219,806,5732,NWFWMD-ESTO FLORIDAN,NWFWMD,Well,30.98794707,-85.64020557,,236,196,
-85.6641798515542,30.4823544741593,807,2992,ED ROGERS #2,NWFWMD,Well,30.4823488,-85.66417544,,280,143,
-85.6852687338901,30.7862239702351,808,5033,BONIFAY #2,NWFWMD,Well,30.78621823,-85.6852643,,193,124,
-85.0137218288007,29.9883853185013,809,226,USFS-HICKORY LANDING,NWFWMD,Well,29.98837974,-85.01371762,,200,174,
-86.1148272346792,30.3726634785386,810,1371,POINT WASHINGTON/MCGEE,NWFWMD,Well,30.37265785,-86.1148227,,365,65,
-84.2184942927616,30.4396177911584,811,2415,TOM BROWN TEST,NWFWMD,Well,30.43961208,-84.21849029,,266,160,
-86.5875900413397,30.5058841414652,812,3210,NWFWMD-EAFB FLD#4 (LOWERMOST  FLRD),NWFWMD,Well,30.50587849,-86.58758537,,1371,938,
-86.4449507198529,30.576285285464,813,3815,EAFB FLD#2 BLDG 2102,NWFWMD,Well,30.57627962,-86.44494608,,585,436,
-85.6462367647378,30.43871587241,814,5953,NWFWMD-POWER LINE,NWFWMD,Well,30.43871021,-85.64623236,,247,147,
-85.7032971584753,30.4484964088683,815,5963,DUREN,NWFWMD,Well,30.44849074,-85.70329274,,210,151,
-86.6506776529004,30.8543362742042,816,8350,OCWS-BAKER MONITOR,NWFWMD,Well,30.85433055,-86.65067295,,430,410,
-85.026363802628,29.7195682474397,817,8351,APALACHICOLA #5,NWFWMD,Well,29.71956273,-85.0263596,,420,326,
-85.3464882179972,29.6761729523142,818,4,EAFB SAN BLAS #107,NWFWMD,Well,29.67616745,-85.34648393,,654,486,
-84.2759353182593,30.4525121093663,819,2691,CITY OF TALLAHASSEE / LAFAYETTE PARK,NWFWMD,Well,30.4525064,-84.2759313,,300,159,
-84.4636953730932,30.5186702730966,820,3342,NWFWMD-FGS-FLORIDAN #2,NWFWMD,Well,30.51866456,-84.4636913,,435,366,
-85.5376858751198,30.3970782764139,821,1524,EDDIE BARNES,NWFWMD,Well,30.39707262,-85.5376815,,200,115,
-86.6613969863568,30.4117157592248,822,2035,MARY ESTHER #2,NWFWMD,Well,30.41171013,-86.6613923,,764,595,
-86.4818007836237,30.4826967207984,823,2994,EAFB POSTIL POINT,NWFWMD,Well,30.48269107,-86.48179614,,510,300,
-85.8415188230174,30.4905811355701,824,3082,MOODY TOWER,NWFWMD,Well,30.49057547,-85.84151436,,190,102,
-86.6305051632513,30.5875674074304,825,3923,EAFB FLD #5 WELL #2,NWFWMD,Well,30.58756174,-86.63050047,,710,524,
-84.4166226315775,30.6459799570659,826,4359,REGISTER/OLD GARLAND,NWFWMD,Well,30.64597421,-84.41661857,,505,436,
-86.5247699261478,30.3884234345082,827,6016,EAFB ISL NCO #71,NWFWMD,Well,30.38841781,-86.52476528,,725,485,
-86.6354795416506,30.4059496092577,828,7523,NWFWMD-LIZA JACKSON,NWFWMD,Well,30.40594399,-86.63547486,,917,835,
-87.0567675559527,30.3873713621391,829,7686,NWFWMD-TIGER POINT,NWFWMD,Well,30.38736575,-87.05676276,,1310,1140,
-85.9856918710904,30.2660600455439,830,9194,PINNACLE PORT #1R,NWFWMD,Well,30.26605443,-85.98568738,,490,380,
-84.8560985965307,29.7639161771676,831,9606,EPWSD #4,NWFWMD,Well,29.76391064,-84.85609444,,325,194,
-85.824215526575,30.3915085297169,832,9748,NW BAY CTY - SITE #2 UFA MONITOR,NWFWMD,Well,30.39150288,-85.82421107,,424,291,
-84.8309425545419,29.7841969824363,833,56,NWFWMD-GREEN POINT FLORIDAN,NWFWMD,Well,29.78419144,-84.83093841,,189,140,
-84.2297916299366,30.5006044255655,834,3156,USGS-OLSON RD./S677,NWFWMD,Well,30.5005987,-84.22978763,,444,289,
-85.5816769723181,30.0629438336569,835,289,TAFB #10/BACKUP#1,NWFWMD,Well,30.06293825,-85.5816726,,645,345,
-84.6769986353022,30.1770052901392,836,589,USFS PORTER LAKE,NWFWMD,Well,30.17699966,-84.67699452,,110,88,
-84.3441891723347,30.2266683038174,837,728,SANDY CAMPBELL / NITRATE POT. MAP,NWFWMD,Well,30.22666265,-84.34418515,,75,36,
-86.2880978920983,30.3732101899992,838,1376,NWFWMD-WEST HEWETT FLORIDAN,NWFWMD,Well,30.37320456,-86.28809331,,725,550,
-85.4345213014915,30.390933582986,839,1637,COUCH CONSTRUCTION,NWFWMD,Well,30.39092792,-85.43451696,,310,184,
-86.6323975466249,30.4364328691217,840,2394,WRIGHT ELEMENTARY,NWFWMD,Well,30.43642724,-86.63239286,,635,535,
-84.3626367505225,30.5283969488838,841,3402,USGS-LAKE JACKSON FLORIDAN,NWFWMD,Well,30.52839122,-84.36263271,,225,100,
-85.3867994366689,30.6167214208007,842,4183,COMPASS LAKE TOWER,NWFWMD,Well,30.61671571,-85.3867951,,522,438,
-86.8770189055178,30.6501487858936,843,4393,EAST MILTON #3/MILLERS BLUFF RD.,NWFWMD,Well,30.65014311,-86.87701415,,800,660,
-86.3542450619868,30.6793615899892,844,4553,EAFB FLD #1 WELL #2 BLDG#1030/USGS #19,NWFWMD,Well,30.6793559,-86.35424045,,630,323,
-85.0770690443099,30.8539072456675,845,5266,NWFWMD-PITTMAN VISA/S661,NWFWMD,Well,30.85390147,-85.07706478,,158,100,
-86.4061860954044,30.8850789174768,846,5363,AL LAWSON,NWFWMD,Well,30.88507318,-86.40618146,,360,279,
-86.2070282423451,30.8999892563704,847,5417,NWFWMD-JACKSON STILL FLORIDAN,NWFWMD,Well,30.89998351,-86.20702366,,240,167,
-85.9894303836137,30.9773665720855,848,5691,COY STAFFORD,NWFWMD,Well,30.9773608,-85.98942586,,140,120,
-84.1409263165621,30.3438610397108,849,7498,NWFWMD-NITRATE #5,NWFWMD,Well,30.34385535,-84.14092234,,270,253,
-86.5630689833811,30.4572019543072,850,8127,EAFB HOUSING #16A,NWFWMD,Well,30.45719632,-86.56306432,,740,460,
-86.1092269701024,30.6433245653199,851,8361,RU MONITOR/CEDAR STREET/S672,NWFWMD,Well,30.64331887,-86.10922243,,300,260,
-85.2880922674632,29.8131455659258,852,70,NWFWMD-PORT ST JOE FLORIDAN,NWFWMD,Well,29.81314003,-85.28808799,,407,354,
-85.7214623507309,30.4945163357895,853,5962,ALEX MEYER,NWFWMD,Well,30.49451066,-85.72145792,,220,167,
-85.2222945241632,29.6843747677311,854,11,INDIAN PASS CAMPGRND,NWFWMD,Well,29.68436926,-85.22229027,,550,450,
-84.2104915547813,30.16910279396,855,554,PURDOM #4,NWFWMD,Well,30.16909715,-84.21048757,,106,71,
-85.6906173982702,30.2139772091692,856,697,FANNIN AIRPORT/S675,NWFWMD,Well,30.2139716,-85.69061299,,345,326,
-85.0172692547184,30.288140487361,857,884,ESTIFFANULGA WORK CENTER,NWFWMD,Well,30.28813484,-85.01726503,,292,205,
-84.293804601379,30.3111913193053,858,978,C. DONAHUE DEEP / NITRATE POT. MAP,NWFWMD,Well,30.31118564,-84.29380059,,157,113,
-86.1655244320466,30.3298752514584,859,1074,VAN BUTLER / USGS WALTON #21,NWFWMD,Well,30.32986963,-86.16551989,,466,424,
-85.5841105985153,30.5070953690497,860,3216,USGS-422A NEAR GREENHEAD,NWFWMD,Well,30.50708969,-85.58410621,,150,110,
-86.7598390825907,30.554247705494,861,3642,EAFB METTS TOWER,NWFWMD,Well,30.55424205,-86.75983436,,796,600,
-85.7572905528612,30.5589476107339,862,3680,JOHN WALTON,NWFWMD,Well,30.55894192,-85.75728611,,280,210,
-85.2108275099983,30.8216048937165,863,5151,FRANCIS RETTIG 4-INCH,NWFWMD,Well,30.82159913,-85.21082321,,152,82,
-85.9383739387276,30.8556503780576,864,5271,PROSPERITY TOWER,NWFWMD,Well,30.85564463,-85.93836943,,233,200,
-86.6762056470484,30.953356565618,865,5597,NWFWMD-SAND HILL UPPER FLORIDAN,NWFWMD,Well,30.95335082,-86.67620093,,310,295,
-86.2220502888011,30.3532342100054,866,7751,NWFWMD-SEAGROVE DEEP FLORIDAN,NWFWMD,Well,30.35322858,-86.22204573,,645,539,
-84.8713191257186,29.7553433235845,867,9451,EPWSD SITE 3 APT MW-50D,NWFWMD,Well,29.75533779,-84.87131497,,455,425,
-85.8498979931616,30.2031478693499,868,679,ARGONAUT STREET 02,NWFWMD,Well,30.20314227,-85.84989354,,369,267,
-83.9198364756457,30.5301311018696,869,3413,IFAS #4,NWFWMD,Well,30.53012536,-83.91983256,,256,166,
-84.216845031806,30.656867306755,870,4430,TALL TIMBERS,NWFWMD,Well,30.65686155,-84.21684103,,249,221,
-86.3021503815403,30.9682391489322,871,5656,PAXTON WELCOME CENTER,NWFWMD,Well,30.96823339,-86.30214577,,350,230,
-84.296772022197,30.0959317695045,872,342,USGS-LESTER LEWIS,NWFWMD,Well,30.09592614,-84.29676801,,83,35,
-84.3768118835345,30.1154503599738,873,372,WAKULLA PARKS AND RECREATION,NWFWMD,Well,30.11544473,-84.37680785,,120,35,
-85.5079315023881,30.2433542297543,874,785,BAY CO - HARDERS PARK #2,NWFWMD,Well,30.24334861,-85.50792715,,460,215,
-86.6389438565877,30.4633423789471,875,2822,WRIGHT UPPER FLORIDAN,NWFWMD,Well,30.46333674,-86.63893917,,858,503,
-85.865490525692,30.5806205375633,876,3867,WILLIAMSON / YATES,NWFWMD,Well,30.58061485,-85.86548605,,160,75,
-86.7374698324553,30.6284068360814,877,4262,EAFB 6204 FLD 96 CEG/CEVCE,NWFWMD,Well,30.62840116,-86.73746511,,690,527,
-86.5275393448961,30.6475549366015,878,4368,EAFB DF-WR-27,NWFWMD,Well,30.64754925,-86.52753468,,609,456,
-85.0279200556516,30.8987005495908,879,5408,NWFWMD-2 EGG AMBIENT #3,NWFWMD,Well,30.89869476,-85.02791581,,152,120,
-84.1406134232932,30.3442735575652,880,7499,NWFWMD-NITRATE #6,NWFWMD,Well,30.34426787,-84.14060945,,90,70,
-85.7630428381337,30.4081234086813,881,9941,NW BAY CTY - SITE #3 UFA MONITOR #1,NWFWMD,Well,30.40811776,-85.7630384,,471,230,
-84.89003379272,29.7273778211304,882,29,MCCULLOCH #1,NWFWMD,Well,29.7273723,-84.89002963,,240,168,
-85.2676126966493,30.1163936601159,883,380,EXXON SUPPLY,NWFWMD,Well,30.11638806,-85.26760841,,333,232,
-85.7883648833859,30.1683387323797,884,563,ST THOMAS SQUARE,NWFWMD,Well,30.16833314,-85.78836045,,560,294,
-86.0669143467578,30.3269620356747,885,1062,NWFWMD-PT. WASH. FLORIDAN APT,NWFWMD,Well,30.32695641,-86.06690983,,610,295,
-86.6070678504782,30.4060770266957,886,1894,OKALOOSA SCHOOL BOARD/S673,NWFWMD,Well,30.4060714,-86.60706318,,672,504,
-85.0702403166382,30.450190972033,887,2624,NWFWMD-BLOUNTSTOWN FLORIDAN,NWFWMD,Well,30.45018529,-85.07023607,,303,202,
-86.3093916714154,30.4816404672654,888,2993,EAFB NR CAMP RUCKER,NWFWMD,Well,30.48163481,-86.30938708,,880,201,
-86.5878040019002,30.5061171815223,889,3209,EAFB FLD #4 WELL #2 BLDG#4204,NWFWMD,Well,30.50611153,-86.58779933,,591,442,
-84.5796094338366,30.5986007909331,890,4026,QUINCY #3,NWFWMD,Well,30.59859506,-84.57960532,,701,430,
-84.840519150952,30.6823533516489,891,4566,UNUSED SOUTH OF CHATTAHOOCHEE,NWFWMD,Well,30.68234761,-84.84051496,,214,82,
-85.9519542829288,30.7224266218429,892,4731,PONCE DE LEON #2,NWFWMD,Well,30.72242091,-85.95194978,,230,70,
-85.8659104101558,30.74862046405,893,4822,BILLY MILLER,NWFWMD,Well,30.74861474,-85.86590593,,165,81,
-85.3756300397723,30.7963435136116,894,5062,COTTONDALE #3,NWFWMD,Well,30.79633776,-85.3756257,,280,128,
-85.8107345510557,30.9401120102683,895,5547,ELTON CRUTCHFIELD,NWFWMD,Well,30.94010624,-85.81073008,,163,90,
-85.5198638980108,30.5099995174729,896,5960,NWFWMD-PORTER POND EAST,NWFWMD,Well,30.50999383,-85.51985953,,263,165,
-86.9001360791116,30.6188652806147,897,7208,WALTER PECEVICH,NWFWMD,Well,30.61885962,-86.90013131,,0,0,
-84.2081263458101,30.6602109261862,898,9132,TALL TIMBER RESEARCH,NWFWMD,Well,30.66020517,-84.20812234,,308,206,
-85.0444482589596,31.0255618143051,899,HOUST1,HOUST1,GSA,Well,31.025556,-85.044444,,118,0,
-86.6100647023792,31.0294057639938,900,039Z24002,Jack Bush,GSA,Well,31.0294,-86.61006,,300,0,COVZ-4
-86.2511646007571,31.0060257709761,901,039DD33003,Roy Smith,GSA,Well,31.00602,-86.25116,,285,0,DD-01/DD-3
-86.5293346790397,31.0176057640559,902,039AA26002,Virgil Lewis / Terry Parrish,GSA,Well,31.0176,-86.52933,,380,0,COVAA-1
-86.3213936298923,31.2186168149932,903,COVS-2,C. Wiggins,GSA,Well,31.218611,-86.321389,,272,0,
-86.0241715377507,31.0286167833882,904,061T27001,Fortenberry,GSA,Well,31.028611,-86.024167,,230,0,GENT-9
-85.7541714634496,31.0794498033242,905,GENQ-9,A. Williams,GSA,Well,31.079444,-85.754167,,220,0,
-85.9002845014788,30.9943257797505,906,061X23001,W. Gantt,GSA,Well,30.99432,-85.90028,,260,0,X-4
-85.6120044200028,31.0080557917853,907,061AA19002,Tim Tindell,GSA,Well,31.00805,-85.612,,150,0,GENAA-2
-85.3241983396139,31.0383458081925,908,069S27001,Hasten McCondle,GSA,Well,31.03834,-85.324194,,140,0,HOUSTS-8
-85.4173507978879,31.0351539582511,909,HOUSTR-6,Debbie Pitman,GSA,Well,31.030858,-85.417346,,150,0,
-85.427148369087,31.0397028056056,910,069R26002,B. Thomley,GSA,Well,31.039697,-85.427144,,180,0,HOUSTR-01
-85.2183373157605,31.176394842684,911,069O03001,Mrs Bruner,GSA,Well,31.176389,-85.218333,,115,0,HOUSTO-12
-85.1094342790893,31.0506758175572,912,069U14001,Barton Willoughby,GSA,Well,31.05067,-85.10943,,300,0,HOUSTU-7
-85.1043942759034,31.0046158082063,913,069X14001,L. Hatcher,GSA,Well,31.00461,-85.10439,,140,0,X-2
-85.1508372912272,31.0569498179664,914,HOUSTU-8,Billy Ethridge,GSA,Well,31.056944,-85.150833,,140,0,
-85.2482763188801,31.0572188148581,915,069T16002,Randall McCord,GSA,Well,31.057213,-85.248272,,125,0,HOUSTT-10
-81.5497661385593,30.7205754536208,916,304313081330001,304313081330001,USGS,Well,30.7205696,-81.5497629,,575,575,120FLRDU
-81.551392139441,30.7350058569334,917,304406081330504,304406081330504,USGS,Well,30.735,-81.5513889,,1500,1500,120FLRDL
-84.6660181414096,30.7867795725856,918,304712084395801,304712084395801,USGS,Well,30.7867738,-84.666014,,148,148,120FLRDU
-84.6781152451133,30.801866876266,919,304806084404101,304806084404101,USGS,Well,30.8018611,-84.6781111,,0,0,120FLRDU
-82.3604089791738,30.8288403542413,920,304942082213801,304942082213801,USGS,Well,30.8288345,-82.3604055,,700,700,120FLRDU
-83.2826556464558,30.8310412260524,921,304949083165301,304949083165301,USGS,Well,30.8310354,-83.2826519,,400,342,120FLRDU
-84.8985394121568,30.8971381904328,922,305356084534601,305356084534601,USGS,Well,30.8971324,-84.8985352,,150,150,120FLRDU
-84.9863211445763,31.0743558273592,923,310427084591101,310427084591101,USGS,Well,31.07435,-84.9863169,,125,123,120FLRDU
-82.1512463755356,29.7391536069976,924,A-0962,Balu Forest,SJRWMD,Well,29.739148,-82.151243,,155,130,
-82.0186883410694,29.8521016376489,925,C-0696,Camp Blanding Lowry,SJRWMD,Well,29.852096,-82.018685,,320,280,
-82.0189163401903,29.8188906295412,926,C-0707,Camp Blanding Magnolia,SJRWMD,Well,29.818885,-82.018913,,290,238,
-81.5279811714792,29.1131274763127,927,L-0441,USFS Well,SJRWMD,Well,29.113122,-81.527978,,113,104,
-81.5520861803516,29.1673474884998,928,L-0455,Astor Pk,SJRWMD,Well,29.167342,-81.552083,,150,100,
-82.0154393155655,29.1849914798007,929,M-0028,Sharpes Ferry W,SJRWMD,Well,29.184986,-82.015436,,153,124,
-81.9168032899154,29.2688695028677,930,M-0036,Cedar Ck SR314,SJRWMD,Well,29.268864,-81.9168,,165,85,
-82.1116843492495,29.3389335139932,931,M-0063,Sparr Replacement,SJRWMD,Well,29.338928,-82.111681,,120,61,
-81.7397292317302,29.0842454639647,932,M-0714,Ocala NF off FR09 S,SJRWMD,Well,29.08424,-81.739726,,277,242,
-81.8129242556324,29.158103478902,933,M-0721,Ocala NF off FR5 S,SJRWMD,Well,29.158098,-81.812921,,220,170,
-81.3930251135806,28.559676346899,934,OR0009,Lk Adair,SJRWMD,Well,28.559671,-81.393022,,1281,601,
-81.3555111065887,28.6823993780249,935,S-1017,Charlotte St,SJRWMD,Well,28.682394,-81.355508,,480,380,
-81.3575031479664,29.8333386514676,936,SJ0824,Treaty Pk,SJRWMD,Well,29.833333,-81.3575,,290,235,
-81.2471780839778,28.9384094424796,937,V-1169,Deltona N Wells,SJRWMD,Well,28.938404,-81.247175,,137,98,
-83.0240105785859,30.0249309284376,938,S051328002,Adams Tract UFA,SRWMD,Well,30.02492528,-83.02400694,,170,63,
-82.9283091706731,30.0212000902414,939,S051428004,Daniels UFA,SRWMD,Well,30.02119444,-82.92830556,,50,42,
-82.6991701934309,29.450561083664,940,02313450,Levy Blue Spring Pool,SRWMD,Spring,29.45055556,-82.69916667,,,,
-82.6563923945237,29.2802832649127,941,02313600,Wekiva Spring Pool,SRWMD,Spring,29.28027778,-82.65638889,,,,
-82.7611146852937,30.3330612876303,942,02315503,White Sulphur Springs Pool,SRWMD,Spring,30.33305556,-82.76111111,,,,
-83.0897258946399,30.4383390722965,943,02315648,Alapaha Rise near Fort Union,SRWMD,Spring,30.43833333,-83.08972222,,,,
-83.2444481604675,30.480283526904,944,02319302,Madison Blue Spring Pool,SRWMD,Spring,30.48027778,-83.24444444,,,,
-82.9975036307811,30.0058389751854,945,02320250,Troy Springs Pool,SRWMD,Spring,30.00583333,-82.9975,,,,
-82.591392397591,29.8733389555805,946,02321910,Santa Fe Rise Pool,SRWMD,Spring,29.87333333,-82.59138889,,,,
-82.5933368374379,29.8500056207615,947,02321970,Hornsby Springs Pool,SRWMD,Spring,29.85,-82.59333333,,,,
-82.6494479632974,29.8258389426309,948,02322140,Poe Springs Pool,SRWMD,Spring,29.82583333,-82.64944444,,,,
-82.7619480012748,29.9841723169652,949,02322685,Ichetucknee Head Spring Pool,SRWMD,Spring,29.98416667,-82.76194444,,,,
-82.7586146702739,29.9794500853466,950,02322688,Blue Hole Spring Pool,SRWMD,Spring,29.97944444,-82.75861111,,,,
-82.9355591565861,29.5875055493092,951,02323502,Fanning Springs Pool,SRWMD,Spring,29.5875,-82.93555556,,,,
-82.9805591659158,29.4902833048945,952,02323566,Manatee Springs Pool,SRWMD,Spring,29.49027778,-82.98055556,,,,
-83.0897258946399,30.4383390722965,953,02326518,Aucilla Spring,SRWMD,Spring,30.43833333,-83.08972222,,,,
-83.6716427327782,30.4739501730195,954,N010719001,Jerry Hall,SRWMD,Well,30.47394444,-83.67163889,,229,192,
-83.2484206618359,30.479692967254,955,N011117015,Nestle FSC-1,SRWMD,Well,30.47968722,-83.24841694,,167,130,
-83.0301980986761,30.4833946443792,956,N011316001,Adams Farm UFA,SRWMD,Well,30.48338889,-83.03019444,,167,100,
-82.9080147330625,30.4759201964212,957,N011422007,Pete Deas UFA,SRWMD,Well,30.47591444,-82.90801111,,105,81,
-82.802181923961,30.4999988246013,958,N011510003,Arky Rogers UFA,SRWMD,Well,30.49999306,-82.80217833,,208,188,
-82.7368924648716,30.4993113267217,959,N011608001,Irene Morgan UFA,SRWMD,Well,30.49930556,-82.73688889,,183,123,
-82.703809125292,30.5091168797882,960,N011610001,Bay Creek UFA,SRWMD,Well,30.50911111,-82.70380556,,260,160,
-82.5911146421133,30.4920890998942,961,N011714002,Old Benton UFA,SRWMD,Well,30.49208333,-82.59111111,,320,270,
-83.6990594160977,30.5958668696814,962,N020611002,Ashville Tower UFA,SRWMD,Well,30.59586111,-83.69905556,,137,97,
-83.5146215823752,30.5667293684373,963,N020822002,Lovette Tower UFA,SRWMD,Well,30.56672361,-83.51461778,,81,61,
-83.2875956778023,30.6068332744057,964,N021002001,John Homzak,SRWMD,Well,30.6068275,-83.28759194,,282,160,
-83.2947259569057,30.5366724286146,965,N021035003,Gibson Tower UFA,SRWMD,Well,30.53666667,-83.29472222,,125,105,
-83.1713828718391,30.539950762842,966,N021125001,Santa Deas UFA,SRWMD,Well,30.539945,-83.17137917,,195,100,
-83.041698103756,30.5312002046726,967,N021332004,Alapaha Tower UFA,SRWMD,Well,30.53119444,-83.04169444,,103,63,
-82.9421703054084,30.5334502084566,968,N021432001,Stafford Scaff UFA,SRWMD,Well,30.53344444,-82.94216667,,167,92,
-82.5688299189036,30.5765888501382,969,N021713001,Sandlin Floridan,SRWMD,Well,30.57658306,-82.56882639,,401,306,
-83.7797538814676,30.6452002088953,970,N030524001,Pinckney Hill UFA,SRWMD,Well,30.64519444,-83.77975,,122,82,
-83.6067260517684,30.6367279915703,971,N030727001,Blackwater UFA,SRWMD,Well,30.63672222,-83.60672222,,181,144,
-83.9697261445331,30.3702834797891,972,S010430002,Wacissa Tower UFA,SRWMD,Well,30.37027778,-83.96972222,,240,120,
-83.4438618343602,30.3850434992634,973,S010920002,Hopewell Tower UFA,SRWMD,Well,30.38503778,-83.44385806,,113,75,
-83.2977026234979,30.4138118398665,974,S011011002,Lee School UFA,SRWMD,Well,30.41380611,-83.29769889,,78,58,
-83.2865037272765,30.3497834954859,975,S011035001,Paul Webb UFA,SRWMD,Well,30.34977778,-83.2865,,78,47,
-83.2331759024567,30.3715589127928,976,S011129001,Lee Peanut UFA,SRWMD,Well,30.37155319,-83.23317219,,69,49,
-83.1323092434715,30.3579501625321,977,S011232006,Falmouth UFA,SRWMD,Well,30.35794444,-83.13230556,,80,62,
-82.9338925175202,30.3927835162916,978,S011420001,FL Board Suw Springs UFA,SRWMD,Well,30.39277778,-82.93388889,,58,51,
-82.7833924749465,30.411672414884,979,S011511001,PCS Admin UFA,SRWMD,Well,30.41166667,-82.78338889,,160,107,
-82.7993646970728,30.3568946220421,980,S011534001,Hilward Morgan UFA,SRWMD,Well,30.35688889,-82.79936111,,260,114,
-82.7813241413649,30.3522510113628,981,S011535004,Bullock Tower UFA,SRWMD,Well,30.35224528,-82.78132056,,148,128,
-82.6062165920543,30.3805318533256,982,S011727001,ONF 1A UFA,SRWMD,Well,30.38052611,-82.60621306,,228,192,
-82.3307812324519,30.3810057513503,983,S012029001,ONF 6A UFA,SRWMD,Well,30.381,-82.33077778,,338,319,
-83.9271990189018,30.2714303188013,984,S020433001,Foley Jefferson UFA,SRWMD,Well,30.27142464,-83.92719511,,30,10,
-83.661044111926,30.2634176247865,985,S020731002,Jack Chappell UFA,SRWMD,Well,30.26341194,-83.66104028,,57,37,
-83.4931410072466,30.3469440384856,986,S020802001,BC26F UFA,SRWMD,Well,30.34693833,-83.49313722,,100,80,
-83.5362077970882,30.2892184745124,987,S020828001,Foley 15 Mile UFA,SRWMD,Well,30.28921278,-83.536204,,69,49,
-83.1534700463575,30.2750427626591,988,S021231001,Don Curtis UFA,SRWMD,Well,30.27503706,-83.15346636,,80,40,
-82.9860314172044,30.2703112665093,989,S021335001,Church of God UFA,SRWMD,Well,30.27030556,-82.98602778,,180,168,
-82.9557258488671,30.2816168198299,990,S021430004,SRWMD Office UFA,SRWMD,Well,30.28161111,-82.95572222,,185,86,
-82.8193647009675,30.3194779425954,991,S021516001,Poucher UFA,SRWMD,Well,30.31947222,-82.81936111,,138,135,
-82.6606641048016,30.3058821148306,992,S021624001,Rebecca Nolin UFA,SRWMD,Well,30.30587639,-82.66066056,,167,75,
-82.5857535240239,30.3263946212372,993,S021711003,ONF 2V UFA,SRWMD,Well,30.32638889,-82.58575,,262,160,
-82.526399617873,30.3435437967569,994,S021805001,ONF 3A UFA,SRWMD,Well,30.34353806,-82.52639611,,220,195,
-82.4547812646913,30.2846446152504,995,S021930001,ONF 7A UFA,SRWMD,Well,30.28463889,-82.45477778,,184,178,
-82.3945590262163,30.2764501655084,996,S021934001,ONF 8A UFA,SRWMD,Well,30.27644444,-82.39455556,,238,213,
-83.8763927817859,30.2111167757864,997,S030424003,Cabbage Grove UFA,SRWMD,Well,30.21111111,-83.87638889,,40,10,
-83.6699324418283,30.1959312285514,998,S030730001,Gibson Still UFA,SRWMD,Well,30.19592556,-83.66992861,,142,142,
-83.5277972301544,30.1869917008274,999,S030833001,Foley 7Mile UFA,SRWMD,Well,30.18698603,-83.52779344,,68,48,
-83.277071779776,30.2349115798754,1000,S031012001,Thittus Dees UFA,SRWMD,Well,30.23490589,-83.27706806,,72,30,
-83.2915304419264,30.1739163953787,1001,S031035001,LafCoCom NWCR53 UFA,SRWMD,Well,30.17391072,-83.29152672,,47,17,
-83.2382898193686,30.2487001341495,1002,S031105006,Advent Village UFA,SRWMD,Well,30.24869444,-83.23828611,,75,60,
-83.146041740328,30.176076509571,1003,S031232001,Carey Lee UFA,SRWMD,Well,30.17607083,-83.14603806,,124,100,
-82.9879222448662,30.1877026273966,1004,S031335002,DOT 129 Landfill UFA,SRWMD,Well,30.18769694,-82.98791861,,82,55,
-82.6656424347001,30.259589043624,1005,S031601003,Shirley Jolly UFA,SRWMD,Well,30.25958333,-82.66563889,,120,117,
-82.6686146554271,30.2569501528772,1006,S031601012,Falling Creek UFA,SRWMD,Well,30.25694444,-82.66861111,,361,122,
-82.5935313004568,30.1844223685399,1007,S031734011,Lake City DOF UFA,SRWMD,Well,30.18441667,-82.59352778,,203,183,
-82.3913090228211,30.2128390409352,1008,S031923004,Olustee Floridan,SRWMD,Well,30.21283333,-82.39130556,,253,233,
-83.9690233554448,30.1468414781634,1009,S040407001,Carolyn Phillips UFA,SRWMD,Well,30.14683583,-83.96901944,,12,,
-83.5718516296045,30.0941669280199,1010,S040736005,Perry_DOF_UFA,SRWMD,Well,30.09416128,-83.57184783,,34,24,
-83.2989230024862,30.1400332466624,1011,S041014001,Prine UFA,SRWMD,Well,30.14002758,-83.29891928,,106,84,
-83.1694049361239,30.1514571731332,1012,S041112005,Revis Moore UFA,SRWMD,Well,30.1514515,-83.16940125,,144,43,
-83.0440592075403,30.1081445575351,1013,S041329001,Suwannee Farms UFA,SRWMD,Well,30.10813889,-83.04405556,,247,94,
-82.8885444348196,30.1649898550055,1014,S041402002,Rocky Hill UFA,SRWMD,Well,30.16498417,-82.88854083,,156,116,
-82.6361646427481,30.1751615251513,1015,S041705001,DOT Lake City UFA,SRWMD,Well,30.17515583,-82.63616111,,836,689,
-82.6085035215008,30.1032556788604,1016,S041734002,Rose Creek UFA,SRWMD,Well,30.10325,-82.6085,,133,113,
-82.4965896000866,30.1098229039003,1017,S041827002,Lulu UFA,SRWMD,Well,30.10981722,-82.49658611,,214,174,
-82.383059017228,30.1297834720447,1018,S041923001,USGS At LkButler UFA,SRWMD,Well,30.12977778,-82.38305556,,717,694,
-82.2176139681248,30.1063790211639,1019,S042132001,Raiford DOC UFA,SRWMD,Well,30.10637333,-82.21761056,,314,230,
-82.0499705801403,30.1069995859855,1020,S042236001,Louis Hill Floridan,SRWMD,Well,30.10699389,-82.04996722,,438,418,
-83.7174504790662,30.0409640512465,1021,S050615002,Hampton Springs UFA,SRWMD,Well,30.04095842,-83.71744664,,38,18,
-83.5718901887794,30.0797167545986,1022,S050701001,RDS UFA,SRWMD,Well,30.07971111,-83.57188639,,260,179,
-83.4344575876113,30.0250605564854,1023,S050928004,Foley Buckeye UFA,SRWMD,Well,30.02505492,-83.43445383,,60,40,
-83.3189470561092,30.0728281509463,1024,S051004001,Foley Buckville UFA,SRWMD,Well,30.0728225,-83.31894333,,46,26,
-83.0752555960286,30.0851926008179,1025,S051201007,Royal Floridan,SRWMD,Well,30.08518694,-83.07525194,,40,15,
-83.1379766139212,30.068228734852,1026,S051208001,RL Koon UFA,SRWMD,Well,30.06822308,-83.13797294,,71,63,
-83.1298013404841,30.0643179346029,1027,S051209001,VISA_7_UFA,SRWMD,Well,30.06431228,-83.12979767,,62,44,
-83.0816106865579,30.047135791761,1028,S051214008,VISA_8_UFA,SRWMD,Well,30.04713014,-83.08160703,,52,22,
-83.1584754290761,30.0522460108011,1029,S051218002,Hewitt UFA,SRWMD,Well,30.05224036,-83.15847175,,68,63,
-82.9783925169343,30.0651167693459,1030,S051311001,Valmont Farms,SRWMD,Well,30.06511111,-82.97838889,,136,24,
-83.0576028172111,29.9992584211835,1031,S051331003,Midway Tower UFA,SRWMD,Well,29.99925278,-83.05759917,,44,24,
-82.995149739397,30.0027812042618,1032,S051334013,Troy TYA UFA,SRWMD,Well,30.00277556,-82.99514611,,44,24,
-82.7213988323095,30.0451270523601,1033,S051621002,Kirby Pit UFA,SRWMD,Well,30.04512139,-82.72139528,,35,33,
-82.5565335040831,30.0391520558696,1034,S051819001,David Wood UFA,SRWMD,Well,30.03914639,-82.55653,,120,100,
-82.3916978968467,30.0452001113341,1035,S051922001,Union Tower Floridan,SRWMD,Well,30.04519444,-82.39169444,,233,213,
-82.4140715219794,30.0171614945031,1036,S051933001,USGS Nr Lake Butler UFA,SRWMD,Well,30.01715583,-82.41406806,,254,196,
-83.3444724496062,29.9840857692241,1037,S061005001,Foley Cooks Hammock UFA,SRWMD,Well,29.98408014,-83.34446872,,43,23,
-83.2791090689372,29.9277027580109,1038,S061025003,Cooks Hammock UFA,SRWMD,Well,29.92769714,-83.27910536,,61,41,
-83.2027931277782,29.9645136892295,1039,S061114001,McCray UFA,SRWMD,Well,29.96450806,-83.20278944,,147,109,
-83.0732283688247,29.9272439547225,1040,S061225004,Mallory 4 UFA,SRWMD,Well,29.92723833,-83.07322472,,63,43,
-82.9662375414766,29.9964594738819,1041,S061301007,Little River UFA,SRWMD,Well,29.99645383,-82.96623392,,44,24,
-83.015680572443,29.9256331252458,1042,S061327002,Mallory 9F UFA,SRWMD,Well,29.9256275,-83.01567694,,61,51,
-82.8623866513643,29.9971367569697,1043,S061401003,Beachville Tower UFA,SRWMD,Well,29.99713111,-82.86238306,,48,18,
-82.710003546963,29.984283428276,1044,S061610001,DOT SR47 Chastain UFA,SRWMD,Well,29.98427778,-82.71,,65,45,
-82.7517743877975,29.969986473279,1045,S061618003,Ichetucknee ICA UFA,SRWMD,Well,29.96998083,-82.75177083,,36,16,
-82.7361363320574,29.9388786973601,1046,S061629001,Tin Lizzie UFA,SRWMD,Well,29.93887306,-82.73613278,,75,50,
-82.6080590747863,29.9204500762817,1047,S061734001,Oleno Tower UFA,SRWMD,Well,29.92044444,-82.60805556,,87,,
-82.4248323518847,29.9280181436074,1048,S061932026,Jim Cason UFA,SRWMD,Well,29.9280125,-82.42482889,,120,100,
-82.1716772816993,30.0039159989604,1049,S062102001,USGS Raiford UFA,SRWMD,Well,30.00391033,-82.17167389,,294,247,
-83.1163606008852,29.9061192279752,1050,S071203001,Mallory_3 UFA,SRWMD,Well,29.90611361,-83.11635694,,68,48,
-83.0728508671147,29.8822686738217,1051,S071213003,Mallory_5 UFA,SRWMD,Well,29.88226306,-83.07284722,,57,37,
-83.1219081010197,29.8681817190142,1052,S071216001,Mallory_2 UFA,SRWMD,Well,29.86817611,-83.12190444,,34,14,
-83.105333655183,29.8360150420365,1053,S071234001,Mallory_1F UFA,SRWMD,Well,29.83600944,-83.10533,,61,41,
-83.012987520914,29.8898781173105,1054,S071310002,Mallory_8_UFA,SRWMD,Well,29.8898725,-83.01298389,,48,28,
-83.0221608521706,29.8558447794804,1055,S071321001,Mallory_7 UFA,SRWMD,Well,29.85583917,-83.02215722,,53,38,
-83.0604908624893,29.8385222737419,1056,S071331001,Mallory_6 UFA,SRWMD,Well,29.83851667,-83.06048722,,62,42,
-83.0226244608639,29.8275081025471,1057,S071333002,Mallory_10F UFA,SRWMD,Well,29.8275025,-83.02262083,,60,45,
-82.9224702722375,29.8463889402324,1058,S071428012,LCS-2 UFA,SRWMD,Well,29.84638333,-82.92246667,,71,,
-82.8084307894123,29.8490731140788,1059,S071528001,Loncala 138 UFA,SRWMD,Well,29.8490675,-82.80842722,,130,110,
-82.7422007704913,29.850399976055,1060,S071630002,DOT 47 and 138 UFA,SRWMD,Well,29.85039436,-82.74219722,,30,10,
-82.2848262008745,29.9154723142635,1061,S072002001,Smurfit Stone UFA,SRWMD,Well,29.91546667,-82.28482278,,202,182,
-82.2186325686504,29.8489575705078,1062,S072132001,USGS Graham UFA,SRWMD,Well,29.84895194,-82.21862917,,206,172,
-82.1295867054369,29.9171445397392,1063,S072205001,Bureau Prop Assist UFA,SRWMD,Well,29.91713889,-82.12958333,,246,206,
-82.082140830484,29.8824096728029,1064,S072215001,USGS Starke UFA,SRWMD,Well,29.88240403,-82.08213747,,324,234,
-83.4668076478164,29.7947830818826,1065,S080907003,Salem Tower UFA,SRWMD,Well,29.7947775,-83.46680389,,37,7,
-83.2412034108241,29.748997248278,1066,S081132001,Hines Tower UFA,SRWMD,Well,29.74899167,-83.24119972,,92,82,
-82.9689748637204,29.7821332333036,1067,S081313005,GP8 UFA RockSink 353,SRWMD,Well,29.78212764,-82.96897125,,35,15,
-83.0076546852193,29.7915947349404,1068,S081315001,Mathis Lake UFA,SRWMD,Well,29.79158914,-83.00765106,,88,,
-82.8678744149193,29.8036272713572,1069,S081412001,Bell Tower UFA,SRWMD,Well,29.80362167,-82.86787083,,160,140,
-82.7902743906088,29.7422619798986,1070,S081535002,Rayon Wacca 10F UFA,SRWMD,Well,29.74225639,-82.79027083,,113,103,
-82.5980939484789,29.8242487542023,1071,S081703001,City of High Springs UFA,SRWMD,Well,29.82424314,-82.59809044,,287,172,
-82.6533368540506,29.8255611729193,1072,S081706009,Poe Springs Lodge UFA,SRWMD,Well,29.82555556,-82.65333333,,,,
-82.5446168223339,29.828146726491,1073,S081806005,High Spgs Well Field,SRWMD,Well,29.82814111,-82.54461333,,278,193,
-82.3888226154022,29.7583392145298,1074,S081926001,GRU Deerhaven UFA,SRWMD,Well,29.75833361,-82.38881917,,284,139,
-82.0797100278979,29.8218422985757,1075,S082202001,Santa Fe Swamp UFA,SRWMD,Well,29.82183667,-82.07970667,,208,168,
-83.3881704008024,29.6946444510688,1076,S090914003,Foley Steinhatchee,SRWMD,Well,29.69463889,-83.38816667,,97,65,
-83.2948913452073,29.7086507366573,1077,S091011004,Jonesboro Tower UFA,SRWMD,Well,29.70864517,-83.29488764,,37,7,
-83.0704159703726,29.7198622157359,1078,S091212003,Holly Hill UFA,SRWMD,Well,29.71985664,-83.07041233,,45,15,
-83.0009576989109,29.6842733996321,1079,S091323001,GP7 James Weaver UFA,SRWMD,Well,29.68426783,-83.00095408,,30,10,
-82.9253222073711,29.6929541836963,1080,S091420001,Clifton Mikel UFA,SRWMD,Well,29.69294861,-82.92531861,,65,55,
-82.8193368984225,29.7328944765287,1081,S091504001,Wade Floridan,SRWMD,Well,29.73288889,-82.81933333,,51,41,
-82.7466702175862,29.7246444769464,1082,S091607001,USGS Trenton UFA,SRWMD,Well,29.72463889,-82.74666667,,103,55,
-82.7198221470438,29.6721261349428,1083,S091628005,Loncala Mid UFA,SRWMD,Well,29.67212056,-82.71981861,,78,58,
-82.4410312394126,29.7351722678732,1084,S091938002,San Felasco UFA,SRWMD,Well,29.73516667,-82.44102778,,168,120,
-82.0458366736409,29.7200611656301,1085,S092307001,USGS Melrose UFA,SRWMD,Well,29.72005556,-82.04583333,,259,204,
-83.1047519772064,29.6249541629843,1086,S101210001,Cross City UFA,SRWMD,Well,29.62494861,-83.10474833,,215,106,
-82.9694247963023,29.5740168252602,1087,S101336025,GP5 UFA Old Town,SRWMD,Well,29.57401128,-82.96942119,,31,11,
-82.9396452702243,29.646233342832,1088,S101405004,Otter Springs P1 UFA,SRWMD,Well,29.64622778,-82.93964167,,58,40,
-82.9281699842453,29.5871152692291,1089,S101429020,Fanning FAA UFA,SRWMD,Well,29.58710972,-82.92816639,,32,12,
-82.8547202954101,29.6423026239937,1090,S101506003,Piedmont Farms UFA,SRWMD,Well,29.64229706,-82.85471672,,160,67,
-82.816614672817,29.610949998321,1091,S101516017,Trenton Park UFA,SRWMD,Well,29.61094444,-82.81661111,,80,44,
-82.6638343502734,29.6411513989995,1092,S101601002,SR26 DOT UFA,SRWMD,Well,29.64114583,-82.66383083,,60,30,
-82.6970660269943,29.5702383318414,1093,S101634001,Loncala CR337 UFA,SRWMD,Well,29.57023278,-82.6970625,,88,68,
-82.6064032822223,29.6054391425596,1094,S101722001,USGS Newberry UFA,SRWMD,Well,29.60543358,-82.60639978,,252,136,
-82.3443392581943,29.6494858600945,1095,S102006001,UF Anthropology UFA,SRWMD,Well,29.64948028,-82.34433583,,406,142,
-83.2412635723581,29.5269564458011,1096,S111117007,Horseshoe Tower UFA,SRWMD,Well,29.52695092,-83.24125989,,36,6,
-82.955637490181,29.5143147012023,1097,S111324036,Manatee MAD UFA,SRWMD,Well,29.51430917,-82.95563389,,28,18,
-82.9752416640876,29.4886663547814,1098,S111326004,Manatee Hickory Loop UFA,SRWMD,Well,29.48866083,-82.97523806,,99,58,
-82.489964576017,29.5473113821334,1099,S111811001,Alto Straughn UFA,SRWMD,Well,29.54730583,-82.48996111,,60,45,
-83.0439932916669,29.4132714451411,1100,S121330002,GP6 nr Weeks Landing UFA,SRWMD,Well,29.41326594,-83.04398967,,40,20,
-82.9276344179166,29.4159988392022,1101,S121429005,Levy Co Comm 60th St UFA,SRWMD,Well,29.41599333,-82.92763083,,25,5,
-82.8323607818348,29.4488763493634,1102,S121508005,HE Mills UFA,SRWMD,Well,29.44887083,-82.83235722,,33,20,
-82.6313333637026,29.4624617784854,1103,S121708005,Bronson High School UFA,SRWMD,Well,29.46245625,-82.63132986,,60,42,
-82.7748646503294,29.323894382013,1104,S131526001,Otter Creek UFA,SRWMD,Well,29.32388889,-82.77486111,,55,,
-82.7387379706021,29.351661328916,1105,S131617001,Wacca Otter UFA,SRWMD,Well,29.35165583,-82.73873444,,28,22,
-82.6239634964178,29.307790492631,1106,S131732001,Goethe UFA,SRWMD,Well,29.307785,-82.62396,,115,,
-82.5696979207404,29.3192277161875,1107,S131736001,USGS Near Bronson UFA,SRWMD,Well,29.31922222,-82.56969444,,86,69,
-83.032475834073,29.2965610382522,1108,S141305001,Fowler Refuge UFA,SRWMD,Well,29.29655556,-83.03247222,,25,5,
-82.9360313642882,29.2375887967404,1109,S141429001,Rosewood Tower UFA,SRWMD,Well,29.23758333,-82.93602778,,442,422,
-82.7245590837739,29.2518388065222,1110,S141620001,Circle K UFA,SRWMD,Well,29.25183333,-82.72455556,,300,200,
-82.6555815643667,29.2810174248269,1111,S141707004,Crystal Water UFA,SRWMD,Well,29.28101194,-82.65557806,,242,99,
-82.6308790534214,29.1602021267579,1112,S151719004,Lebanon Tower UFA,SRWMD,Well,29.16019667,-82.63087556,,109,79,
-82.6300035028734,29.440005522926,1113,121717003,TOWN OF BRONSON,SRWMD,Well,29.44,-82.63,,0,0,
-82.4600034606625,29.6300055727789,1114,101812013,ROSIES ORGANIC FARM,SRWMD,Well,29.63,-82.46,,0,0,
-82.270003429477,30.2500057226193,1115,32012001,USGS-SANDERSON,SRWMD,Well,30.25,-82.27,,0,0,
-82.9300036260011,30.3800057338665,1116,11420006,DOT-SR 129 SUW SPRINGS,SRWMD,Well,30.38,-82.93,,0,0,
-82.2900034428407,30.4400057661994,1117,12003001,USGS-TAYLOR,SRWMD,Well,30.44,-82.29,,0,0,
-83.2700037312494,30.570005766672,1118,21013001,SRWMD-WESTWOOD WEST,SRWMD,Well,30.57,-83.27,,0,0,
-82.5992034431847,28.096805205271,1119,19612,"ST PETE E-100 FLDN
ST PETE E-100 FLDN
ST PETE E-100 FLDN",SWFWMD,Well,28.0968,-82.5992,,1200,656,
-82.5273368456045,28.5317272784518,1120,813408,WEEKI WACHEE FLDN REPL,SWFWMD,Well,28.5317,-82.5273,,248,146,
-84.6530619744557,29.8766017704005,1121,7259,CARRABELLE #3,NWFWMD,Well,29.8766017,-84.6530617,WGS84,150,80,
-84.5818163749307,29.8917944711958,1122,5990,LVWSD #1,NWFWMD,Well,29.8917944,-84.5818161,NAD83,165,76,
-84.5294341755776,29.9230486713044,1123,8572,SUMMERCAMP #2 / WEST OVERDRILL,NWFWMD,Well,29.9230486,-84.5294339,WGS84,180,97,
-84.2733213773234,30.1533272708496,1124,7492,NWFWMD-NITRATE #1,NWFWMD,Well,30.1533272,-84.2733211,WGS84,247,229,
-84.2736908776486,30.1542956710116,1125,7493,NWFWMD-NITRATE #2,NWFWMD,Well,30.1542956,-84.2736906,WGS84,120,105,
-84.1770813777717,30.2590936712716,1126,8418,WAKULLA CORRECTIONAL INSTITUTE #1,NWFWMD,Well,30.2590936,-84.1770811,WGS84,160,103,
-84.158686678152,30.3050092712951,1127,8419,NWFWMD-OLD PLANK #1,NWFWMD,Well,30.3050092,-84.1586864,WGS84,160,100,
-85.6280641738012,30.3088472646274,1128,9813,MCCALL SOD FARM - DOW #2,NWFWMD,Well,30.3088472,-85.6280639,NAD83,480,280,
-84.8166655766749,30.3518381680367,1129,1198,HOSFORD-TELOGIA #2,NWFWMD,Well,30.3518381,-84.8166653,WGS84,458,250,
-84.2609696788634,30.3533722702675,1130,1204,NWFWMD-BIKE TRAIL / NITRATE POT. MAP,NWFWMD,Well,30.3533722,-84.2609694,WGS84,90,80,
-83.9697260796463,30.3702625720181,1131,1358,WACISSA TOWER SUPPLY,NWFWMD,Well,30.3702625,-83.9697258,WGS84,260,126,
-84.9742502764878,30.3745633672683,1132,7276,LAKE MYSTIC #1,NWFWMD,Well,30.3745633,-84.97425,NAD83,400,212,
-84.3172127780449,30.3767486699499,1133,1417,LS04 (1417),NWFWMD,Well,30.3767486,-84.3172125,WGS84,53,38,
-86.3099327724201,30.3797111612199,1134,1445,SWUC #5,NWFWMD,Well,30.3797111,-86.3099325,WGS84,730,435,
-86.3426149723661,30.3802000615211,1135,1453,SWUC #2,NWFWMD,Well,30.3802,-86.3426147,NAD83,600,400,
-86.4211752726113,30.3856667604913,1136,1586,DWU #7,NWFWMD,Well,30.3856667,-86.421175,NAD83,606,425,
-86.4647266724181,30.3890753607816,1137,1601,DWU #2,NWFWMD,Well,30.3890753,-86.4647264,NAD83,662,460,
-86.4371863723851,30.3900944609503,1138,9743,DWU #10,NWFWMD,Well,30.3900944,-86.4371861,WGS84,670,490,
-86.479800272422,30.3923192609238,1139,1654,DWU #3,NWFWMD,Well,30.3923192,-86.4798,NAD83,746,465,
-84.3356427788895,30.4022192701113,1140,1845,USGS #150-LAKE BRADFORD,NWFWMD,Well,30.4022192,-84.3356425,WGS84,57,57,
-86.9228796704776,30.4034269583506,1141,1841,H-N #4,NWFWMD,Well,30.4034269,-86.9228794,NAD83,1104,926,
-86.8707477710956,30.4050192586948,1142,1887,MIDWAY #1,NWFWMD,Well,30.4050192,-86.8707475,WGS84,1092,744,
-86.6799116722442,30.4137406597104,1143,1940,MARY ESTHER #3,NWFWMD,Well,30.4137406,-86.6799114,WGS84,902,665,
-86.7021846717757,30.4166558594274,1144,2073,EAFB HURLBURT #1 #90308,NWFWMD,Well,30.4166558,-86.7021844,WGS84,805,550,
-86.900849671099,30.4324781587032,1145,2318,MIDWAY #2,NWFWMD,Well,30.4324781,-86.9008494,WGS84,1104,933,
-85.9093974742139,30.4435917629142,1146,2534,OLD COWFORD,NWFWMD,Well,30.4435917,-85.9093972,WGS84,196,60,
-86.8672502716477,30.447888958267,1147,2627,H-N #2,NWFWMD,Well,30.4478889,-86.86725,WGS84,966,765,
-86.171305873678,30.455972262153,1148,2738,SELMA MADARA / USGS WALTON #9,NWFWMD,Well,30.4559722,-86.1713056,WGS84,250,100,
-86.602501072567,30.4633008594403,1149,7209,OCWS-11 (FOREST),NWFWMD,Well,30.4633008,-86.6025008,NAD83,745,495,
-85.9618058740053,30.4759167629444,1150,8505,FREEPORT BRUCE MONITOR,NWFWMD,Well,30.4759167,-85.9618056,WGS84,372,167,
-86.3314916727896,30.4774172608436,1151,2962,FGS-LALONDE #1,NWFWMD,Well,30.4774172,-86.3314914,WGS84,319,290,
-86.1366113736737,30.4871472620491,1152,3101,USGS-FREEPORT #17 / USGS WALTON #17,NWFWMD,Well,30.4871472,-86.1366111,WGS84,187,,
-86.0408558738666,30.4974194623096,1153,9969,FREEPORT #7,NWFWMD,Well,30.4974194,-86.0408556,WGS84,610,310,
-86.2210933734293,30.51202816099,1154,8762,FREEPORT PORTLAND TEST,NWFWMD,Well,30.5120281,-86.2210931,WGS84,500,250,
-86.1312094737504,30.5154344621819,1155,3293,J.M. THOMPSON,NWFWMD,Well,30.5154344,-86.1312092,WGS84,207,62,
-85.9094391745148,30.5328222623379,1156,9413,RU CHOCTAWHATCHEE R. FLD MONITOR,NWFWMD,Well,30.5328222,-85.9094389,WGS84,560,420,
-86.4640563729608,30.5341831598891,1157,3432,NICEVILLE #10/COLLEGE BLVD@GRACIE LN.,NWFWMD,Well,30.5341831,-86.4640561,NAD83,600,350,
-85.9683219748317,30.5373983624354,1158,8643,FAF #72A,NWFWMD,Well,30.5373983,-85.9683217,WGS84,,,
-85.9387216752237,30.5389278624146,1159,3502,FAF #79,NWFWMD,Well,30.5389278,-85.9387214,WGS84,441,198,
-86.1134224744616,30.5434428617797,1160,3540,FREEPORT HIGH #1/OWL'S HEAD #5/FAF #8,NWFWMD,Well,30.5434428,-86.1134222,WGS84,500,210,
-85.9993599748868,30.5476156621672,1161,3588,FAF #65/AKA USGS 40,NWFWMD,Well,30.5476156,-85.9993597,WGS84,498,224,
-86.0298030748393,30.5630872618382,1162,3718,SWU-FAF #47 MONITOR/S655,NWFWMD,Well,30.5630872,-86.0298028,WGS84,440,234,
-85.9584677748721,30.5727578621179,1163,3780,FAF #98,NWFWMD,Well,30.5727578,-85.9584675,WGS84,440,197,
-85.9343185753664,30.5815094624216,1164,3877,REDBAY TOWER/AKA USGS 43,NWFWMD,Well,30.5815094,-85.9343183,WGS84,251,,
-85.9915352749236,30.5840694622405,1165,3921,FAF #93,NWFWMD,Well,30.5840694,-85.991535,WGS84,440,202,
-84.6569446789683,30.6058333679571,1166,4102,GRETNA ELEMENTARY,NWFWMD,Well,30.6058333,-84.6569444,WGS84,467,318,
-86.1122474750296,30.608019461633,1167,7250,RU MONITOR/ROCK HILL APT PROD./DEEP,NWFWMD,Well,30.6080194,-86.1122472,NAD83,710,284,
-85.9726624753716,30.6341803623004,1168,4285,VALLEY VIEW SCHOOL,NWFWMD,Well,30.6341803,-85.9726622,WGS84,147,100,
-86.236308574074,30.6574056610561,1169,4490,EAFB SITE C-62,NWFWMD,Well,30.6574056,-86.2363083,WGS84,620,354,
-85.9362919758394,30.6624444620311,1170,8907,PLEASANT VALLEY CHURCH,NWFWMD,Well,30.6624444,-85.9362917,WGS84,270,100,
-86.6205791734396,30.735993358951,1171,4791,OCWS-MC #1 (ANTIOCH),NWFWMD,Well,30.7359933,-86.6205789,NAD83,740,401,
-86.5608566745039,30.7553036588384,1172,4855,CRESTVIEW #4,NWFWMD,Well,30.7553036,-86.5608564,WGS84,643,423,
-86.4214438745309,30.7804942593376,1173,8353,OCWS-DORCAS MONITOR,NWFWMD,Well,30.7804942,-86.4214436,WGS84,300,248,
-86.5257288743533,30.7813900587822,1174,4997,OCWS-MC #3 (INDUSTRIAL PARK),NWFWMD,Well,30.78139,-86.5257286,NAD83,603,392,
-86.5259394748639,30.8432850588684,1175,5236,AUBURN #2,NWFWMD,Well,30.843285,-86.5259392,WGS84,500,350,
-85.0724085791435,30.9133750650296,1176,12336,STURGEON AQUAFARM -  MO #1,NWFWMD,Well,30.913375,-85.0724083,WGS84,75,63,
-86.5408338756076,30.9251500583416,1177,5499,W.D. FLOURNOY,NWFWMD,Well,30.92515,-86.5408336,WGS84,500,400,
-86.8410002744119,30.9384444565656,1178,12335,CAMP PAQUETTE OIL&GAS,NWFWMD,Well,30.9384444,-86.841,NAD83,470,440,
-84.934952277307,30.47326106752,1179,2912,ST JOE PAPER TOWER,NWFWMD,Well,30.473261,-84.934952,WGS84,350,282,
-80.4685932666368,25.9099531022026,1180,DF-4,DF-4,SFWMD,Well,25.909953,-80.468593,,,1140,
-81.3725602740767,27.9768690904203,1181,POF-27U,POF-27U,SFWMD,Well,27.976869,-81.37256,,,275,
-80.489674273678,27.3377660966168,1182,SLF-76,SLF-76,SFWMD,Well,27.337766,-80.489674,,,790,
-82.3706973929198,28.4436992939308,1183,18289,WEEKI 11 DEEP,SWFWMD,Well,28.443694,-82.370694,,69,68,
-82.3281422571593,28.1170052119785,1184,18550,MORRIS BRIDGE 3A FLDN,SWFWMD,Well,28.117,-82.32813889,,600,100,
-82.4506144052423,28.1277272158655,1185,18814,DEBUEL ROAD DEEP,SWFWMD,Well,28.127722,-82.450611,,300,118,
-82.2787533613681,28.2876442584985,1186,18877,SR 577 DEEP,SWFWMD,Well,28.287639,-82.27875,,150,57,
-82.5842814477439,28.2478662412463,1187,20386,STARKEY S-63 FLDN,SWFWMD,Well,28.247861,-82.584278,,130,80,
-82.4138674194504,28.8565833906451,1188,21012,ROMP 113 U FLDN AQ MONITOR REPL,SWFWMD,Well,28.856578,-82.413864,,180,130,
-82.7127254822271,28.1518942152932,1189,22768,TARPON ROAD DEEP,SWFWMD,Well,28.151889,-82.712722,,305,205,
-82.5752814448271,28.2390882396272,1190,22866,STARKEY S-68 FLDN,SWFWMD,Well,28.239083,-82.575278,,118,81,
-82.5416107244026,29.0825480235728,1191,22974,T & J RANCH U FLDN,SWFWMD,Well,29.08254258,-82.54160726,,115,,
-82.3929573096412,28.9357680329286,1192,23439,CAMP MINING FLDN,SWFWMD,Well,28.93576262,-82.39295389,,91,,
-82.4217311531898,27.3274994696322,1193,25682,SARASOTA 9 DEEP,SWFWMD,Well,27.32749445,-82.42172778,,730,101,
-82.7223705438092,29.820097609282,1194,Alexander,Alexander,ACEPD,Well,29.820092,-82.722367,WGS84,,,
-82.6299535132243,29.7047455855675,1195,Baker,Baker,ACEPD,Well,29.70474,-82.62995,WGS84,80,65,
-82.4676334634624,29.6551055787432,1196,Barnes,Barnes,ACEPD,Well,29.6551,-82.46763,WGS84,125,84,
-82.4177834452811,29.5552855559622,1197,Bird,Bird,ACEPD,Well,29.55528,-82.41778,NAD27,105,57,
-82.6830535331398,29.8299556133201,1198,Blue Springs,Blue Springs,ACEPD,Well,29.82995,-82.68305,WGS84,,,
-82.2384333980263,29.672175588599,1199,Bush,Bush,ACEPD,Well,29.67217,-82.23843,WGS84,80,60,
-82.5854035050809,29.8500956208528,1200,River Ranch Well,River Ranch Well,ACEPD,Well,29.85009,-82.5854,WGS84,,,
-82.4124534481054,29.6639655817208,1201,Cauthen,Cauthen,ACEPD,Well,29.66396,-82.41245,WGS84,170,63,
-82.2562834035162,29.6785055901655,1202,Church of God by Faith,Church of God by Faith,ACEPD,Well,29.6785,-82.25628,WGS84,135,67,
-82.169463382622,29.7906356187283,1203,City of Waldo,City of Waldo,ACEPD,Well,29.79063,-82.16946,WGS84,255,175,
-82.243973399901,29.677695589573,1204,Copeland Park,Copeland Park,ACEPD,Well,29.67769,-82.24397,WGS84,106,73,
-82.2558733968781,29.490765545432,1205,Crapo,Crapo,ACEPD,Well,29.49076,-82.25587,WGS84,145,105,
-82.4731434664873,29.6872455855922,1206,Debolt,Debolt,ACEPD,Well,29.68724,-82.47314,WGS84,172,84,
-82.2692934048242,29.6079455724585,1207,Dept. of Corrections Pride Nursery (G-4),Dept. of Corrections Pride Nursery (G-4),ACEPD,Well,29.60794,-82.26929,WGS84,295,198,
-82.2640934077799,29.7310656017786,1208,DOT FL-11,DOT FL-11,ACEPD,Well,29.73106,-82.26409,WGS84,,,
-82.2638034076851,29.7334756026164,1209,DOT FL-12,DOT FL-12,ACEPD,Well,29.73347,-82.2638,WGS84,,,
-82.2580334056906,29.7239556008586,1210,DOT FL-13,DOT FL-13,ACEPD,Well,29.72395,-82.25803,WGS84,,,
-82.2725234097208,29.7246656000558,1211,DOT FL-15,DOT FL-15,ACEPD,Well,29.72466,-82.27252,WGS84,,,
-82.2654334083026,29.7265756010179,1212,DOT FL-2,DOT FL-2,ACEPD,Well,29.72657,-82.26543,WGS84,,,
-82.2827334119086,29.7045655955717,1213,DOT FL-30,DOT FL-30,ACEPD,Well,29.70456,-82.28273,WGS84,205,,
-82.2863634133849,29.7099955963475,1214,DOT FL-32,DOT FL-32,ACEPD,Well,29.70999,-82.28636,WGS84,208,,
-82.268263408429,29.7220856001448,1215,DOT FL-34,DOT FL-34,ACEPD,Well,29.72208,-82.26826,WGS84,,,
-82.2575234054981,29.7300656016727,1216,DOT FL-66,DOT FL-66,ACEPD,Well,29.73006,-82.25752,WGS84,,,
-82.2891734144402,29.7068355953726,1217,DOT FL-74,DOT FL-74,ACEPD,Well,29.70683,-82.28917,WGS84,212,,
-82.2693634086683,29.7267656007224,1218,DOT FL-8,DOT FL-8,ACEPD,Well,29.72676,-82.26936,WGS84,,,
-82.3571604360384,29.7578796060086,1219,Farmers and Dealers Bank (G-20),Farmers and Dealers Bank (G-20),ACEPD,Well,29.757874,-82.357157,WGS84,200,150,
-82.3544834336672,29.7114655947972,1220,FHP Station,FHP Station,ACEPD,Well,29.71146,-82.35448,WGS84,,,
-82.4241234504904,29.6315555736116,1221,Freewill Baptist Church,Freewill Baptist Church,ACEPD,Well,29.63155,-82.42412,WGS84,70,63,
-82.4078334494369,29.7395655998215,1222,Fuller (Gorman),Fuller (Gorman),ACEPD,Well,29.73956,-82.40783,WGS84,220,180,
-82.2750284123703,29.7579696080384,1223,GAINESVILLE RACEWAY STANDS (G-15),GAINESVILLE RACEWAY STANDS (G-15),ACEPD,Well,29.757964,-82.275025,WGS84,250,180,
-82.4305634489542,29.5280655499442,1224,Gam,Gam,ACEPD,Well,29.52806,-82.43056,NAD27,87,64,
-82.7391045471726,29.7779995996688,1225,Gilchrist NE Recycling,Gilchrist NE Recycling,ACEPD,Well,29.777994,-82.739101,WGS84,,,
-82.7002835383166,29.8362156143736,1226,Ginnie Springs,Ginnie Springs,ACEPD,Well,29.83621,-82.70028,WGS84,,,
-82.2527434040042,29.7267756010497,1227,Grimes,Grimes,ACEPD,Well,29.72677,-82.25274,WGS84,210,170,
-82.5620234915339,29.6626955774581,1228,Hines,Hines,ACEPD,Well,29.66269,-82.56202,WGS84,90,,
-82.5933535078672,29.8500256206084,1229,Hornsby Springs,Hornsby Springs,ACEPD,Well,29.85002,-82.59335,WGS84,,,
-82.2971334161272,29.6900255915467,1230,Ironwood Golf Course (G-10),Ironwood Golf Course (G-10),ACEPD,Well,29.69002,-82.29713,WGS84,,,
-82.5324344912317,29.8819406296643,1231,Joan Pocklington,Joan Pocklington,ACEPD,Well,29.881935,-82.532431,WGS84,180,145,
-82.6489635145728,29.5938655585526,1232,Jones,Jones,ACEPD,Well,29.59386,-82.64896,WGS84,70,55,
-82.4223034497872,29.640925576173,1233,Kanapaha 2S,Kanapaha 2S,ACEPD,Well,29.64092,-82.4223,WGS84,,,
-82.4223034497872,29.640925576173,1234,Kanapaha 4S (G-29),Kanapaha 4S (G-29),ACEPD,Well,29.64092,-82.4223,WGS84,,,
-82.3222044219177,29.6463765804134,1235,KELLY WELL #3 (G-32),KELLY WELL #3 (G-32),ACEPD,Well,29.646371,-82.322201,WGS84,,,
-82.4052834540141,29.8775056318609,1236,Lee,Lee,ACEPD,Well,29.8775,-82.40528,NAD27,95,62,
-82.3136974202136,29.6680705858256,1237,McGurn,McGurn,ACEPD,Well,29.668065,-82.313694,WGS84,420,190,
-82.5087734811879,29.8010356109113,1238,Mill Creek Sink,Mill Creek Sink,ACEPD,Well,29.80103,-82.50877,WGS84,,,
-82.5713234953485,29.7034855864078,1239,Mitchell,Mitchell,ACEPD,Well,29.70348,-82.57132,WGS84,,,
-82.3023534209908,29.7744656111538,1240,MW 1-F,MW 1-F,ACEPD,Well,29.77446,-82.30235,WGS84,192,150,
-82.3023534209908,29.7744656111538,1241,MW 1-H,MW 1-H,ACEPD,Well,29.77446,-82.30235,WGS84,86,,
-82.315433423199,29.7484356043448,1242,MW 2-S,MW 2-S,ACEPD,Well,29.74843,-82.31543,WGS84,,,
-82.313823422002,29.7287755995815,1243,MW 3-F,MW 3-F,ACEPD,Well,29.72877,-82.31382,WGS84,210,,
-82.313823422002,29.7287755995815,1244,MW 3-H-1,MW 3-H-1,ACEPD,Well,29.72877,-82.31382,WGS84,,,
-82.313823422002,29.7287755995815,1245,MW 3-S,MW 3-S,ACEPD,Well,29.72877,-82.31382,WGS84,,,
-82.3059834194013,29.7114055964892,1246,MW 4-H-1,MW 4-H-1,ACEPD,Well,29.7114,-82.30598,WGS84,29,24,
-82.3059834194013,29.7114055964892,1247,MW 4-H-2,MW 4-H-2,ACEPD,Well,29.7114,-82.30598,WGS84,68,63,
-82.3059834194013,29.7114055964892,1248,MW 4-H-3,MW 4-H-3,ACEPD,Well,29.7114,-82.30598,WGS84,116,111,
-82.3059834194013,29.7114055964892,1249,MW 4-S,MW 4-S,ACEPD,Well,29.7114,-82.30598,WGS84,15,5,
-82.1497233718263,29.6619455890563,1250,MW 5-F,MW 5-F,ACEPD,Well,29.66194,-82.14972,WGS84,191,,
-82.1497233718263,29.6619455890563,1251,MW 5-H,MW 5-H,ACEPD,Well,29.66194,-82.14972,WGS84,85,67,
-82.3390034290637,29.7300055996849,1252,MW 6-F,MW 6-F,ACEPD,Well,29.73,-82.339,WGS84,,,
-82.3390034290637,29.7300055996849,1253,MW 6-H-1,MW 6-H-1,ACEPD,Well,29.73,-82.339,WGS84,,,
-82.3390034290637,29.7300055996849,1254,MW 6-S,MW 6-S,ACEPD,Well,29.73,-82.339,WGS84,,,
-82.2576334060713,29.7233955999808,1255,MW FL-13,MW FL-13,ACEPD,Well,29.72339,-82.25763,WGS84,,,
-82.2576334060713,29.7233955999808,1256,MW H1-13,MW H1-13,ACEPD,Well,29.72339,-82.25763,WGS84,,,
-82.2576334060713,29.7233955999808,1257,MW S13,MW S13,ACEPD,Well,29.72339,-82.25763,WGS84,,,
-82.2434834014846,29.7152055991678,1258,NE-2D,NE-2D,ACEPD,Well,29.7152,-82.24348,WGS84,260,250,
-82.2434834014846,29.7152055991678,1259,NE-2I,NE-2I,ACEPD,Well,29.7152,-82.24348,WGS84,118,108,
-82.2477834022109,29.7141755986295,1260,NE-3D,NE-3D,ACEPD,Well,29.71417,-82.24778,WGS84,260,250,
-82.2852334143613,29.7379256027443,1261,Newman,Newman,ACEPD,Well,29.73792,-82.28523,WGS84,200,180,
-82.332197424725,29.6596315828442,1262,Newsome,Newsome,ACEPD,Well,29.659626,-82.332194,WGS84,203,130,
-82.4459234574469,29.6397155755021,1263,Plank,Plank,ACEPD,Well,29.63971,-82.44592,WGS84,85,66,
-82.6488535223545,29.825665613026,1264,Poe Springs (Spring Pool),Poe Springs (Spring Pool),ACEPD,Well,29.82566,-82.64885,WGS84,,,
-82.653493523728,29.8259096132606,1265,Poe Springs Lodge,Poe Springs Lodge,ACEPD,Well,29.825904,-82.65349,WGS84,,,
-82.0985633610296,29.7589856128959,1266,Pope,Pope,ACEPD,Well,29.75898,-82.09856,WGS84,220,180,
-82.6972565349409,29.7705395990568,1267,Pratt,Pratt,ACEPD,Well,29.770534,-82.697253,WGS84,,,
-82.5472834921408,29.7960256089258,1268,PUGH,PUGH,ACEPD,Well,29.79602,-82.54728,WGS84,80,63,
-82.6245435148895,29.7937256059349,1269,PW-1 (HS),PW-1 (HS),ACEPD,Well,29.79372,-82.62454,WGS84,,,
-82.6743435298732,29.8057756073894,1270,PW-2 (LN),PW-2 (LN),ACEPD,Well,29.80577,-82.67434,WGS84,120,65,
-82.7408335484874,29.808665605954,1271,PW-3 (GN),PW-3 (GN),ACEPD,Well,29.80866,-82.74083,WGS84,100,,
-82.674233526937,29.7386555921513,1272,PW-4 (LS),PW-4 (LS),ACEPD,Well,29.73865,-82.67423,WGS84,130,,
-82.6152565098901,29.7422435947661,1273,PW-5 (BS),PW-5 (BS),ACEPD,Well,29.742238,-82.615253,WGS84,27,,
-82.6409435154725,29.7010715842156,1274,PW-6 (BC),PW-6 (BC),ACEPD,Well,29.701066,-82.64094,WGS84,4,,
-82.6890835270853,29.6377955681246,1275,PW-7 (GS),PW-7 (GS),ACEPD,Well,29.63779,-82.68908,WGS84,80,,
-82.6028635037707,29.6744155787082,1276,PW-8 (SR),PW-8 (SR),ACEPD,Well,29.67441,-82.60286,WGS84,131,,
-82.4697234634008,29.6369455741011,1277,Rosies Farm,Rosies Farm,ACEPD,Well,29.63694,-82.46972,WGS84,125,75,
-82.3475934324588,29.7474956038368,1278,Sauls,Sauls,ACEPD,Well,29.74749,-82.34759,WGS84,168,107,
-82.1862923829084,29.680211592546,1279,STRAGHN,STRAGHN,ACEPD,Well,29.680206,-82.186289,WGS84,,,
-82.5322634925642,29.9239056391995,1280,Torgerson,Torgerson,ACEPD,Well,29.9239,-82.53226,WGS84,70,48,
-82.5649934911814,29.6251155688499,1281,Truluck,Truluck,ACEPD,Well,29.62511,-82.56499,WGS84,90,71,
-82.2653234082999,29.744215604974,1282,UF Agronomy,UF Agronomy,ACEPD,Well,29.74421,-82.26532,WGS84,200,150,
-82.3637134335409,29.6355555769617,1283,UF Lake Alice MW-3D,UF Lake Alice MW-3D,ACEPD,Well,29.63555,-82.36371,WGS84,,,
-82.3109534240187,29.7960556156118,1284,Waters,Waters,ACEPD,Well,29.79605,-82.31095,WGS84,140,,
-82.7668585597494,29.8962466257876,1285,Weiss,Weiss,ACEPD,Well,29.896241,-82.766855,WGS84,,,
-82.3948334444764,29.7097855928918,1286,WUFT,WUFT,ACEPD,Well,29.70978,-82.39483,WGS84,,,
-82.4242634562464,29.7711156067946,1287,Milton Baker,Milton Baker,ACEPD,Well,29.77111,-82.42426,WGS84,,,
-82.159833368465,29.4802755462559,1288,MK Rawlings,MK Rawlings,ACEPD,Well,29.48027,-82.15983,WGS84,23,13,
-85.8570905808302,30.3308100434789,1289,1093,J.H.Rawls,NWFWMD,Well,30.3308,-85.8571,,,,
-82.3301200092951,27.3389828074857,1290,25734,VERNA TEST 0-4,SWFWMD,Well,27.33897778,-82.33011666,,500,140,
-82.2436755442913,27.3501689238645,1291,25583,VERNA TEST 0-2,SWFWMD,Well,27.35016389,-82.24367222,,530,140,
-82.2711699987149,27.4014494896967,1292,26160,VERNA TEST 0-1,SWFWMD,Well,27.40144445,-82.27116667,,480,140,
-81.9288921636776,28.7503359343388,1293,785821,ROMP 111.5 U FLDN AQ MONITOR,SWFWMD,Well,28.75033056,-81.92888889,,390,100,
-82.483400617237,27.4973300622235,1294,830415,BENNETT PARK U FLDN AQ MONITOR,SWFWMD,Well,27.497325,-82.48339722,,1095,889,
-82.4363367171462,27.5815023064545,1295,833271,ROMP 38 U FLDN AQ (SWNN) MONITOR,SWFWMD,Well,27.58149722,-82.43633333,,640,425,
-84.4032665411231,30.1875000444912,1296,635,USGS-ARRAN WORK CENTER/NITRATE POT.,NWFWMD,Well,30.1874944,-84.4032625,,129,75,
-84.6155610072295,30.3088120655731,1297,965,NWFWMD-OTTER CAMP FLORIDAN,NWFWMD,Well,30.3088064,-84.6155569,,255,218,
-84.4636523724205,30.5184771179028,1298,3340,NWFWMD-HQ FLORIDAN OBS,NWFWMD,Well,30.5184714,-84.4636483,,356,232,
-84.6886624369255,30.5228701126664,1299,3375,MARCUS EDWARDS,NWFWMD,Well,30.5228644,-84.6886583,,432,,
-84.5985288119362,30.5558421223372,1300,3653,BUCK REGISTER,NWFWMD,Well,30.5558364,-84.5985247,,396,273,
-84.7466402554347,30.5714035212383,1301,3785,GREENSBORO #3,NWFWMD,Well,30.5713978,-84.7466361,,420,264,
-85.9178538782681,30.3587462367813,1302,5976,BAY COUNTY STEELFIELD LF OFFICE (IW#1),NWFWMD,Well,30.3587406,-85.9178494,,272,168,
-82.0859249510975,26.5217498319285,1303,L-2525,L-2525,SFWMD,Well,26.521745,-82.0859217,,645,405,
-82.0819472474332,26.4286158095929,1304,L-588,L-588,SFWMD,Well,26.428611,-82.081944,,557,403,
-82.0553715453301,26.649796264298,1305,L-6433,LM-3353 SITE M,SFWMD,Well,26.6497914,-82.0553683,,645,488,
-81.645906180684,28.3675108943829,1306,ORF-19,LAKE OLIVER DEEP WELL NR VINELAND,SFWMD,Well,28.3675056,-81.645903,,318,103,
-81.5070159440095,28.4777859242457,1307,ORF-32,82813001 PALM LAKE DRIVE NEAR WINDERMERE,SFWMD,Well,28.4777806,-81.5070128,,235,161,
-81.0453440026473,28.2752942874153,1308,OS0052,TH-9 NOVA ROAD 532 WEST OSF-93,SFWMD,Well,28.2752886,-81.0453408,,405,288,
-81.4500753157677,28.1516877472702,1309,OSF-11,REEDY CR OVERLOOK WELL-SR531,SFWMD,Well,28.1516825,-81.4500722,,398,134,
-81.2345155562299,28.2455735751871,1310,OSF-12,OS-250 @ LIVE OAK LAKE,SFWMD,Well,28.2455683,-81.2345125,,400,,
-81.4845198294429,28.2416849676581,1311,OSF-14,OS-254 81412901,SFWMD,Well,28.2416797,-81.4845167,,328,110,
-81.1581205357936,28.2875141879082,1312,OSF-22,81710901USGS OB WELL NR LAKE JOEL W. NR,SFWMD,Well,28.2875089,-81.1581175,,750,394,
-81.2220111428189,27.9361366005064,1313,OSF-4,JOE OVERSTREET WELL,SFWMD,Well,27.9361314,-81.2220081,,400,287.83,
-80.8961637407859,27.6967387505034,1314,OSF-60,OSF-60 YEEHAW JUNCTION - DEEP WELL,SFWMD,Well,27.6967336,-80.8961608,,590,328,
-81.435074515962,28.2666841755763,1315,OSF-8,SHINGLE CREEK AT STATE HWY 531A,SFWMD,Well,28.2666789,-81.4350714,,200,,
-81.0511737946677,27.9814135162349,1316,OSF-84,TH-10 RD TO RT OFF WILLIAMS RD,SFWMD,Well,27.9814083,-81.0511708,,405,242,
-80.9858976855443,28.2752935890373,1317,OSF-92,816059    25S33E26 TH-3   LAKE POINSETT SW,SFWMD,Well,28.2752883,-80.9858947,,377,245,
-82.2472123979337,29.6092995738059,1318,A-0973,Bill Holblack,SJRWMD,Well,29.609294,-82.247209,,131,81,
-81.6951972517261,29.9881996783979,1319,C-0672,Green Cove Spg ,SJRWMD,Well,29.988194,-81.695194,,480,428,
-81.310003122018,29.5036165751484,1320,F-0395,Espanola Pk,SJRWMD,Well,29.503611,-81.31,,183,133,
-81.4585582070811,30.617170832249,1321,N-0344,Fernandina Bch AP,SJRWMD,Well,30.617165,-81.458555,,638,542,
-81.2426310884184,29.1286424880338,1322,V-1243,Clark Bay,SJRWMD,Well,29.128637,-81.242628,,97,73,
-81.2275708563861,28.2889052858515,1323,OSF-31,SOUTH EAGLE ROAD GROVE WELL,SFWMD,Well,28.2889,-81.2275678,,474,245,
-81.1653463423986,28.4258440212334,1324,282531081096000,"COCOA D WELL NEAR NARCOOSSEE, FL",USGS,Well,28.4258387,-81.1653433,NAD83,300,,
-81.1320121323292,28.4258439220825,1325,282532081076000,"COCOA B WELL NEAR BITHLO, FL",USGS,Well,28.4258386,-81.1320091,NAD83,515,,
-81.2603487703898,28.4433439230269,1326,282623081154000,"COCOA P WELL NEAR TAFT, FL",USGS,Well,28.4433386,-81.2603457,NAD83,439,,
-84.4915743641288,30.1279853286827,1327,300740084293000,"USGS WELL(BENCHMARK)NR CRAWFORDVILLE,FLA.",USGS,Well,30.1279797,-84.4915703,NAD83,127,,
-81.8737204199815,30.4046879702825,1328,302416081523000,"D-348 MONTICELLO DRUG CO. WELL AT JACKSONVILLE, FL",USGS,Well,30.4046822,-81.8737171,NAD83,708,,
-81.5195436318481,30.7991304434281,1329,304756081311101,304756081311101,USGS,Well,30.79912457,-81.5195404,NAD83,1306,990,
-84.3366508328857,30.4006122221869,1330,1780,FSU RESERVATION,NWFWMD,Well,30.40060653,-84.3366468,,,,
-86.5857444439318,30.3959638885587,1331,1696,OCWS ISL-1 (MONITOR),NWFWMD,Well,30.39595826,-86.58573978,,,,
-84.2988083331413,30.4458027775795,1332,2549,USGS 152 / BEHIND FGS BUILDING,NWFWMD,Well,30.44579707,-84.29880431,,,,
-86.5838449592224,30.7110893058507,1333,7171,CRESTVIEW #6,NWFWMD,Well,30.71108361,-86.58384028,,,,
-86.4619166663811,30.4048888896706,1334,9137,DWU-4048 INDIAN RIVER TRAIL MO#1,NWFWMD,Well,30.40488326,-86.46191203,,,,
-86.1555952784603,30.7361752783009,1335,9595,JEMCO WELL,NWFWMD,Well,30.73616956,-86.15559072,,,,
-84.6063586107231,29.9437263897225,1336,9442,NWFWMD JEFF SANDERS RD. TH-4,NWFWMD,Well,29.94372081,-84.60635452,,,,
-84.3129883325088,30.2463808325366,1337,7494,NWFWMD-NITRATE #3,NWFWMD,Well,30.24637517,-84.31298431,,,,
-86.4550602783929,30.7068166669203,1338,8758,CRESTVIEW EAST REMOTE,NWFWMD,Well,30.70681097,-86.45505563,,,,
-85.1094166662575,30.9843055559888,1339,5718,DITTY JC-1 (JK-28),NWFWMD,Well,30.98429975,-85.10941239,,,,
-85.3041154186198,30.4194001132447,1340,9809,WOERNER - MO #1,NWFWMD,Well,30.41939444,-85.30411111,,,,
-86.6614213719955,30.7345334756384,1341,8759,CRESTVIEW WEST REMOTE,NWFWMD,Well,30.73452778,-86.66141667,,,,
-84.0848900611064,30.1912837118061,1342,650,GAME CHECK STATION,NWFWMD,Well,30.19127806,-84.08488611,,,,
-86.3969518367389,30.3956834079131,1343,7183,SWUC WEST MONITOR,NWFWMD,Well,30.39567778,-86.39694722,,,,
-87.2455328049622,30.5949215409862,1344,4006,MONSANTO #2/SHALLOW MONITOR,NWFWMD,Well,30.59491589,-87.24552794,,,,
-84.4958269441536,30.4392500002065,1345,12682,NWFWMD GW-2F-LZ (FT BRADEN)/S802,NWFWMD,Well,30.4392443,-84.49582287,,,,
-84.5131644436931,30.351134443857,1346,12683,NWFWMD GW-3F-LZ (ANF FR-305),NWFWMD,Well,30.35112877,-84.51316036,,,,
-84.00279666717,30.5298977786898,1347,12685,NWFWMD GW-5F (LEON CTY VFD)/S814,NWFWMD,Well,30.52989204,-84.00279273,,,,
-84.131409721841,30.5197622217026,1348,12686,NWFWMD GW-6F (MICC GREENWAY)/S816,NWFWMD,Well,30.51975649,-84.13140574,,,,
-84.0437100002582,30.6529919444079,1349,12687,NWFWMD GW-7F (LEON CR-59)/S818,NWFWMD,Well,30.65298618,-84.04370604,,,,
-84.077619721936,30.4136136113209,1350,12690,NWFWMD GW-4F-LZ (HWY27 DOT)/S812,NWFWMD,Well,30.4136079,-84.07761576,,,,
-84.3194394443763,30.2194827778419,1351,12691,NWFWMD GW-12F (RIVERSPRINGS MS)/S820,NWFWMD,Well,30.21947712,-84.31943543,,,,
-81.5513921289926,30.7350058567545,1352,304406081330505,304406081330505,USGS,Well,30.735,-81.55138889,,,,120FLRDL
-84.2143497157071,30.8765857072625,1353,305235084125101,305235084125101,USGS,Well,30.8765799,-84.2143457,,,,120FLRDU
-84.5960303284383,30.9618595649636,1354,305736084355801,305736084355801,USGS,Well,30.96185375,-84.5960262,,,,120FLRDU
-81.414197613246,31.0731170393883,1355,310418081244701,310418081244701,USGS,Well,31.0731111,-81.4141944,,,,120FLRDU
-81.4750751322315,28.4097344089407,1356,82412801R,82412801R,SFWMD,Well,28.4097291,-81.475072,,239,158,
-81.2656270619776,28.1308552471124,1357,CCR-W,CCR-W,SFWMD,Well,28.13085,-81.265624,,816,0,
-80.0633316675924,26.7047249242471,1358,PBF-2,PBF-2,SFWMD,Well,26.70472,-80.063329,,1090,946,
-81.2173060372758,27.8044741688772,1359,POF-5,POF-5,SFWMD,Well,27.804469,-81.217303,,300,185,
-80.7854338946116,27.2390600401289,1360,TCRK_GW1,TCRK_GW1,SFWMD,Well,27.239055,-80.785431,,1800,990,
-81.4766591352466,28.5008143307459,1361,TURLAK_GW2,TURLAK_GW2,SFWMD,Well,28.500809,-81.476656,,129,60,
-84.4000149998847,29.9447016666875,1362,7975,ALLIGATOR PT #9,NWFWMD,Well,29.94469608,-84.40001097,,,,
-85.6536127312626,30.225875058573,1363,9789,CITY OF LYNN HAVEN - LYNN HAVEN #6,NWFWMD,Well,30.22586944,-85.65360833,,,,
-86.4915363143496,30.5367048258137,1364,3482,NICEVILLE #4/S.R. 85@COLLEGE BLVD.,NWFWMD,Well,30.53669917,-86.49153167,,,,
-86.4658113063435,30.5146828767711,1365,3367,NICEVILLE #3/BAILY DR.@29TH ST.,NWFWMD,Well,30.51467722,-86.46580667,,,,
-86.6111005249558,30.7769123755316,1366,8023,OCWS-MC #5 (KENNEDY LAKES),NWFWMD,Well,30.77690667,-86.61109583,,,,
-86.6031368964707,30.4368614655295,1367,2404,OCWS-1 (OFFICE),NWFWMD,Well,30.43685583,-86.60313222,,,,
-85.5785777779843,30.6332611107258,1368,11977,WAUSAU #3,NWFWMD,Well,30.6332554,-85.57857338,,,,
-87.248615973279,30.5938945349867,1369,3998,MONSANTO #1/SHAL MON,NWFWMD,Well,303538,871455,,,,
-85.5146988332395,30.9538946723649,1370,5603,GRACEVILLE #3,NWFWMD,Well,305714,853052.9,,,,
-87.1105603792015,30.5702834241264,1371,3771,CYTEC/STERLING UPPER FLRD MONITOR,NWFWMD,Well,303413,870638,,,,
-86.6135682888289,30.4416609109465,1372,2506,OCWS-3 (NEWCASTLE),NWFWMD,Well,302629.959,863648.829,,,,
-86.6477677429703,30.4261009060408,1373,2236,OCWS-9 (NORTHGATE),NWFWMD,Well,302533.943,863851.947,,,,
-86.1288212109269,30.5075631633788,1374,8921,RU MONITOR/ELEMENTARY SCHOOL,NWFWMD,Well,303027.207,860743.74,,,,
-86.2221981753279,30.353237570422,1375,7687,NWFWMD-SEAGROVE SHALLOW FLORIDAN,NWFWMD,Well,302111.635,861319.897,,,,
-84.8849263826209,29.7312694150899,1376,7325,WMS MONITOR #1,NWFWMD,Well,294352.55,845305.72,,,,
-84.8873419393954,29.7516044197938,1377,9043,WMS MONITOR #2,NWFWMD,Well,294505.756,845314.416,,,,
-83.6626641546091,30.7421475258302,1378,304446083400401,16D006,USGS,Well,307421.42,836626.6,,,,120FLRD
-84.1800206676293,30.7489224462487,1379,12D039,12D039,USGS,Well,307489.17,841800.17,,,,
-84.5559397913889,30.797527311952,1380,304750084332201,09E009,USGS,Well,307975.215,845559.387,,,,120FLRDU
-84.5748044296038,30.8729643862558,1381,305222084343001,09E005,USGS,Well,305221.97,843429.59,,,,120FLRDU
-84.2757234785778,30.8919252538454,1382,11F091,11F091,USGS,Well,308919.19,842757.19,,,,
-84.1138484369816,30.9953225044602,1383,13F035,13F035,USGS,Well,309953.16,841138.45,,,,
-84.3871348538109,31.0229700443963,1384,310117084231501,10G001,USGS,Well,310229.644,843871.307,,,,120FLRDU
-83.6893402376253,31.1024156064417,1385,310609083412401,16G019,USGS,Well,311024.1,836893.36,,,,120FLRDU
-83.5507249151339,31.2063040239894,1386,311220083330201,17H027,USGS,Well,312062.98,835507.21,,,,120FLRD
-81.7305646637822,26.1703897961891,1387,I75-MZ1,SFWMD Tri-Zone FAS well - Naples,SFWMD,Well,26.1703897,-81.7305644,,2350,2300,
-81.8092519650728,26.5209108949424,1388,L-5641,L-5641 ,SFWMD,Well,26.5209108,-81.8092517,,1410,950,
-81.6023024675015,26.7422881940944,1389,L-5708,L-5708 ,SFWMD,Well,26.7422881,-81.6023022,,920,620,
-81.4386794732134,27.8130800914035,1390,POF-8,74812601 OBSER W. at L. Weohyakapka,SFWMD,Well,27.81308,-81.4386792,,197,149,
-81.9100002806385,29.5027780831814,1391,M-0793,Hog Valley Boat Ramp,SJRWMD,Well,29.502778,-81.91,,162,125,
-81.8652782802475,29.5133330832476,1392,M-0794,Hog Valley East,SJRWMD,Well,29.513333,-81.865278,,52,50,
-81.7344722864366,30.6098890806547,1393,N-0341,Four Ck SF,SJRWMD,Well,30.609889,-81.734472,,538,438,
-81.8769442801604,29.5247220834677,1394,P-0316,Hog Valley - Kenwood,SJRWMD,Well,29.524722,-81.876944,,190,170,
-81.1183642784373,28.8308880886491,1395,V-1172,Hickory Bluff,SJRWMD,Well,28.830888,-81.118364,,118,62,
-82.1680593771291,29.652227586859,1396,A-0977,Windsor,SJRWMD,Well,29.652222,-82.168056,,,,
-82.4541704837858,30.2838947267083,1397,BA0007,USGS - ONF 7A,SJRWMD,Well,30.283889,-82.454167,,208,178,
-82.3307814525066,30.3811727522336,1398,BA0018,ONF #6,SJRWMD,Well,30.381167,-82.330778,,338,320,
-82.3944434666304,30.2763947258853,1399,BA0024,USGS - ONF 8A,SJRWMD,Well,30.276389,-82.394444,,238,213,
-81.1619470793466,29.5080615809696,1400,F-0064,Graham Swamp,SJRWMD,Well,29.508056,-81.161944,,290,140,
-81.9906223081688,29.1847694810834,1401,M-0762,Sharpes Ferry,SJRWMD,Well,29.184764,-81.990619,,173,118,
-81.1959730535499,28.502135339394,1402,OR0678,Alafaya Trl WTP,SJRWMD,Well,28.50213,-81.19597,,470,425,
-82.6157325062686,29.6464395729534,1403,Abrams,Abrams,ACEPD,Well,29.646434,-82.615729,WGS84,,,
-81.5703501613443,28.460841319557,1404,82713405,82713405,SFWMD,Well,28.460836,-81.570347,,178,103,Same well as 790304
-81.0547850006688,28.1408522557582,1405,HOLOPAW1,HOLOPAW1,SFWMD,Well,28.140847,-81.054782,,1100,,
-81.3852531065367,28.4445053201321,1406,SKYLAKE,SKYLAKE,SFWMD,Well,28.4445,-81.38525,,400,100,
-81.5689609401131,28.4247314104236,1407,ORF-18,BAY LAKE DEEP WELL,SFWMD,Well,28.4247261,-81.56895778,,223,104,
-81.3141697387626,26.9250632502352,1408,GL-267,GL-267,SFWMD,Well,26.9250583,-81.3141667,,600,450,
-83.5176591072238,30.6760404837297,1409,304033083310401,17D007,USGS,Well,30.6760347,-83.5176553,NAD83,180,,120FLRDU
-84.6732543413349,30.7485303043178,1410,304454084402401,08D090,USGS,Well,30.74852454,-84.6732502,NAD83,340,,120FLRDU
-83.9798958467939,30.8329762453941,1411,304959083584801,14E031,USGS,Well,30.83297044,-83.9798919,NAD83,405,,120FLRDU
-81.5774754609882,31.0696809338306,1412,310410081343801,33G050,USGS,Well,31.069675,-81.5774722,NAD83,650,,120FLRDU
-83.8212871112968,31.0788040556203,1413,310443083491701,15G010,USGS,Well,31.07879819,-83.8212832,NAD83,431,,120FLRDU
-84.4393589796505,31.0854683973564,1414,310507084262201,10G313,USGS,Well,31.08546255,-84.43935489,NAD83,206,,120FLRDU
-84.6788107589665,31.1143561863538,1415,310651084404501,08G001,USGS,Well,31.11435034,-84.6788066,NAD83,225,,120FLRDU
-82.2654061636116,31.1185619640058,1416,310706082155101,27G003,USGS,Well,31.11855604,-82.2654027,NAD83,1856,,120FLRD
-81.490936837679,31.1363479112997,1417,310810081292801,34H504,USGS,Well,31.13634196,-81.4909336,NAD83,759,,120FLRDU
-81.490936837679,31.1363479112997,1418,310810081292802,34H505,USGS,Well,31.13634196,-81.4909336,NAD83,1000,,120FLRDU
-83.4340533021189,31.1371413415252,1419,310813083260301,18H016,USGS,Well,31.13713545,-83.4340495,NAD83,865,,120FLRDU
-81.4933813391686,31.1385978521699,1420,310818081293701,34H371,USGS,Well,31.1385919,-81.4933781,NAD83,700,,120FLRDU
-81.4947703296492,31.1395978121234,1421,310818081294201,34H391,USGS,Well,31.13959186,-81.49476709,NAD83,1158,,120FLRDL
-81.4785199349987,31.1505422252204,1422,310901081284401,34H436,USGS,Well,31.15053627,-81.4785167,NAD83,1103,,120FLRDL
-81.5226048483171,31.1571805455229,1423,310925081312201,33H206,USGS,Well,31.15717459,-81.5226016,NAD83,1100,,120FLRDL
-81.5226048483171,31.1571805455229,1424,310925081312202,33H207,USGS,Well,31.15717459,-81.5226016,NAD83,720,,120FLRDU
-81.4861143371429,31.1586170565669,1425,310931081291002,34H514,USGS,Well,31.1586111,-81.4861111,NAD83,685,,120FLRDU
-81.5044100237724,31.1687360584997,1426,311007081301701,33H127,USGS,Well,31.1687301,-81.50440678,NAD83,952,,120FLRDU
-81.5044100233887,31.1687971581979,1427,311007081301702,33H133,USGS,Well,31.1687912,-81.50440678,NAD83,790,,120FLRDU
-81.5127810456962,31.1727837392551,1428,311022081304601,33H324,USGS,Well,31.17277778,-81.5127778,NAD83,740,,120FLRDU
-81.5127810456962,31.1727837392551,1429,311022081304602,33H325,USGS,Well,31.17277778,-81.5127778,NAD83,1000,,120FLRDU
-81.4832810375119,31.174533740557,1430,311028081285902,34H552,USGS,Well,31.17452778,-81.4832778,NAD83,750,,120FLRDU
-81.4985310426389,31.1808948518603,1431,311051081295401,34H560,USGS,Well,31.18088889,-81.4985278,NAD83,724,,120FLRDU
-84.2151873305803,31.2243548859002,1432,311328084130701,12H008,USGS,Well,31.224349,-84.2151833,NAD83,341,,120FLRDU
-84.4985276029694,31.2335205388394,1433,311400084295502,10H009,USGS,Well,31.23351466,-84.49852349,NAD83,200,,120FLRDU
-81.351419901929,31.248839311504,1434,311456081210501,35H068,USGS,Well,31.24883333,-81.3514167,NAD83,1571,,120FLRDL
-81.3514754022658,31.2483948718103,1435,311456081210503,35H070,USGS,Well,31.24838889,-81.3514722,NAD83,780,,120FLRDU
-84.322968365821,31.3007414497107,1436,311802084192302,11J012,USGS,Well,31.30073555,-84.3229643,NAD83,225,,120FLRDU
-84.1157419084676,31.3582410193728,1437,312127084065801,13J004,USGS,Well,31.3582351,-84.1157379,NAD83,208,,120FLRDU
-84.6546431641098,31.377405505947,1438,312232084391701,08K001,USGS,Well,31.3773996,-84.654639,NAD83,125,,120FLRDU
-84.160465412035,31.3757402217101,1439,312253084100001,12K001,USGS,Well,31.3757343,-84.16046139,NAD83,270,,120FLRDU
-84.1850318319498,31.4382559348923,1440,312617084110701,12K014,USGS,Well,31.43825,-84.1850278,NAD83,137,,120FLRDU
-83.4923894136007,31.4535247607414,1441,312712082593301,18K049,USGS,Well,31.4535188,-83.49238558,NAD83,620,,120FLRDU
-84.4640827137757,31.4815701757828,1442,312853084275101,10K005,USGS,Well,31.48156424,-84.4640786,NAD83,138,,120FLRDU
-84.2583373551908,31.4873115034179,1443,312919084153801,11K003,USGS,Well,31.48730556,-84.2583333,NAD83,150,,120FLRDU
-84.1561151266036,31.4963670492165,1444,312947084092201,12K180,USGS,Well,31.4963611,-84.1561111,NAD83,170,,120FLRDU
-84.1674207296764,31.500144839426,1445,313000084100301,12L373,USGS,Well,31.50013889,-84.1674167,NAD83,170,,120FLRDU
-84.2091984416113,31.5116170506031,1446,313040084125901,12L277,USGS,Well,31.5116111,-84.2091944,NAD83,203,,120FLRDU
-83.8210131309946,31.5296300072144,1447,313146083491601,15L020,USGS,Well,31.52962404,-83.8210092,NAD83,450,,120FLRDU
-84.013797587323,31.5465708647295,1448,313247084005001,13L180,USGS,Well,31.5465649,-84.0137936,NAD83,310,,120FLRDU
-81.7265047243296,31.5480027187967,1449,313253081433501,32L005,USGS,Well,31.54799668,-81.7265014,NAD83,2070,,120FLRDL
-81.7265047243296,31.5480027187967,1450,313253081433502,32L015,USGS,Well,31.54799668,-81.7265014,NAD83,750,,120FLRDU
-84.086021310246,31.5893472319789,1451,313521084051001,13L049,USGS,Well,31.58934126,-84.0860173,NAD83,170,,120FLRDU
-81.9092848810724,31.6171640390074,1452,313701081543501,30L003,USGS,Well,31.61715799,-81.9092815,NAD83,594,,120FLRDU
-84.1599121330114,31.6357345702037,1453,313808084093601,12M017,USGS,Well,31.63572859,-84.1599081,NAD83,181,,120FLRDU
-81.2614914919725,31.6399479140278,1454,313823081154201,35M013,USGS,Well,31.63994184,-81.2614883,NAD83,553,,120FLRDU
-81.6009468921621,31.6485560052978,1455,313845081361701,33M004,USGS,Well,31.64854994,-81.6009436,NAD83,870,,120FLRDU
-84.0140750955065,31.7251790745431,1456,314330084005402,13M006,USGS,Well,31.72517307,-84.0140711,NAD83,123,,120FLRDU
-81.3978904320422,31.8707730021377,1457,315214081235301,34N089,USGS,Well,31.87076688,-81.39788719,NAD83,789,,120FLRDU
-81.3163921103142,31.9119505747284,1458,315443081185902,35P110,USGS,Well,31.91194444,-81.31638889,NAD83,441.25,,120FLRDU
-81.3162810200866,31.9120061345072,1459,315443081185903,35P125,USGS,Well,31.912,-81.3162778,NAD83,1095,,120FLRDL
-81.0198368357824,31.9852206607084,1460,315906081011202,37P114,USGS,Well,31.9852145,-81.0198337,NAD83,400,,120FLRDU
-81.213170593926,32.0060477086281,1461,320021081124801,36Q020,USGS,Well,32.00604155,-81.2131674,NAD83,336,,120FLRDU
-80.8503912873889,32.0229979244658,1462,320122080510204,39Q003,USGS,Well,32.02299175,-80.8503882,NAD83,600,,120FLRDU
-80.8531690890512,32.0243867146556,1463,320127080511201,39Q024,USGS,Well,32.02438054,-80.853166,NAD83,888,,120FLRDL
-80.8534468885832,32.0243867149839,1464,320127080511301,39Q027,USGS,Well,32.02438054,-80.8534438,NAD83,145,,120FLRDU
-83.8522261634187,32.0300060780193,1465,320139083511602,15Q016,USGS,Well,32.03,-83.8522222,NAD83,170,,120FLRDU
-80.9031696038677,32.0341080752749,1466,320202080541201,38Q002,USGS,Well,32.0341019,-80.9031665,NAD83,348,,120FLRDU
-82.501245671761,32.0404714851618,1467,320226082301101,25Q001,USGS,Well,32.04046536,-82.5012421,NAD83,536,,120FLRDU
-81.0740039559424,32.0760477792489,1468,320433081042701,37Q016,USGS,Well,32.0760416,-81.0740008,NAD83,500,,120FLRDU
-81.1470598682643,32.0918788609033,1469,320530081085001,36Q008,USGS,Well,32.09187268,-81.14705669,NAD83,406,,
-81.1101151681666,32.106323284637,1470,320622081063701,37Q185,USGS,Well,32.1063171,-81.110112,NAD83,344,,120FLRDU
-82.409853653693,32.2174139281478,1471,321302082243601,26R001,USGS,Well,32.21740776,-82.4098501,NAD83,1000,,120FLRDU
-83.0576523529278,32.451841298728,1472,322652083033001,21T001,USGS,Well,32.4518351,-83.0576486,NAD83,123,,120FLRDU
-81.8542839845924,32.52323139459,1473,323123081511601,31U008,USGS,Well,32.52322514,-81.85428058,NAD83,860,,120FLRD
-85.8899744985169,30.995835781054,1474,Geneva_X-23-1,Geneva_X-23-1,GSA,Well,30.99583,-85.8997,NAD83,260,133,
-82.4225034488779,29.5977835667002,1475,A-0983,UF Shands,SJRWMD,Well,29.597778,-82.4225,NAD83,65,30,
-82.4324474844188,30.4432557635924,1476,BA0121,"Osceola Natl For, Sandhill Rd",SJRWMD,Well,30.44325,-82.432444,NAD83,400,350,
-80.795558927668,28.2300052832146,1477,BR2221,River Lakes Cons Area,SJRWMD,Well,28.23,-80.795556,NAD83,350,300,
-81.9421672905264,29.062075453658,1478,M-0783,Oxner,SJRWMD,Well,29.06207,-81.942164,NAD83,215,165,
-81.0586140284777,28.9211164439444,1479,V-1251,Wiregrass Prairie Preserve,SJRWMD,Well,28.921111,-81.058611,NAD83,206,100,
-84.5180041109893,31.0746358434717,1480,310428084310501,09G001,USGS,Well,31.07463,-84.518,NAD83,,,120FLRDU
-81.4958032398869,31.1430659538569,1481,310835081294501,34H495,USGS,Well,31.41306,-81.4958,NAD83,,,120FLRDL
-81.396803260372,32.2952062192712,1482,321742081234904,34S011,USGS,Well,32.2952,-81.3968,NAD83,,,120FLRDL
-81.3193032414061,32.3768662402421,1483,322236081191001,35T003,USGS,Well,32.37686,-81.3193,NAD83,,,120FLRDU
-80.7644028976775,27.5600051195345,1484,IR1195,Ft. Drum Marsh CA,SJRWMD,Well,27.56,-80.7644,,490,437,
-81.8772032512837,28.4811153153028,1485,L-1060,Pasture Reserve,SJRWMD,Well,28.48111,-81.8772,,200,150,
-81.6633032025804,28.8847254180186,1486,L-1070,Pine Meadows CA,SJRWMD,Well,28.88472,-81.6633,,260,157,
-82.0421033254087,29.2341454909772,1487,M-0819,Silver Springs Forest Site,SJRWMD,Well,29.23414,-82.0421,,81,56,
-81.443603199852,30.5222258109606,1488,N-0347,Amelia Island SP,SJRWMD,Well,30.52222,-81.4436,,510,460,
-80.9786029773424,28.1077852480608,1489,OS0264,Bull Creek north,SJRWMD,Well,28.10778,-80.9786,,425,317,
-80.9472029653145,28.0138952267067,1490,OS0267,Bull Creek south,SJRWMD,Well,28.01389,-80.9472,,345,245,
-81.175503064566,29.0067154599803,1491,V-1249,Kemcho,SJRWMD,Well,29.00671,-81.1755,,167,100,
-82.1245088931759,28.9236526375628,1492,872383,ROMP 115 U FLDN AQ MONITOR,SWFWMD,Well,28.92364722,-82.12450556,,370,120,
-81.6621476069836,27.6829245727867,1493,841123,ROMP 42 U FLDN AQ (SWNN) MONITOR,SWFWMD,Well,27.68291945,-81.66214444,,343,298,UFA
-82.5659617906526,28.7001275724596,1494,877605,WEST CITRUS U FLDN AQ MONITOR,SWFWMD,Well,28.70012222,-82.56595833,,80,58,
-82.3393978646738,29.4741860948745,1495,787986,ROMP 133 U FLDN AQ PRODUCTION/MONITOR,SWFWMD,Well,29.47418056,-82.33939444,,1296,308,
-82.4011645302992,28.9683748628448,1496,790906,NORTHERN CENTRAL CITRUS 2 U FLDN AQ MONITOR,SWFWMD,Well,28.96836944,-82.40116111,,80,50,
-82.074122735114,27.9455774029769,1497,784813,DOVER EAST U FLDN AQ (SWNN) MONITOR,SWFWMD,Well,27.94557222,-82.07411944,,300,195,
-82.2985450242408,27.9885996301595,1498,790056,DOVER WEST U FLDN AQ  MONITOR,SWFWMD,Well,27.98859444,-82.29854167,,300,180,
-81.9970699628424,28.755474822168,1499,803617,NS-3 U FLDN AQ MONITOR,SWFWMD,Well,28.75546944,-81.99706667,,68,50,
-82.1594033187006,28.0360052009093,1500,788471,DOVER NORTH U FLDN AQ (SWNN) MONITOR,SWFWMD,Well,28.036,-82.1594,,300,200,
-82.4362908427994,27.5815364113433,1501,863048,ROMP 38 AVPK PZ 4.5-INCH MONITOR,SWFWMD,Well,27.58153133,-82.43628746,,1200,1100,
-82.4726978986943,29.3624277317245,1502,22935,WILLISTON AIRPORT FLDN,SWFWMD,Well,29.36242222,-82.47269444,,135,0,
-82.3564339131389,27.4885633965334,1503,889859,ROMP 34 OCAL-AVPK FLDN,SWFWMD,Well,27.48855833,-82.35643056,,1140,806,
-81.4958332397976,31.1430659535731,1504,310835081294502,34H500,USGS,Well,31.14306,-81.49583,NAD83,1400,,120FLRDL
-81.6117833164731,32.1318761755562,1505,320754081364301,33R045,USGS,Well,32.13187,-81.61178,NAD83,994,,120FLRDL
-81.6528933730582,33.0968263899915,1506,330548081391103,32Y033,USGS,Well,33.09682,-81.65289,NAD83,210,,120FLRDU
-82.0447234942763,33.2369464076314,1507,331411082024101,29Z002,USGS,Well,33.23694,-82.04472,NAD83,30,,120FLRDU
-82.2024435438102,33.2917264147495,1508,331730082120901,28AA01,USGS,Well,33.29172,-82.20244,NAD83,209,140,120FLRDU
-82.0526435004139,33.2992864212048,1509,331757082030901,29AA36,USGS,Well,33.29928,-82.05264,NAD83,160,,120FLRDU
-82.0242234952509,33.3772264395173,1510,332322082003201,29BB02,USGS,Well,33.37722,-82.02422,NAD83,265,195,120FLRDU
-82.083083516599,33.4517864535327,1511,332706082050001,29BB32,USGS,Well,33.45178,-82.08308,NAD83,42,,211MDVLL
-81.2881741838248,28.249131942027,1512,OSF-44,OSF-44,SFWMD,Well,28.2491,81.2882,,614,,
-81.9337704281627,26.4905781617192,1513,FMB-MZU,FMB-MZU,SFWMD,Well,26.4906,81.9338,,1650,,
-81.7233364641711,25.9591713678497,1514,MIU-MZ1,MIU-MZ1,SFWMD,Well,25.9592,81.7233,,1977,1600,
-86.2937786168922,31.0906547891863,1515,039U31001,Alabama Highway Dept,GSA,Well,31.090649,-86.293774,,173,,U-1
-86.5526646887139,31.0852957786551,1516,COV-1,Covington 1,GSA,Well,31.08529,-86.55266,,420,,
-82.5758034823113,29.2920054900744,1517,780479,LAKE MARION U FLDN AQ MONITOR,SWFWMD,Well,29.292,-82.5758,,105,82,
-85.3414781161846,30.8539809771631,1518,AAN1761,AAN1761,,Well,30.85397521,-85.34147378,,,,
-85.2784169699825,30.8756559905987,1519,AAN1760,AAN1760,,Well,30.87565022,-85.27841265,,,,
-85.3083892145815,30.8954115537549,1520,AAN1759,AAN1759,,Well,30.89540578,-85.30838489,,,,
-85.377778142539,30.9107671115495,1521,AAN1763,AAN1763,,Well,30.91076133,-85.37777379,,,,
-82.4636034096422,28.1413052187174,1522,637949,CRYSTAL LAKES MANOR 2 FLDN,SWFWMD,Well,28.1413,-82.4636,,560,140,
-82.1594033182476,28.0359052012141,1523,788472,DOVER NORTH AVPK HPZ MONITOR,SWFWMD,Well,28.0359,-82.1594,,800,470,
-82.2985033568342,27.9886051861723,1524,789584,DOVER WEST AVPK HPZ MONITOR,SWFWMD,Well,27.9886,-82.2985,,842,530,
-82.2105033301847,27.938205176026,1525,793066,DOVER SOUTH AVPK HPZ MONITOR,SWFWMD,Well,27.9382,-82.2105,,843,530,
-82.0741032903616,27.9456051816548,1526,798549,DOVER EAST AVPK HPZ MONITOR,SWFWMD,Well,27.9456,-82.0741,,850,530,
-81.6622031627244,27.6829051274538,1527,841776,ROMP 42 U FLDN AQ  (AVPK) MONITOR,SWFWMD,Well,27.6829,-81.6622,,1380,590,LFA
-81.6622031627244,27.6829051274538,1528,846034,ROMP 42 U ARCA AQ MONITOR,SWFWMD,Well,27.6829,-81.6622,,171,80,UFA
-81.837303226909,28.1088052268903,1529,861738,ROMP 75 U FLDN AQ (OCAL LPZ) MONITOR,SWFWMD,Well,28.1088,-81.8373,,303,150,UFA
-81.837303226909,28.1088052268903,1530,861747,ROMP 75 L FLDN AQ (BELOW MCU I) MONITOR,SWFWMD,Well,28.1088,-81.8373,,1065,820,LFA
-82.5960034693216,28.7875053694995,1531,865188,EAST HOMOSASSA SALTWATER INTERFACE MONITOR,SWFWMD,Well,28.7875,-82.596,,130,120,
-82.5960034693216,28.7875053694995,1532,865190,EAST HOMOSASSA UFA MONITOR,SWFWMD,Well,28.7875,-82.596,,100,80,
-82.1245033382884,28.9236054144973,1533,872386,ROMP 115 L FLDN AQ (BELOW MCU I) MONITOR,SWFWMD,Well,28.9236,-82.1245,,1100,570,
-81.8374032271321,28.1088052265015,1534,872967,ROMP 75 L FLDN AQ (BELOW MCU II) MONITOR,SWFWMD,Well,28.1088,-81.8374,,1750,1500,
-82.5659034575041,28.700105349751,1535,877606,WEST CITRUS SALTWATER INTERFACE MONITOR,SWFWMD,Well,28.7001,-82.5659,,320,280,
-84.9202055141523,30.7996403673562,1536,304758084551301,06E023,USGS,Well,30.7996346,-84.9202013,,220,220,120FLRDU
-84.7700041741246,30.8593610763266,1537,305133084461201,07E043,USGS,Well,,30.85935529,-84.7699201,72,72,120FLRDU
-84.6130041289532,30.8635282917009,1538,305148084364801,09E518,USGS,Well,30.8635225,-84.6132487,,80,80,120FLRDU
-84.8120041899635,30.9515815053206,1539,305705084484201,07F007,USGS,Well,30.9515757,-84.8115885,,85,85,120FLRDU
-84.4040040798301,31.1124502950878,1540,310645084241401,10G314,USGS,Well,31.11244444,-84.40375,,370,370,120FLRDU
-84.7650041842142,31.1346333479155,1541,310804084455501,07H018,USGS,Well,31.1346275,-84.7651982,,75,75,120FLRDU
-84.967004242886,31.1462984438737,1542,310900084580301,06H017,USGS,Well,31.1462926,-84.9674271,,245,245,120FLRDU
-84.4730041051582,31.2301873386772,1543,311348084282401,10H007,USGS,Well,31.23018146,-84.4732451,,169,169,120FLRDU
-84.4750041097503,31.3201851989788,1544,311912084282901,10J009,USGS,Well,31.3201793,-84.4746341,,100,100,120FLRDU
-84.174004028539,31.4447281366669,1545,312641084102401,12K037,USGS,Well,31.4447222,-84.1736111,,200,200,120FLRDU
-84.1120040142193,31.5182370552119,1546,313105084064302,13L012,USGS,Well,31.5182311,-84.111851,,218,218,120FLRDU
-84.3040040718621,31.5779567123898,1547,313440084181403,11L117,USGS,Well,31.57795075,-84.3037995,,64,64,120FLRDU
-84.1000040180797,31.6751789707623,1548,314030084060001,13M046,USGS,Well,31.67517298,-84.0999068,,105,105,120FLRDU
-83.9050039678074,31.8146247886211,1549,314852083542001,14N004,USGS,Well,31.81461876,-83.9054549,,250,250,120FLRDU
-81.4950032388733,31.1387922523154,1550,310822081294201,34H403,USGS,Well,31.1387863,-81.4946837,,982,982,120FLRD
-81.4950032389536,31.1404033519033,1551,310825081294201,34H393,USGS,Well,31.1403974,-81.4948504,,1153,723,120FLRDU
-81.4960032396126,31.1430615127507,1552,310835081294502,34H500,USGS,Well,31.14305556,-81.4958333,,1400,1400,120FLRDL
-81.6120033158721,32.13187314439,1553,320754081364301,33R045,USGS,Well,32.13186697,-81.6117788,,994,994,120FLRDL
-82.6336135045397,29.446115524306,1554,S121717003,,SRWMD,Well,29.44611,-82.63361,,,,Same as 121717003
-83.2744757333917,30.574186768083,1555,N021013001,,SRWMD,Well,30.574181,-83.274472,,,,
-81.8390032413366,28.5070683230508,1556,L-1073,Pine Island Well,SJRWMD,Well,28.507063,-81.839084,,,,
-80.9920030156434,29.1273234937345,1557,V-1165,Buschman Pk Wells,SJRWMD,Well,29.127318,-80.992485,,,,
-80.9210029866536,28.8930484395897,1558,V-1255,Turnbull Hammock,SJRWMD,Well,28.893043,-80.920701,,,,
-84.3618450344121,30.3121826753672,1559,12459,FGS - SULLIVAN SINK #1,NWFWMD,Well,30.31217694,-84.361841,,,,
-85.1390042787111,30.8405617696911,1560,5226,NWFWMD-BAXTER SAND PIT VISA,NWFWMD,Well,30.840556,-85.138701,,118,85,
-85.1176078782253,30.9792489020139,1561,5697,DITTY JC-3 (JK-30),NWFWMD,Well,30.9792431,-85.1176036,,123,83,
-85.1393500756471,30.7874657575909,1562,12769,JACKSON BLUE #2 - FLORIDAN,NWFWMD,Well,30.78746,-85.1393458,,115,65,
-85.074671255237,30.7213624449589,1563,12797,CYPRESS PARK #1 - FLORIDAN,NWFWMD,Well,30.7213567,-85.074667,,220,180,
-84.3527490381771,30.4754337128137,1564,W19696,FGS 3K Deep,,Well,30.475428,-84.352745,,855,,
