,X,Y,OBJECTID,SITEID,SITENAME,AGENCY,OBSERVATIONTYPE,LATDD,LONGDD,HORIZONTALDATUM,TOTALDEPTH,CASEDDEPTH,COMMENTS,geometry
0,-81.8419709909263,27.5974387133633,1,579770,ROMP 41 AVPK PZ MONITOR,SWFWMD,Well,27.59743361,-81.84196778,,1401,828,,POINT (27.5974387133633 -81.8419709909263)
1,-81.7376087562021,28.1686191325505,2,17652,LAKE ALFRED DEEP NR LAKE ALFRED,SWFWMD,Well,28.16861389,-81.73760556,,425,102,,POINT (28.1686191325505 -81.7376087562021)
2,-82.3994422424457,27.0447160637115,3,25999,ROMP TR 4-2 U FLDN AQ INTERFACE MONITOR,SWFWMD,Well,27.04471111,-82.39943889,,475,460,,POINT (27.0447160637115 -82.3994422424457)
3,-82.0061949126366,27.2608855700255,4,24402,AMAX 3 NR PINE LEVEL,SWFWMD,Well,27.26088055,-82.00619166,,1547,340,,POINT (27.2608855700255 -82.0061949126366)
5,-81.7735448480523,27.1880466720029,6,24104,ROMP 16 U FLDN AQ MONITOR,SWFWMD,Well,27.18804167,-81.77354167,,942,757,,POINT (27.1880466720029 -81.7735448480523)
6,-81.6161531327839,27.0720133143621,7,24195,ROMP 13 U FLDN AQ MONITOR (SWNN),SWFWMD,Well,27.07200833,-81.61615,,786,671,,POINT (27.0720133143621 -81.6161531327839)
7,-81.9160587810816,27.4543106187211,8,23924,ROMP 31 U FLDN AQ MONITOR,SWFWMD,Well,27.45430555,-81.91605555,,1152,460,,POINT (27.4543106187211 -81.9160587810816)
12,-82.5461367442248,27.5831578586279,13,25701,ROMP TR 8-1 U FLDN AQ MONITOR (SWNN),SWFWMD,Well,27.58315278,-82.54613333,,530,390,,POINT (27.5831578586279 -82.5461367442248)
13,-81.8023004307728,27.8116968213193,14,670285,HOMELAND DEP 9 FLDN,SWFWMD,Well,27.81169167,-81.80229722,,746,0,,POINT (27.8116968213193 -81.8023004307728)
15,-82.0234143969733,28.220144136196,16,18826,ROMP 87 U FLDN AQ MONITOR (AVPK),SWFWMD,Well,28.22013889,-82.02341111,,380,300,,POINT (28.220144136196 -82.0234143969733)
16,-81.6225392679502,27.9035885164331,17,25343,ROMP 57 U FLDN AQ MONITOR,SWFWMD,Well,27.90358333,-81.62253611,,635,160,,POINT (27.9035885164331 -81.6225392679502)
17,-82.4030950284679,27.1597883134308,18,26019,ROMP TR 5-3 U FLDN AQ MONITOR,SWFWMD,Well,27.15978333,-82.40309167,,1125,1020,,POINT (27.1597883134308 -82.4030950284679)
21,-82.113325506697,27.3093411399947,22,25593,EDGEVILLE 3 DEEP,SWFWMD,Well,27.30933612,-82.11332223,,600,487,,POINT (27.3093411399947 -82.113325506697)
22,-81.9230032512434,28.0002274233899,23,24897,SANLON RANCH FLDN,SWFWMD,Well,28.00022223,-81.923,,1220,293,,POINT (28.0002274233899 -81.9230032512434)
23,-82.4009533632164,27.2710577853665,24,26070,FLORIDA CITIES TEST 1,SWFWMD,Well,27.27105278,-82.40095,,446,104,,POINT (27.2710577853665 -82.4009533632164)
25,-81.6100586997113,27.5177134234263,26,24948,SMITH DEEP,SWFWMD,Well,27.51770833,-81.61005556,,849,66,,POINT (27.5177134234263 -81.6100586997113)
26,-81.8068643015766,27.3366717088407,27,24390,MARSHALL DEEP (USGS),SWFWMD,Well,27.33666667,-81.80686111,,478,137,,POINT (27.3366717088407 -81.8068643015766)
27,-81.8368948798161,27.6387134510355,28,24946,CARGILL FA-1 FLDN,SWFWMD,Well,27.63870834,-81.83689167,,918,408,,POINT (27.6387134510355 -81.8368948798161)
28,-82.1301060651557,27.193154997913,29,25878,ROMP 18 U FLDN AQ MONITOR (SWNN),SWFWMD,Well,27.19315,-82.13010278,,845,505,,POINT (27.193154997913 -82.1301060651557)
30,-82.4793089399461,27.1939799841879,31,26035,ROMP 20 U FLDN AQ MONITOR (SWNN),SWFWMD,Well,27.193975,-82.47930556,,840,500,,POINT (27.1939799841879 -82.4793089399461)
31,-82.1775782982158,27.3148244710407,32,26216,ROMP 23 U FLDN AQ MONITOR,SWFWMD,Well,27.31481945,-82.177575,,1000,904,,POINT (27.3148244710407 -82.1775782982158)
32,-81.731225417875,28.0208385384471,33,25370,ROMP 73 U FLDN AQ MONITOR,SWFWMD,Well,28.02083333,-81.73122222,,389,161,,POINT (28.0208385384471 -81.731225417875)
33,-81.7422642791437,27.0411716322551,34,24215,ROMP 12 U FLDN AQ MONITOR (NOCA),SWFWMD,Well,27.04116666,-81.74226111,,700,505,,POINT (27.0411716322551 -81.7422642791437)
34,-82.5102811735535,27.348893916646,35,25656,ROMP TR SA-3 UPPER FLDN,SWFWMD,Well,27.34888889,-82.51027778,,1218,1096,,POINT (27.348893916646 -82.5102811735535)
36,-82.0070338114065,27.3664633770967,37,24008,ROMP 25 U FLDN AQ MONITOR,SWFWMD,Well,27.36645834,-82.00703056,,1785,960,,POINT (27.3664633770967 -82.0070338114065)
39,-81.510759121005,27.7565271496115,40,23840,CL-2 U FLDN AQ MONITOR,SWFWMD,Well,27.756522,-81.510756,,442,412,,POINT (27.7565271496115 -81.510759121005)
40,-81.5603091359709,27.791699156629,41,23845,ROMP 55 U FLDN AQ MONITOR,SWFWMD,Well,27.791694,-81.560306,,1200,212,,POINT (27.791699156629 -81.5603091359709)
42,-81.5732361398004,27.7625661491035,43,23863,CL-3 U FLDN AQ (SWNN-OCAL) MONITOR,SWFWMD,Well,27.762561,-81.573233,,440,228,,POINT (27.7625661491035 -81.5732361398004)
43,-81.6560364848134,27.2091244589078,44,24175,ROMP 15 U FLDN AQ MONITOR MOD,SWFWMD,Well,27.20911945,-81.65603334,,1360,654,,POINT (27.2091244589078 -81.6560364848134)
47,-82.3949033556968,27.155760537896,48,25917,ROMP TR 5-2 U FLDN AQ MONITOR (SWNN),SWFWMD,Well,27.15575556,-82.3949,,560,510,,POINT (27.155760537896 -82.3949033556968)
50,-82.5456700774618,27.3469494721105,51,25646,SARASOTA 11th STREET DEEP,SWFWMD,Well,27.34694445,-82.54566667,,479,43,,POINT (27.3469494721105 -82.5456700774618)
51,-82.2960533820667,28.7523413690034,52,23627,FERRIS PACKING COMPANY FLDN,SWFWMD,Well,28.752336,-82.29605,,400,200,,POINT (28.7523413690034 -82.2960533820667)
52,-81.9501699244701,27.9580329685788,53,18041,ROMP 60X U FLDN AQ MONITOR,SWFWMD,Well,27.95802778,-81.95016667,,806,212,,POINT (27.9580329685788 -81.9501699244701)
54,-82.5766974423939,28.1427552162785,55,19532,ST PETE CALM 33A FLDN,SWFWMD,Well,28.14275,-82.576694,,359,81,,POINT (28.1427552162785 -82.5766974423939)
59,-81.864142227944,27.8839491716044,60,24838,ROMP 59 U FLDN AQ INTERFACE MONITOR,SWFWMD,Well,27.883944,-81.864139,,1048,203,,POINT (27.8839491716044 -81.864142227944)
60,-82.3415311205859,27.1671438767207,61,25900,ROMP 19 U FLDN AQ MONITOR (SWNN),SWFWMD,Well,27.16713889,-82.34152778,,420,410,,POINT (27.1671438767207 -82.3415311205859)
61,-82.2544449829293,27.1727827685633,62,25907,ROMP 19X U FLDN AQ MONITOR (SWNN),SWFWMD,Well,27.17277778,-82.25444166,,420,410,,POINT (27.1727827685633 -82.2544449829293)
62,-82.4513256022868,27.136202197339,63,26023,ROMP TR 5-1 U FLDN AQ SULFATE MONITOR,SWFWMD,Well,27.13619722,-82.45132223,,510,492,,POINT (27.136202197339 -82.4513256022868)
64,-81.8872560098679,27.7955745931453,65,657524,ROMP 45.5 AVPK PZ MONITOR,SWFWMD,Well,27.79556944,-81.88725278,,915,555,,POINT (27.7955745931453 -81.8872560098679)
65,-82.2570644378916,27.4577995047642,66,26171,ROMP 33 U FLDN AQ MONITOR,SWFWMD,Well,27.45779445,-82.25706111,,750,404,,POINT (27.4577995047642 -82.2570644378916)
66,-81.5980391484868,27.8243881636432,67,23890,ROMP 44 U FLDN AQ MONITOR,SWFWMD,Well,27.824383,-81.598036,,402,232,,POINT (27.8243881636432 -81.5980391484868)
69,-82.0639532723178,27.4708411754143,70,25567,ROMP 32 U FLDN AQ MONITOR (AVPK),SWFWMD,Well,27.47083611,-82.06395,,1215,909,,POINT (27.4708411754143 -82.0639532723178)
70,-82.2180449719486,26.9442604877029,71,25074,ROMP TR 3-1 U FLDN AQ MONITOR,SWFWMD,Well,26.94425555,-82.21804167,,620,600,,POINT (26.9442604877029 -82.2180449719486)
71,-81.4801058882266,27.6044745621563,72,25532,ROMP 43XX U FLDN AQ MONITOR,SWFWMD,Well,27.60446945,-81.48010278,,1363,409,,POINT (27.6044745621563 -81.4801058882266)
72,-82.2396977664837,27.4774495050757,73,26136,KIBLER DEEP,SWFWMD,Well,27.47744444,-82.23969444,,1123,208,,POINT (27.4774495050757 -82.2396977664837)
74,-82.5159474262609,28.1774302255404,75,19686,ST PETE 42 DEEP,SWFWMD,Well,28.177425,-82.515944,,398,70,,POINT (28.1774302255404 -82.5159474262609)
75,-82.5070974234555,28.1823192276642,76,19687,ST PETE 45 DEEP,SWFWMD,Well,28.182314,-82.507094,,707,59,,POINT (28.1823192276642 -82.5070974234555)
77,-81.3395919409931,27.2666578129441,78,25411,ROMP 28X U FLDN AQ MONITOR,SWFWMD,Well,27.26665278,-81.33958889,,1385,585,,POINT (27.2666578129441 -81.3395919409931)
79,-82.5318922996573,27.621699532533,80,25838,FLORIDA POWER FLDN AT PINEY POINT,SWFWMD,Well,27.62169444,-82.53188889,,950,104,,POINT (27.621699532533 -82.5318922996573)
84,-81.7229698610282,28.092102452749,85,25227,LAKE ALFRED DEEP AT LAKE ALFRED,SWFWMD,Well,28.09209723,-81.72296667,,555,282,,POINT (28.092102452749 -81.7229698610282)
86,-81.7861004284859,27.7643301464068,87,24804,ROMP 45 U FLDN AQ MONITOR (AVPK),SWFWMD,Well,27.764325,-81.78609723,,757,680,,POINT (27.7643301464068 -81.7861004284859)
87,-81.9554504789008,28.0715052156224,88,24916,ROMP 70 U FLDN AQ MONITOR,SWFWMD,Well,28.0715,-81.95544722,,645,185,,POINT (28.0715052156224 -81.9554504789008)
88,-82.5040314297186,28.3848382756447,89,20531,CROSS BAR 1W WOLFE U FLDN AQ (CB-1W),SWFWMD,Well,28.384833,-82.504028,,777,112,,POINT (28.3848382756447 -82.5040314297186)
94,-82.2429203436074,28.083727210396,95,18677,ROMP 68 U FLDN AQ MONITOR (AVPK),SWFWMD,Well,28.083722,-82.242917,,490,440,,POINT (28.083727210396 -82.2429203436074)
96,-82.4034173960494,28.2729052514148,97,18913,CYPRESS CREEK 3 FLDN,SWFWMD,Well,28.2729,-82.403414,,352,136,,POINT (28.2729052514148 -82.4034173960494)
98,-81.9765310135853,27.1745383326803,99,24041,ROMP 17 U FLDN AQ MONITOR (AVPK),SWFWMD,Well,27.17453334,-81.97652777,,1430,1115,,POINT (27.1745383326803 -81.9765310135853)
99,-82.489120063631,27.4278717141044,100,26203,ROMP TR 7-4 U FLDN AQ MONITOR (SWNN),SWFWMD,Well,27.42786667,-82.48911667,,800,560,,POINT (27.4278717141044 -82.489120063631)
100,-82.3298227813008,26.9256215964227,101,25060,ROMP TR 3-3 SWNN PZ MONITOR REPL,SWFWMD,Well,26.92561667,-82.32981945,,900,680,,POINT (26.9256215964227 -82.3298227813008)
101,-81.9814587851924,26.8403965806965,102,25083,ROMP TR 1-2 U FLDN AQ MONITOR,SWFWMD,Well,26.84039167,-81.98145555,,1184,980,,POINT (26.8403965806965 -81.9814587851924)
106,-82.433420403782,28.2434022439362,107,18498,ROMP 84 TMPA-AVPK,SWFWMD,Well,28.243397,-82.433417,,666,90,,POINT (28.2434022439362 -82.433420403782)
108,-82.2542644242788,27.0777494076098,109,25937,ROMP 8 SWNN PZ MONITOR,SWFWMD,Well,27.07774444,-82.25426111,,842,510,,POINT (27.0777494076098 -82.2542644242788)
109,-82.343725372371,28.0562272010516,110,18616,ROMP 67 U FLDN AQ MONITOR (AVPK),SWFWMD,Well,28.056222,-82.343722,,490,440,,POINT (28.0562272010516 -82.343725372371)
115,-82.054114275303,27.6478661092134,116,18052,ROMP 40 U FLDN AQ MONITOR,SWFWMD,Well,27.647861,-82.054111,,1140,408,,POINT (27.6478661092134 -82.054114275303)
116,-82.4227813836998,27.7410051228892,117,18065,ROMP TR 9-3 U FLDN AQ MONITOR (SWNN),SWFWMD,Well,27.741,-82.422778,,525,289,,POINT (27.7410051228892 -82.4227813836998)
117,-82.3931423769955,27.7652831297947,118,18077,ROMP TR 9-2 U FLDN AQ MONITOR (SWNN),SWFWMD,Well,27.765278,-82.393139,,462,247,,POINT (27.7652831297947 -82.3931423769955)
118,-82.6512254637614,28.151394215917,119,19653,ELDRIDGE-WILDE 11 FLDN,SWFWMD,Well,28.151389,-82.651222,,400,110,,POINT (28.151394215917 -82.6512254637614)
124,-81.911356255279,28.3106972738812,125,17708,ROMP 88 U FLDN AQ MONITOR,SWFWMD,Well,28.310692,-81.911353,,385,195,,POINT (28.3106972738812 -81.911356255279)
126,-82.3145863576105,27.8582831538729,127,18104,ROMP 62 U FLDN AQ MONITOR,SWFWMD,Well,27.858278,-82.314583,,692,625,,POINT (27.8582831538729 -82.3145863576105)
127,-82.3385863642245,27.8714221566692,128,18106,US PHOSPHORIC AT RIVERVIEW,SWFWMD,Well,27.871417,-82.338583,,658,653,,POINT (27.8714221566692 -82.3385863642245)
133,-82.6372814567655,28.0663941958983,134,19560,ROMP TR 13-3 U FLDN AQ MONITOR,SWFWMD,Well,28.066389,-82.637278,,807,724,,POINT (28.0663941958983 -82.6372814567655)
134,-82.6152814514493,28.0851992007144,135,19563,ST PETE E-102 FLDN,SWFWMD,Well,28.085194,-82.615278,,1200,697,,POINT (28.0851992007144 -82.6152814514493)
135,-81.9255202638261,28.4548023082286,136,17728,ROMP 101 U FLDN AQ MONITOR,SWFWMD,Well,28.454797,-81.925517,,410,120,,POINT (28.4548023082286 -81.9255202638261)
136,-82.1611973145617,27.9085331704668,137,17769,ROMP 61 U FLDN AQ MONITOR,SWFWMD,Well,27.908528,-82.161194,,1000,300,,POINT (27.9085331704668 -82.1611973145617)
137,-82.2513093328526,27.6754771115025,138,17822,ROMP 123 HTRN AS/U FLDN AQ MONITOR,SWFWMD,Well,27.675472,-82.251306,,620,117,,POINT (27.6754771115025 -82.2513093328526)
139,-82.6903924745395,28.1233382080417,140,21155,NWHWRAP-1D DEEP U FLDN AQ MONITOR,SWFWMD,Well,28.123333,-82.690389,,627,571,,POINT (28.1233382080417 -82.6903924745395)
143,-82.2370033591775,28.6016633345822,144,23542,WR-6B DEEP U FLDN AQ MONITOR,SWFWMD,Well,28.601658,-82.237,,356,326,,POINT (28.6016633345822 -82.2370033591775)
149,-82.4800314097396,28.0094491862392,150,19230,NWHWRAP-2D SHALLOW U FLDN AQ MONITOR,SWFWMD,Well,28.009444,-82.480028,,390,290,,POINT (28.0094491862392 -82.4800314097396)
158,-82.6005864612067,28.5175613054995,159,20893,WW-4 WEEKI WACHEE U FLDN AQ MONITOR,SWFWMD,Well,28.517556,-82.600583,,523,481,,POINT (28.5175613054995 -82.6005864612067)
160,-82.6530314746038,28.4501162874752,161,20936,ROMP TR 18-2 AVPK PZ MONITOR,SWFWMD,Well,28.450111,-82.653028,,480,447,,POINT (28.4501162874752 -82.6530314746038)
172,-82.7109754823197,28.1951442246416,173,22832,NWHWRAP-3D DEEP U FLDN AQ MONITOR,SWFWMD,Well,28.195139,-82.710972,,411,363,,POINT (28.1951442246416 -82.7109754823197)
175,-81.4352391998852,27.368868941669,176,23725,ROMP 28 AVPK,SWFWMD,Well,27.36886389,-81.43523611,,1642,960,,POINT (27.368868941669 -81.4352391998852)
180,-82.5706334741815,29.1288884515247,181,22980,TIDEWATER 1 FLDN,SWFWMD,Well,29.128883,-82.57063,,784,298,,POINT (29.1288884515247 -82.5706334741815)
182,-82.5321064312473,28.1866242279402,183,22842,SOUTH PASCO WEST DEEP,SWFWMD,Well,28.186619,-82.532103,,676,116,,POINT (28.1866242279402 -82.5321064312473)
188,-82.5163644256073,28.1632272227624,189,19608,ST PETE-PASCO SOUTH BM U FLDN AQ MONITOR,SWFWMD,Well,28.163222,-82.516361,,700,93,,POINT (28.1632272227624 -82.5163644256073)
194,-82.5826974533306,28.4349492855768,195,20841,ROMP 97 U FLDN AQ MONITOR,SWFWMD,Well,28.434944,-82.582694,,355,310,,POINT (28.4349492855768 -82.5826974533306)
195,-82.6364204688551,28.4381722852105,196,20846,ROMP TR 18-3 U FLDN AQ MONITOR,SWFWMD,Well,28.438167,-82.636417,,378,58,,POINT (28.4381722852105 -82.6364204688551)
196,-82.6330034688318,28.4618112906395,197,20854,ROMP TR 18-1 U FLDN AQ MONITOR,SWFWMD,Well,28.461806,-82.633,,580,445,,POINT (28.4618112906395 -82.6330034688318)
201,-82.404336406599,28.556172319455,202,20756,ROMP 105 U FLDN AQ MONITOR (AVPK) 1,SWFWMD,Well,28.556167,-82.404333,,490,470,,POINT (28.556172319455 -82.404336406599)
202,-82.1425593033856,27.7408661297173,203,17840,ROMP 48 U FLDN AQ MONITOR (TMPA/SWNN),SWFWMD,Well,27.740861,-82.142556,,541,215,,POINT (27.7408661297173 -82.1425593033856)
206,-82.2543643372387,27.7629221320325,207,17932,ROMP 49 U FLDN AQ MONITOR (AVPK),SWFWMD,Well,27.762917,-82.254361,,1140,792,,POINT (27.7629221320325 -82.2543643372387)
211,-82.6117534503614,28.069894197291,212,19972,NWHWRAP-4D DEEP U FLDN AQ MONITOR,SWFWMD,Well,28.069889,-82.61175,,1106,998,,POINT (28.069894197291 -82.6117534503614)
212,-82.5383924321428,28.1558112199133,213,19976,LUTZ-LAKE FERN DEEP,SWFWMD,Well,28.155806,-82.538389,,375,65,,POINT (28.1558112199133 -82.5383924321428)
220,-82.6964754771189,28.1485332144828,221,22765,NORTH LAKE TARPON FLDN,SWFWMD,Well,28.148528,-82.696472,,780,758,,POINT (28.1485332144828 -82.6964754771189)
222,-82.3454113996496,28.8542223919859,223,23485,INVERNESS DOT FLDN,SWFWMD,Well,28.854217,-82.345408,,450,290,,POINT (28.8542223919859 -82.3454113996496)
224,-82.2406973606308,28.5942583333073,225,23516,WR-6A DEEP U FLDN AQ MONITOR,SWFWMD,Well,28.594253,-82.240694,,358,326,,POINT (28.5942583333073 -82.2406973606308)
226,-82.4124063990692,28.2807992537588,227,18395,CYPRESS CREEK TMR-4 DEEP,SWFWMD,Well,28.280794,-82.412403,,592,99,,POINT (28.2807992537588 -82.4124063990692)
227,-82.1481949795728,27.9667301847565,228,770770,DV-2 U FLDN AQ (AVPK) MONITOR,SWFWMD,Well,27.966725,-82.14819167,,848,565,,POINT (27.9667301847565 -82.1481949795728)
228,-82.3237253721292,28.2403382463303,229,19327,ROMP 85 U FLDN AQ MONITOR (AVPK),SWFWMD,Well,28.240333,-82.323722,,505,450,,POINT (28.2403382463303 -82.3237253721292)
229,-82.3571143647713,27.7114221174039,230,18214,ROMP 50 U FLDN AQ MONITOR (SWNN),SWFWMD,Well,27.711417,-82.357111,,562,200,,POINT (27.7114221174039 -82.3571143647713)
234,-82.6046144527093,28.220172234063,235,22883,STARKEY REGIONAL FLDN,SWFWMD,Well,28.220167,-82.604611,,380,280,,POINT (28.220172234063 -82.6046144527093)
235,-82.4570704530594,29.4379015275101,236,22929,ROMP 134 U FLDN AQ MONITOR (OCAL-AVPK-OLDM),SWFWMD,Well,29.437896,-82.457067,,1185,70,,POINT (29.4379015275101 -82.4570704530594)
239,-82.4037783965915,28.2598132486521,240,18910,CYPRESS CREEK TMR-5 DEEP,SWFWMD,Well,28.259808,-82.403775,,610,102,,POINT (28.2598132486521 -82.4037783965915)
240,-82.0409477065867,27.2853994671469,241,24414,ROMP 35 U FLDN AQ MONITOR (SWNN),SWFWMD,Well,27.28539445,-82.04094445,,741,537,,POINT (27.2853994671469 -82.0409477065867)
241,-81.588489250898,27.5834689939103,242,23956,ROMP 43 U FLDN AQ MONITOR (AVPK),SWFWMD,Well,27.58346389,-81.58848611,,1210,719,,POINT (27.5834689939103 -81.588489250898)
243,-82.1355533126117,28.0687968759102,244,768554,MCINTOSH AVPK,SWFWMD,Well,28.06879167,-82.13555,,900,560,,POINT (28.0687968759102 -82.1355533126117)
245,-82.1420033238881,28.3600332793263,246,17516,ROMP 90 U FLDN AQ MONITOR (AVPK),SWFWMD,Well,28.360028,-82.142,,665,424,,POINT (28.3600332793263 -82.1420033238881)
247,-82.6822534763589,28.2616722416246,248,20349,ROMP TR 16-3 U FLDN AQ INTERFACE MONITOR,SWFWMD,Well,28.261667,-82.68225,,515,494,,POINT (28.2616722416246 -82.6822534763589)
248,-82.1801143310707,28.2507272520121,249,19414,ROMP 86 U FLDN AQ MONITOR,SWFWMD,Well,28.250722,-82.180111,,436,424,,POINT (28.2507272520121 -82.1801143310707)
250,-81.8078087367594,26.9458271657111,251,25090,ROMP 5 U FLDN AQ MONITOR (SWNN),SWFWMD,Well,26.94582222,-81.80780555,,970,720,,POINT (26.9458271657111 -81.8078087367594)
252,-82.434392265063,27.3378216913942,253,753497,SARASOTA SERVICE OFFICE U FLDN AQ MONITOR,SWFWMD,Well,27.33781667,-82.43438889,,760,477,,POINT (27.3378216913942 -82.434392265063)
255,-82.1490116169979,27.0763299707268,256,25981,ROMP 9 AVPK PZ MONITOR,SWFWMD,Well,27.076325,-82.14900833,,1230,1180,,POINT (27.0763299707268 -82.1490116169979)
257,-82.6662254716226,28.2573112409071,258,20390,ROMP TR 16-4 AVPK PZ MONITOR,SWFWMD,Well,28.257306,-82.666222,,780,740,,POINT (28.2573112409071 -82.6662254716226)
267,-82.0493863051005,28.6107863420859,268,23078,WEBSTER CITY FLDN,SWFWMD,Well,28.610781,-82.049383,,423,200,,POINT (28.6107863420859 -82.0493863051005)
274,-82.2514422196982,27.5887106460341,275,26090,ROMP 39 AVPK PZ MONITOR,SWFWMD,Well,27.58870556,-82.25143889,,1120,960,,POINT (27.5887106460341 -82.2514422196982)
277,-82.5916974451572,28.1022272059445,278,19536,COSME 3 FLDN,SWFWMD,Well,28.102222,-82.591694,,354,79,,POINT (28.1022272059445 -82.5916974451572)
281,-82.2357663741832,29.02607243587,282,23229,ROMP 119 U FLDN AQ SULFATE MONITOR,SWFWMD,Well,29.026067,-82.235763,,502,106,,POINT (29.02607243587 -82.2357663741832)
284,-82.4225644036091,28.3232132631894,285,18970,ROMP 93 U FLDN AQ MONITOR,SWFWMD,Well,28.323208,-82.422561,,700,149,,POINT (28.3232132631894 -82.4225644036091)
286,-82.0742755118759,27.9271718435735,287,171194,TBW SCHM-3D FLDN,SWFWMD,Well,27.92716667,-82.07427222,,880,218,,POINT (27.9271718435735 -82.0742755118759)
287,-82.1294338594969,27.8888301665667,288,179575,TBW SCHM-11D FLDN,SWFWMD,Well,27.888825,-82.12943055,,918,220,,POINT (27.8888301665667 -82.1294338594969)
290,-82.3096922954921,29.3269166161987,291,750867,ROMP 132 U FLDN AQ MONITOR,SWFWMD,Well,29.32691111,-82.30968889,,994,239,,POINT (29.3269166161987 -82.3096922954921)
291,-81.7967031957739,27.4592800668872,292,23974,ROMP 30 U FLDN AQ MONITOR,SWFWMD,Well,27.459275,-81.7967,,1266,380,,POINT (27.4592800668872 -81.7967031957739)
292,-81.8246587533854,27.2996300336999,293,24385,ROMP 26 U FLDN AQ MONITOR,SWFWMD,Well,27.299625,-81.82465556,,1320,580,,POINT (27.2996300336999 -81.8246587533854)
293,-81.8839893200654,27.0611827479082,294,24357,ROMP 16.5 U FLDN AQ MONITOR,SWFWMD,Well,27.06117778,-81.88398611,,827,600,,POINT (27.0611827479082 -81.8839893200654)
294,-82.0778922966713,28.0860052155667,295,19456,CONE RANCH TBW TP-2 FLDN,SWFWMD,Well,28.086,-82.077889,,700,44,,POINT (28.0860052155667 -82.0778922966713)
296,-82.3780313906533,28.3126362621391,297,18934,CYPRESS CREEK TMR-2 DEEP,SWFWMD,Well,28.312631,-82.378028,,625,120,,POINT (28.3126362621391 -82.3780313906533)
297,-81.4196419758171,27.5027273116279,298,670785,ROMP 29A AVPK PZ MONITOR,SWFWMD,Well,27.50272222,-81.41963889,,1553,1260,,POINT (27.5027273116279 -81.4196419758171)
306,-82.390618419702,29.0455514366193,307,23250,ROMP 121 AVPK,SWFWMD,Well,29.045546,-82.390615,,602,143,,POINT (29.0455514366193 -82.390618419702)
309,-82.4515924388688,29.0877284446464,310,23316,RAINBOW SPRINGS FLDN NR DUNNELLON,SWFWMD,Well,29.087723,-82.451589,,442,125,,POINT (29.0877284446464 -82.4515924388688)
312,-82.1647783164585,27.9369662880343,313,105483,TBW SCHM-2D FLDN,SWFWMD,Well,27.93696111,-82.164775,,910,115,,POINT (27.9369662880343 -82.1647783164585)
315,-82.5502534127799,27.4372328249698,316,26127,ROMP TR 7-2 U FLDN AQ MONITOR (TMPA/SWNN),SWFWMD,Well,27.43722778,-82.55025,,465,358,,POINT (27.4372328249698 -82.5502534127799)
316,-82.7575594906401,28.0259221832226,317,21099,ROMP TR 14-2 U FLDN AQ MONITOR (OCAL),SWFWMD,Well,28.025917,-82.757556,,460,440,,POINT (28.0259221832226 -82.7575594906401)
317,-82.7268644794987,27.9647551689478,318,21125,CLEARWATER-DUNEDIN 27 DEEP,SWFWMD,Well,27.96475,-82.726861,,548,523,,POINT (27.9647551689478 -82.7268644794987)
321,-81.3533086167255,27.1499605624893,322,23823,ROMP 14 U FLDN AQ MONITOR (SWNN),SWFWMD,Well,27.14995556,-81.35330556,,730,650,,POINT (27.1499605624893 -81.3533086167255)
322,-82.3366200110427,27.3120883534909,323,25717,ROMP 22 AVPK PZ MONITOR,SWFWMD,Well,27.31208333,-82.33661666,,1660,1200,,POINT (27.3120883534909 -82.3366200110427)
327,-82.0469004834169,27.1267466509335,328,24032,ROMP 9.5 U FLDN AQ MONITOR (MW-1),SWFWMD,Well,27.12674167,-82.04689723,,800,505,,POINT (27.1267466509335 -82.0469004834169)
330,-82.6353364624502,28.247533239523,331,20238,STARKEY 10 DEEP,SWFWMD,Well,28.247528,-82.635333,,392,153,,POINT (28.247533239523 -82.6353364624502)
331,-82.3796783900029,28.2888742560165,332,18439,CYPRESS CREEK TMR-1 DEEP,SWFWMD,Well,28.288869,-82.379675,,535,142,,POINT (28.2888742560165 -82.3796783900029)
332,-82.394992394435,28.2960302574763,333,18454,CYPRESS CREEK TMR-3 DEEP,SWFWMD,Well,28.296025,-82.394989,,625,160,,POINT (28.2960302574763 -82.394992394435)
335,-82.441156146208,27.0578855080044,336,26003,ROMP TR 4-1 U FLDN AQ INTERFACE MONITOR,SWFWMD,Well,27.05788055,-82.44115278,,821,765,,POINT (27.0578855080044 -82.441156146208)
337,-82.5178284268331,28.1819442269524,338,19691,ST PETE E-105 DEEP,SWFWMD,Well,28.181939,-82.517825,,1360,1012,,POINT (28.1819442269524 -82.5178284268331)
339,-82.1676143261948,28.1955052391561,340,19026,ROMP 86A U FLDN AQ MONITOR (AVPK),SWFWMD,Well,28.1955,-82.167611,,560,500,,POINT (28.1955052391561 -82.1676143261948)
340,-82.3182634038202,29.1834484709356,341,23349,ROMP 120 U FLDN AQ MONITOR,SWFWMD,Well,29.183443,-82.31826,,403,110,,POINT (29.1834484709356 -82.3182634038202)
343,-80.1797959106289,26.1733959415673,344,BF-4S,BF-4S,SFWMD,Well,26.17339115,-80.17979322,,1200,1000,,POINT (26.1733959415673 -80.1797959106289)
344,-80.1239363011161,26.3144490701649,345,BF-6,BF-6,SFWMD,Well,26.31444425,-80.12393363,,1128,960,,POINT (26.3144490701649 -80.1239363011161)
345,-81.3091910743665,25.8936294486518,346,BICY-MZ2,BICY-MZ2,SFWMD,Well,25.89362476,-81.30918807,,838,890,,POINT (25.8936294486518 -81.3091910743665)
346,-80.0917801898463,26.493851595398,347,BOYRO_EPXU,BOYRO_EPXU,SFWMD,Well,26.49384673,-80.09177752,,1160,995,,POINT (26.493851595398 -80.0917801898463)
347,-81.497004556959,26.7086210204508,348,BRY-MW,BRY-MW,SFWMD,Well,26.70861613,-81.49700147,,750,556,,POINT (26.7086210204508 -81.497004556959)
348,-82.0357636174698,26.7724704810942,349,BSU-MZU,BSU-MZU,SFWMD,Well,26.77246559,-82.03576037,,1287,1207,,POINT (26.7724704810942 -82.0357636174698)
349,-80.6029777863516,25.3825312424017,350,ENP-100,ENP-100,SFWMD,Well,25.38252666,-80.602975,,1333,620,,POINT (25.3825312424017 -80.6029777863516)
350,-81.7819849584575,26.6959054754614,351,FPL-MW,FPL-MW,SFWMD,Well,26.69590059,-81.78198179,,800,540,,POINT (26.6959054754614 -81.7819849584575)
351,-80.3151539505413,27.4559718812895,352,FPU-MZU,FPU-MZU,SFWMD,Well,27.45596678,-80.31515119,,1019,900,,POINT (27.4559718812895 -80.3151539505413)
352,-80.8220471245182,26.1714101098393,353,G-2618,G-2618,SFWMD,Well,26.17140534,-80.82204425,,1164,1104,,POINT (26.1714101098393 -80.8220471245182)
353,-80.2877760437642,25.8284863633757,354,G-3061,G-3061,SFWMD,Well,25.82848167,-80.28777333,,1105,955,,POINT (25.8284863633757 -80.2877760437642)
354,-81.0853911351884,26.8385401494083,355,GLF-6,GLF-6,SFWMD,Well,26.83853522,-81.08538816,,1560,840,,POINT (26.8385401494083 -81.0853911351884)
355,-81.2022390139607,27.2716134470618,356,HIF-40,HIF-40,SFWMD,Well,27.27160841,-81.202236,,600,540,,POINT (27.2716134470618 -81.2022390139607)
356,-80.9561082133896,27.2197700310948,357,HIF-42U,HIF-42U,SFWMD,Well,27.219765,-80.95610527,,1040,560,,POINT (27.2197700310948 -80.9561082133896)
357,-81.7305650657124,26.1703981659559,358,I75-MZ2,I75-MZ2,SFWMD,Well,26.17039341,-81.73056193,,1050,905,,POINT (26.1703981659559 -81.7305650657124)
358,-82.1104388105864,26.4422236989683,359,IWA-MZU,IWA-MZU,SFWMD,Well,26.44221889,-82.11043556,,869,840,,POINT (26.4422236989683 -82.1104388105864)
359,-81.4313641694794,26.4137548191559,360,IWSD-MZ2,IWSD-MZ2,SFWMD,Well,26.41375,-81.43136111,,1140,1060,,POINT (26.4137548191559 -81.4313641694794)
360,-81.7963156160294,24.5685051800813,361,KW-MZL,KW-MZL,SFWMD,Well,24.56850083,-81.7963125,,1320,1280,,POINT (24.5685051800813 -81.7963156160294)
361,-80.9493747995314,26.6080077047607,362,L2-PW2,L2-PW2,SFWMD,Well,26.60800283,-80.94937188,,1160,810,,POINT (26.6080077047607 -80.9493747995314)
362,-82.0556494135935,26.6520180773955,363,L-6436,L-6436,SFWMD,Well,26.65201321,-82.05564617,,1080,898,,POINT (26.6520180773955 -82.0556494135935)
363,-81.471590868166,26.7531832379671,364,LAB-MZ1,LAB-MZ1,SFWMD,Well,26.75317833,-81.47158779,,837,670,,POINT (26.7531832379671 -81.471590868166)
364,-80.4828536134382,26.9913280499085,365,MF-35B,MF-35B,SFWMD,Well,26.99132306,-80.48285081,,1340,390,,POINT (26.9913280499085 -80.4828536134382)
365,-80.6046211875721,26.9906845244347,366,MF-37U,MF-37U,SFWMD,Well,26.99067954,-80.60461835,,1039,765,,POINT (26.9906845244347 -80.6046211875721)
366,-80.4756975075962,27.2059491931042,367,MF-40U,MF-40U,SFWMD,Well,27.20594415,-80.4756947,,970,790,,POINT (27.2059491931042 -80.4756975075962)
367,-80.3856136069094,27.0851377873363,368,MF-52,MF-52,SFWMD,Well,27.08513278,-80.38561083,,1320,400,,POINT (27.0851377873363 -80.3856136069094)
368,-81.1908988318384,28.3783441092781,369,MOSSPK_D,MOSSPK_D,SFWMD,Well,28.3783388,-81.19089578,,480,240,,POINT (28.3783441092781 -81.1908988318384)
369,-80.8711841698162,27.1548232403219,370,OKF-100U,OKF-100U,SFWMD,Well,27.15481822,-80.87118125,,1350,565,,POINT (27.1548232403219 -80.8711841698162)
370,-81.1141976332078,27.4020325397432,371,OKF-105U,OKF-105U,SFWMD,Well,27.40202747,-81.11419464,,525,372,,POINT (27.4020325397432 -81.1141976332078)
371,-80.7855664615514,27.2378868903912,372,OKF-106,OKF-106,SFWMD,Well,27.23788185,-80.78556357,,818,717,,POINT (27.2378868903912 -80.7855664615514)
372,-81.1158992987037,27.4011555930094,373,OKF-42,OKF-42,SFWMD,Well,27.40115052,-81.1158963,,1152,370,,POINT (27.4011555930094 -81.1158992987037)
373,-81.5347127471156,28.4717657340729,374,ORF-61,ORF-61,SFWMD,Well,28.47176041,-81.5347096,,650,142,,POINT (28.4717657340729 -81.5347127471156)
374,-81.1614730503028,28.3947080982421,375,ORF-62,ORF-62,SFWMD,Well,28.39470279,-81.16147001,,600,290,,POINT (28.3947080982421 -81.1614730503028)
377,-81.1327322800008,27.6596558460399,378,OSF-104U,OSF-104U,SFWMD,Well,27.65965071,-81.13272927,,550,330,,POINT (27.6596558460399 -81.1327322800008)
379,-81.1982821898101,27.803060445539,380,OSF-52,OSF-52,SFWMD,Well,27.80305528,-81.19827916,,880,172,,POINT (27.803060445539 -81.1982821898101)
380,-81.0448670795859,27.9007020555836,381,OSF-62,OSF-62,SFWMD,Well,27.90069686,-81.04486409,,630,260,,POINT (27.9007020555836 -81.0448670795859)
381,-81.279617771397,28.0724071200176,382,OSF-64,OSF-64,SFWMD,Well,28.07240189,-81.27961471,,610,310,,POINT (28.0724071200176 -81.279617771397)
382,-81.1897598917286,28.0272454279282,383,OSF-66,OSF-66,SFWMD,Well,28.0272402,-81.18975685,,640,342,,POINT (28.0272454279282 -81.1897598917286)
384,-80.1401193627383,26.9351374786054,385,PB-747,PB-747,SFWMD,Well,26.9351325,-80.14011667,,1264,995,,POINT (26.9351374786054 -80.1401193627383)
385,-80.2922130032065,26.3544546266578,386,PBF-14,PBF-14,SFWMD,Well,26.3544498,-80.29221028,,1225,1020,,POINT (26.3544546266578 -80.2922130032065)
386,-80.3635257155301,26.7378041106403,387,PBF-15U,PBF-15U,SFWMD,Well,26.73779919,-80.36352296,,1144,1144,,POINT (26.7378041106403 -80.3635257155301)
387,-80.1035113096798,26.6763435698871,388,PBF-3,PBF-3,SFWMD,Well,26.67633865,-80.10350863,,1252,1050,,POINT (26.6763435698871 -80.1035113096798)
388,-80.7159489698565,26.6998287950865,389,PBF-7U,PBF-7U,SFWMD,Well,26.69982389,-80.71594611,,1447,992,,POINT (26.6998287950865 -80.7159489698565)
389,-81.1329328144453,27.6593840639381,390,POF-20R,POF-20R,SFWMD,Well,27.65937893,-81.13292981,,397,287,,POINT (27.6593840639381 -81.1329328144453)
390,-81.3995098400199,28.0483544456067,391,POF-22,POF-22,SFWMD,Well,28.04834922,-81.39950674,,431.6,204.6,,POINT (28.0483544456067 -81.3995098400199)
392,-81.7231235010326,26.0959111729836,393,SCC-MZU,SCC-MZU,SFWMD,Well,26.09590644,-81.72312037,,910,850,,POINT (26.0959111729836 -81.7231235010326)
393,-80.4019472349778,27.4283384294131,394,SLF-21,SLF-21,SFWMD,Well,27.42833333,-80.40194445,,707,156,,POINT (27.4283384294131 -80.4019472349778)
394,-80.4897250343578,27.3377550707779,395,SLF-75,SLF-75,SFWMD,Well,27.33775,-80.48972222,,700,480,,POINT (27.3377550707779 -80.4897250343578)
395,-81.7259423323712,29.8378486299957,396,C-0123,Sungarden Twr,SJRWMD,Well,29.83784299,-81.72593908,,457,348,,POINT (29.8378486299957 -81.7259423323712)
396,-80.4306437186681,27.576901968151,397,IR0312,Oslo,SJRWMD,Well,27.57689684,-80.43064092,,568,120,,POINT (27.576901968151 -80.4306437186681)
406,-80.9422201095194,28.236940022821,407,OS0238,TH-4 Deer Pk,SJRWMD,Well,28.23693474,-80.94221714,,373,173,,POINT (28.236940022821 -80.9422201095194)
407,-81.0954120529942,28.4611922439472,408,OR0265,Cocoa F,SJRWMD,Well,28.46118691,-81.09540903,,375,200,,POINT (28.4611922439472 -81.0954120529942)
413,-81.5441667780881,30.1272222407066,414,D-1413,Julington Ck,SJRWMD,Well,30.12721653,-81.54416356,,430,375,,POINT (30.1272222407066 -81.5441667780881)
414,-81.8344445559855,30.0600000192463,415,C-1063,Lk Asbury,SJRWMD,Well,30.05999433,-81.83444126,,450,395,,POINT (30.0600000192463 -81.8344445559855)
421,-81.3418278327993,28.9441143779825,422,V-0083,Blue Spg,SJRWMD,Well,28.94410894,-81.34182472,,432,84,,POINT (28.9441143779825 -81.3418278327993)
427,-82.2869296540636,29.6846557002022,428,A-0693,Alachua Fairgrounds,SJRWMD,Well,29.68465011,-82.28692624,,440,192,,POINT (29.6846557002022 -82.2869296540636)
432,-82.0316682843711,30.0550032783797,433,C-1017,Camp Blanding N Rd,SJRWMD,Well,30.05499759,-82.03166493,,550,500,,POINT (30.0550032783797 -82.0316682843711)
442,-81.6156171346638,29.9591759780637,443,C-0579,Bayard Point,SJRWMD,Well,29.9591703,-81.61561391,,655,320,,POINT (29.9591759780637 -81.6156171346638)
443,-81.2744436430136,28.6600033022374,444,S-1056,Citrus Rd,SJRWMD,Well,28.65999793,-81.27444056,,365,166,,POINT (28.6600033022374 -81.2744436430136)
444,-81.6858338688412,29.9402813982474,445,C-1056,Walkill,SJRWMD,Well,29.94027573,-81.68583062,,440,385,,POINT (29.9402813982474 -81.6858338688412)
445,-81.6597228139273,29.872781339121,446,C-1026,Bayard nr Walkill,SJRWMD,Well,29.87277569,-81.65971958,,380,330,,POINT (29.872781339121 -81.6597228139273)
446,-81.705000661545,30.2294480294454,447,D-1394,NAS Jax WP 3,SJRWMD,Well,30.2294423,-81.7049974,,736,390,,POINT (30.2294480294454 -81.705000661545)
456,-81.895910020568,28.6894206409824,457,L-0095,Groveland Twr,SJRWMD,Well,28.68941528,-81.89590676,,365,150,,POINT (28.6894206409824 -81.895910020568)
458,-80.6099985620957,27.7780591108904,459,IR0921,Morrison,SJRWMD,Well,27.77805393,-80.6099957,,541,165,,POINT (27.7780591108904 -80.6099985620957)
459,-80.5786094878199,27.5875034298073,460,IR0954,SJWCD,SJRWMD,Well,27.5874983,-80.57860664,,480,432,,POINT (27.5875034298073 -80.5786094878199)
460,-80.7783318228238,27.7047257018887,461,IR0968,Blue Cyp S315,SJRWMD,Well,27.70472055,-80.77832892,,440,303,,POINT (27.7047257018887 -80.7783318228238)
461,-81.3973832982551,28.8239784199081,462,S-1230,Yankee Lk,SJRWMD,Well,28.82397301,-81.39738018,,404,120,,POINT (28.8239784199081 -81.3973832982551)
462,-80.4297206306011,27.6463924804628,463,IR1006,Dodger Stadium E,SJRWMD,Well,27.64638733,-80.42971783,,460,405,,POINT (27.6463924804628 -80.4297206306011)
463,-80.377220606854,27.6347259034104,464,IR1008,Vero Bch Pwr Plant,SJRWMD,Well,27.63472076,-80.37721782,,685,595,,POINT (27.6347259034104 -80.377220606854)
466,-82.2912518542032,30.4406721538518,467,BA0009,Taylor SR250 & SR125,SJRWMD,Well,30.44066639,-82.29124841,,898,417,,POINT (30.4406721538518 -82.2912518542032)
467,-82.2722239756056,30.2597253508368,468,BA0011,Sanderson,SJRWMD,Well,30.25971963,-82.27222055,,825,282,,POINT (30.2597253508368 -82.2722239756056)
468,-81.9799738268853,30.291153305891,469,D-0254,Seaboard RR,SJRWMD,Well,30.29114757,-81.97997048,,722,422,,POINT (30.291153305891 -81.9799738268853)
469,-80.4547208329811,27.8698315777185,470,BR0625,Sebastian SP,SJRWMD,Well,27.86982637,-80.45471802,,454,299,,POINT (27.8698315777185 -80.4547208329811)
470,-81.5431143726795,30.2861730775983,471,D-0547,Southside Twr,SJRWMD,Well,30.28616733,-81.54311115,,740,490,,POINT (30.2861730775983 -81.5431143726795)
471,-81.6421088679843,30.3847036955896,472,D-0667,Panama Pk,SJRWMD,Well,30.38469792,-81.64210562,,905,571,,POINT (30.3847036955896 -81.6421088679843)
472,-81.5260117762038,29.3786225278013,473,P-0696,Silver Pd,SJRWMD,Well,29.37861699,-81.5260086,,400,80,,POINT (29.3786225278013 -81.5260117762038)
473,-81.5524312154904,29.4052142494931,474,P-0705,Niles Rd,SJRWMD,Well,29.4052087,-81.55242803,,400,105,,POINT (29.4052142494931 -81.5524312154904)
476,-81.5756116010067,30.1578426012384,477,D-1313,Greenland Pines ES,SJRWMD,Well,30.15783688,-81.57560838,,422,374,,POINT (30.1578426012384 -81.5756116010067)
486,-81.0072962204503,28.1160284795954,487,OS0023,Bull Ck 1 Crabgrass,SJRWMD,Well,28.11602323,-81.00729323,,520,396,,POINT (28.1160284795954 -81.0072962204503)
487,-81.0191707953818,27.8075533460319,488,OS0230,Adams Rch,SJRWMD,Well,27.80754817,-81.01916782,,392,364,,POINT (27.8075533460319 -81.0191707953818)
488,-80.9591541674678,27.8289672657709,489,OS0231,Campbell Rch,SJRWMD,Well,27.82896209,-80.9591512,,420,364,,POINT (27.8289672657709 -80.9591541674678)
491,-81.644078263319,30.0609842843406,492,SJ0508,Greenbrier Rd,SJRWMD,Well,30.06097859,-81.64407502,,563,278,,POINT (30.0609842843406 -81.644078263319)
493,-81.4469112234974,30.2811722404998,494,D-0259,Bch Haven,SJRWMD,Well,30.28116649,-81.44690803,,845,365,,POINT (30.2811722404998 -81.4469112234974)
496,-81.1124964769905,28.5271450375264,497,OR0617,Long Brch,SJRWMD,Well,28.52713969,-81.11249345,,550,210,,POINT (28.5271450375264 -81.1124964769905)
497,-81.3743046817379,28.5614451211419,498,OR0468,Lk Ivanhoe,SJRWMD,Well,28.56143977,-81.37430157,,450,189,,POINT (28.5614451211419 -81.3743046817379)
499,-81.8301431938361,30.5947979884471,500,N-0220,Callahan Fairground,SJRWMD,Well,30.59479217,-81.83013988,,650,450,,POINT (30.5947979884471 -81.8301431938361)
506,-81.309011174359,29.1044615905292,507,V-0742,Lee AP,SJRWMD,Well,29.10445611,-81.30900807,,460,140,,POINT (29.1044615905292 -81.309011174359)
507,-81.3204891236083,29.2249782568176,508,V-0769,SR40 & 11,SJRWMD,Well,29.22497275,-81.32048601,,440,85,,POINT (29.2249782568176 -81.3204891236083)
511,-80.8048735112138,27.5305897214889,512,OK0001,Ft Drum,SJRWMD,Well,27.53058461,-80.8048706,,960,125,,POINT (27.5305897214889 -80.8048735112138)
516,-81.8591677660171,29.4283362799596,517,M-0471,Forest Rd 75,SJRWMD,Well,29.42833074,-81.85916449,,380,317,,POINT (29.4283362799596 -81.8591677660171)
519,-81.5742712213065,29.6591639072606,520,P-0172,Orange Mill,SJRWMD,Well,29.6591583,-81.57426802,,543,112,,POINT (29.6591639072606 -81.5742712213065)
527,-80.7541245520535,27.9980455784906,528,BR1995,Three Forks,SJRWMD,Well,27.99804035,-80.75412164,,385,235,,POINT (27.9980455784906 -80.7541245520535)
532,-81.7650764697626,28.5541701643771,533,L-0001,Clermont,SJRWMD,Well,28.55416483,-81.76507325,,525,112,,POINT (28.5541701643771 -81.7650764697626)
534,-80.477919422546,27.7773911620699,535,IR1183,Adams property,SJRWMD,Well,27.77738598,-80.4779166,,405,354,,POINT (27.7773911620699 -80.477919422546)
540,-80.824780510933,27.7689205631805,541,IR0189,Rollins Blue Cyp Rch,SJRWMD,Well,27.76891539,-80.82477759,,630,0,,POINT (27.7689205631805 -80.824780510933)
544,-80.9608936955992,28.1416855663894,545,OS0069,TH-6 Deer Pk,SJRWMD,Well,28.14168031,-80.96089072,,422,220,,POINT (28.1416855663894 -80.9608936955992)
545,-81.6209295712406,30.4527421109885,546,D-1307,Camden Rd,SJRWMD,Well,30.45273632,-81.62092632,,978,536,,POINT (30.4527421109885 -81.6209295712406)
547,-81.4494448518927,30.0450040013572,548,SJ2556,Twelve Mile Swamp,SJRWMD,Well,30.0449983,-81.44944167,,680,275,,POINT (30.0450040013572 -81.4494448518927)
550,-81.7968485376256,28.862556342871,551,L-0290,Leesburg Twr,SJRWMD,Well,28.86255093,-81.7968453,,400,190,,POINT (28.862556342871 -81.7968485376256)
551,-81.4333338346167,30.419726004823,552,D-1383,Ft. George,SJRWMD,Well,30.41972022,-81.43333064,,619,460,,POINT (30.419726004823 -81.4333338346167)
554,-81.4902642741505,29.907423328404,555,SJ0027,Bakersville Twr,SJRWMD,Well,29.90741766,-81.49026108,,464,225,,POINT (29.907423328404 -81.4902642741505)
560,-81.9310873932056,29.9810338631393,561,C-0128,Penny Frms Twr,SJRWMD,Well,29.98102819,-81.93108407,,405,366,,POINT (29.9810338631393 -81.9310873932056)
562,-80.7652403849519,27.6328872455768,563,IR1202,Prince parcel,SJRWMD,Well,27.63288211,-80.76523748,,460,411,,POINT (27.6328872455768 -80.7652403849519)
566,-81.638334609035,30.6675038419921,567,N-0320,Yulee Twr,SJRWMD,Well,30.667498,-81.63833135,,750,490,,POINT (30.6675038419921 -81.638334609035)
567,-80.5711096913646,27.7788924670297,568,IR0916,Sebastian Buffer,SJRWMD,Well,27.77888729,-80.57110684,,510,356,,POINT (27.7788924670297 -80.5711096913646)
571,-81.6214865243355,30.5360746655733,572,D-0673,Tisonia Twr,SJRWMD,Well,30.53606886,-81.62148327,,857,450,,POINT (30.5360746655733 -81.6214865243355)
574,-80.6555543633631,28.0875036735185,575,BR1983,Erna Nixon Pk,SJRWMD,Well,28.08749842,-80.65555148,,360,255,,POINT (28.0875036735185 -80.6555543633631)
577,-81.0797222051736,29.3258369448929,578,V-0900,Tomoka SP,SJRWMD,Well,29.32583141,-81.07971916,,477,200,,POINT (29.3258369448929 -81.0797222051736)
580,-81.3922232507257,30.1648939796645,581,SJ0355,Landrum MS,SJRWMD,Well,30.16488825,-81.39222008,,410,310,,POINT (30.1648939796645 -81.3922232507257)
583,-81.2356216240263,29.7155313611288,584,SJ0333,Ft Matanzas,SJRWMD,Well,29.71552573,-81.23561852,,352,170,,POINT (29.7155313611288 -81.2356216240263)
584,-81.3761876179264,29.9346940687187,585,SJ0331,Woodlawn Rd,SJRWMD,Well,29.93468839,-81.37618446,,527,275,,POINT (29.9346940687187 -81.3761876179264)
586,-81.4867569857527,30.4730202427095,587,D-1236,Pumpkin Hill,SJRWMD,Well,30.47301444,-81.48675378,,570,520,,POINT (30.4730202427095 -81.4867569857527)
587,-81.375624477784,28.5177840017152,588,OR0827,Wadeview Pk,SJRWMD,Well,28.51777866,-81.37562137,,460,365,,POINT (28.5177840017152 -81.375624477784)
588,-81.8484346692483,30.1182989776494,589,C-0592,Tynes ES,SJRWMD,Well,30.11829327,-81.84843137,,540,470,,POINT (30.1182989776494 -81.8484346692483)
589,-81.966217292069,30.0969096796019,590,C-0599,Canvasback Rd,SJRWMD,Well,30.09690398,-81.96621396,,470,400,,POINT (30.0969096796019 -81.966217292069)
592,-81.7228729751151,30.0841332190808,593,C-0495,Thunderbolt ES,SJRWMD,Well,30.08412752,-81.72286971,,470,420,,POINT (30.0841332190808 -81.7228729751151)
595,-80.5336309530572,27.8738356143471,596,BR1935,Micco,SJRWMD,Well,27.87383041,-80.53362811,,370,305,,POINT (27.8738356143471 -80.5336309530572)
596,-81.4537042817153,30.703297177452,597,N-0304,Ft Clinch SP,SJRWMD,Well,30.70329133,-81.45370107,,727,580,,POINT (30.703297177452 -81.4537042817153)
599,-81.8628772755275,29.9782997920212,600,C-0607,State Rd 16,SJRWMD,Well,29.97829412,-81.86287397,,420,320,,POINT (29.9782997920212 -81.8628772755275)
602,-81.8242728460708,30.4810740392366,603,N-0311,Red Shirt Farms,SJRWMD,Well,30.48106825,-81.82426954,,658,460,,POINT (30.4810740392366 -81.8242728460708)
608,-81.3696276106782,29.6251677969309,609,SJ0115,County Line,SJRWMD,Well,29.6251622,-81.36962447,,609,142,,POINT (29.6251677969309 -81.3696276106782)
610,-80.9459837206798,28.3976555774106,611,OR0029,Palmetto,SJRWMD,Well,28.39765026,-80.94598074,,390,244,,POINT (28.3976555774106 -80.9459837206798)
611,-81.7083084408646,28.4211000207834,612,L-0730,Keene Lk,SJRWMD,Well,28.42109471,-81.70830524,,465,385,,POINT (28.4211000207834 -81.7083084408646)
613,-80.6326101074836,27.6615333581398,614,IR0955,Delta Frms,SJRWMD,Well,27.66152821,-80.63260725,,430,380,,POINT (27.6615333581398 -80.6326101074836)
617,-81.7654792792972,30.4253722400304,618,D-1309,Dinsmore,SJRWMD,Well,30.42536646,-81.76547599,,620,510,,POINT (30.4253722400304 -81.7654792792972)
619,-82.1864692782472,30.2724875180396,620,BA0054,Macclenny Twr,SJRWMD,Well,30.27248179,-82.18646587,,706,370,,POINT (30.2724875180396 -82.1864692782472)
620,-82.3436767784941,30.5431872391478,621,BA0057,Eddy Twr,SJRWMD,Well,30.54318145,-82.34367332,,700,360,,POINT (30.5431872391478 -82.3436767784941)
626,-82.0108349239548,29.9830587600726,627,C-1014,Camp Blanding SR16,SJRWMD,Well,29.98305309,-82.01083158,,430,210,,POINT (29.9830587600726 -82.0108349239548)
628,-81.9566821267372,29.8200473183527,629,C-0453,Gold Head SP,SJRWMD,Well,29.82004169,-81.95667881,,375,196,,POINT (29.8200473183527 -81.9566821267372)
633,-81.5808945218876,28.7083592750173,634,OR0106,Plymouth Twr,SJRWMD,Well,28.7083539,-81.58089135,,395,100,,POINT (28.7083592750173 -81.5808945218876)
634,-81.9529921197121,30.7831710114176,635,N-0221,St. Marys WMA,SJRWMD,Well,30.78316515,-81.95298876,,812,540,,POINT (30.7831710114176 -81.9529921197121)
637,-81.7421032117027,28.4586053107627,638,L-0677,Lk Louisa SP,SJRWMD,Well,28.4586,-81.7421,,485,160,,POINT (28.4586053107627 -81.7421032117027)
646,-81.9377485917759,30.1572117572719,647,C-0583,Yellow Water Ck,SJRWMD,Well,30.15720605,-81.93774526,,540,480,,POINT (30.1572117572719 -81.9377485917759)
649,-81.9233236451267,30.4011059091988,650,N-0237,Carey State Forest,SJRWMD,Well,30.40110014,-81.92332031,,500,450,,POINT (30.4011059091988 -81.9233236451267)
653,-81.5840812230989,30.2716572401016,654,D-1499,Goodnow Rd,SJRWMD,Well,30.27165149,-81.58407799,,620,520,,POINT (30.2716572401016 -81.5840812230989)
656,-80.5135123844005,27.6905118389853,657,IR0963,Corrigan Rch,SJRWMD,Well,27.69050668,-80.51350956,,440,390,,POINT (27.6905118389853 -80.5135123844005)
661,-82.1758267497854,30.1728032256608,662,BA0019,Manning,SJRWMD,Well,30.17279752,-82.17582335,,710,410,,POINT (30.1728032256608 -82.1758267497854)
674,-81.7055562471562,30.5361149345388,675,D-1503,Wright,SJRWMD,Well,30.53610913,-81.70555297,,540,434,,POINT (30.5361149345388 -81.7055562471562)
676,-81.3928130104323,28.5599540044626,677,OR0046,Lk Adair,SJRWMD,Well,28.55994866,-81.3928099,,400,105,,POINT (28.5599540044626 -81.3928130104323)
677,-81.4573031974039,30.0857983844153,678,SJ0029,Durbin Twr,SJRWMD,Well,30.08579268,-81.45730001,,603,350,,POINT (30.0857983844153 -81.4573031974039)
678,-81.6942757830344,29.6641616261238,679,P-0123,DHQ,SJRWMD,Well,29.66415602,-81.69427254,,394,182,,POINT (29.6641616261238 -81.6942757830344)
680,-81.627778318384,30.1658370004382,681,D-1301,Mandarin Terrace,SJRWMD,Well,30.16583128,-81.62777508,,780,500,,POINT (30.1658370004382 -81.627778318384)
682,-81.4937006212115,30.385521150365,683,D-0424,Ft Caroline Nat Pk,SJRWMD,Well,30.38551537,-81.49369741,,705,424,,POINT (30.385521150365 -81.4937006212115)
683,-81.9330582832486,30.6913926826506,684,N-0334,Hilliard ES,SJRWMD,Well,30.69138685,-81.93305493,,565,515,,POINT (30.6913926826506 -81.9330582832486)
684,-81.3948071530867,30.3146895698297,685,D-0160,Neptune Bch,SJRWMD,Well,30.31468381,-81.39480398,,585,340,,POINT (30.3146895698297 -81.3948071530867)
686,-81.5200879225969,30.1916342345268,687,D-1350,Chesser Lk Rd E,SJRWMD,Well,30.1916285,-81.52008471,,570,470,,POINT (30.1916342345268 -81.5200879225969)
687,-81.7809329090193,30.1994099262723,688,D-1292,Indian Trls,SJRWMD,Well,30.1994042,-81.78092962,,621,432,,POINT (30.1994099262723 -81.7809329090193)
690,-80.3974105013966,27.7515587509532,691,IR0988,Capt Forsters Pres,SJRWMD,Well,27.75155357,-80.3974077,,490,440,,POINT (27.7515587509532 -80.3974105013966)
693,-81.083963997955,29.1732922426504,694,V-0099,I-95 & US92 Daytona,SJRWMD,Well,29.17328674,-81.08396095,,498,152,,POINT (29.1732922426504 -81.083963997955)
695,-81.0669436681183,28.3947256212052,696,OR0740,Cocoa A,SJRWMD,Well,28.39472031,-81.06694065,,516,301,,POINT (28.3947256212052 -81.0669436681183)
700,-81.0927770614037,28.546947802923,701,OR0007,Bithlo,SJRWMD,Well,28.54694245,-81.09277404,,492,151,,POINT (28.546947802923 -81.0927770614037)
704,-81.2231385994245,29.0960700037922,705,V-0081,Deland USGS,SJRWMD,Well,29.09606452,-81.22313552,,639,94,,POINT (29.0960700037922 -81.2231385994245)
783,-86.8092240845454,30.4130734573298,784,2051,COLONIAL PINES TRAILER PARK,NWFWMD,Well,30.41306784,-86.80921935,,1100,0,,POINT (30.4130734573298 -86.8092240845454)
785,-86.5205732094114,30.4798288233179,786,2995,EAFB MAIN #61 HARDSTAND,NWFWMD,Well,30.47982318,-86.52056856,,702,404,,POINT (30.4798288233179 -86.5205732094114)
787,-86.7994737537578,30.7365866335001,788,4788,STATE HATCHERY #3,NWFWMD,Well,30.73658094,-86.79946901,,587,510,,POINT (30.7365866335001 -86.7994737537578)
793,-84.6520046291537,29.989876654743,794,9092,NWFWMD TRACTOR RD. TH-2,NWFWMD,Well,29.98987106,-84.65200052,,476,210,,POINT (29.989876654743 -84.6520046291537)
798,-86.4203458717038,30.453643273806,799,2696,EAFB WHITE POINT #3,NWFWMD,Well,30.45363763,-86.42034125,,550,360,,POINT (30.453643273806 -86.4203458717038)
800,-86.2157412331237,30.5728660755793,801,3797,EAFB RANGE 63 #31,NWFWMD,Well,30.5728604,-86.21573666,,440,278,,POINT (30.5728660755793 -86.2157412331237)
802,-86.6755722469751,30.8002268043222,803,5078,BAKER #1,NWFWMD,Well,30.80022109,-86.67556754,,595,514,,POINT (30.8002268043222 -86.6755722469751)
809,-86.1148272346792,30.3726634785386,810,1371,POINT WASHINGTON/MCGEE,NWFWMD,Well,30.37265785,-86.1148227,,365,65,,POINT (30.3726634785386 -86.1148272346792)
811,-86.5875900413397,30.5058841414652,812,3210,NWFWMD-EAFB FLD#4 (LOWERMOST  FLRD),NWFWMD,Well,30.50587849,-86.58758537,,1371,938,,POINT (30.5058841414652 -86.5875900413397)
812,-86.4449507198529,30.576285285464,813,3815,EAFB FLD#2 BLDG 2102,NWFWMD,Well,30.57627962,-86.44494608,,585,436,,POINT (30.576285285464 -86.4449507198529)
815,-86.6506776529004,30.8543362742042,816,8350,OCWS-BAKER MONITOR,NWFWMD,Well,30.85433055,-86.65067295,,430,410,,POINT (30.8543362742042 -86.6506776529004)
816,-85.026363802628,29.7195682474397,817,8351,APALACHICOLA #5,NWFWMD,Well,29.71956273,-85.0263596,,420,326,,POINT (29.7195682474397 -85.026363802628)
817,-85.3464882179972,29.6761729523142,818,4,EAFB SAN BLAS #107,NWFWMD,Well,29.67616745,-85.34648393,,654,486,,POINT (29.6761729523142 -85.3464882179972)
819,-84.4636953730932,30.5186702730966,820,3342,NWFWMD-FGS-FLORIDAN #2,NWFWMD,Well,30.51866456,-84.4636913,,435,366,,POINT (30.5186702730966 -84.4636953730932)
821,-86.6613969863568,30.4117157592248,822,2035,MARY ESTHER #2,NWFWMD,Well,30.41171013,-86.6613923,,764,595,,POINT (30.4117157592248 -86.6613969863568)
822,-86.4818007836237,30.4826967207984,823,2994,EAFB POSTIL POINT,NWFWMD,Well,30.48269107,-86.48179614,,510,300,,POINT (30.4826967207984 -86.4818007836237)
824,-86.6305051632513,30.5875674074304,825,3923,EAFB FLD #5 WELL #2,NWFWMD,Well,30.58756174,-86.63050047,,710,524,,POINT (30.5875674074304 -86.6305051632513)
825,-84.4166226315775,30.6459799570659,826,4359,REGISTER/OLD GARLAND,NWFWMD,Well,30.64597421,-84.41661857,,505,436,,POINT (30.6459799570659 -84.4166226315775)
826,-86.5247699261478,30.3884234345082,827,6016,EAFB ISL NCO #71,NWFWMD,Well,30.38841781,-86.52476528,,725,485,,POINT (30.3884234345082 -86.5247699261478)
827,-86.6354795416506,30.4059496092577,828,7523,NWFWMD-LIZA JACKSON,NWFWMD,Well,30.40594399,-86.63547486,,917,835,,POINT (30.4059496092577 -86.6354795416506)
828,-87.0567675559527,30.3873713621391,829,7686,NWFWMD-TIGER POINT,NWFWMD,Well,30.38736575,-87.05676276,,1310,1140,,POINT (30.3873713621391 -87.0567675559527)
829,-85.9856918710904,30.2660600455439,830,9194,PINNACLE PORT #1R,NWFWMD,Well,30.26605443,-85.98568738,,490,380,,POINT (30.2660600455439 -85.9856918710904)
831,-85.824215526575,30.3915085297169,832,9748,NW BAY CTY - SITE #2 UFA MONITOR,NWFWMD,Well,30.39150288,-85.82421107,,424,291,,POINT (30.3915085297169 -85.824215526575)
833,-84.2297916299366,30.5006044255655,834,3156,USGS-OLSON RD./S677,NWFWMD,Well,30.5005987,-84.22978763,,444,289,,POINT (30.5006044255655 -84.2297916299366)
834,-85.5816769723181,30.0629438336569,835,289,TAFB #10/BACKUP#1,NWFWMD,Well,30.06293825,-85.5816726,,645,345,,POINT (30.0629438336569 -85.5816769723181)
837,-86.2880978920983,30.3732101899992,838,1376,NWFWMD-WEST HEWETT FLORIDAN,NWFWMD,Well,30.37320456,-86.28809331,,725,550,,POINT (30.3732101899992 -86.2880978920983)
839,-86.6323975466249,30.4364328691217,840,2394,WRIGHT ELEMENTARY,NWFWMD,Well,30.43642724,-86.63239286,,635,535,,POINT (30.4364328691217 -86.6323975466249)
841,-85.3867994366689,30.6167214208007,842,4183,COMPASS LAKE TOWER,NWFWMD,Well,30.61671571,-85.3867951,,522,438,,POINT (30.6167214208007 -85.3867994366689)
842,-86.8770189055178,30.6501487858936,843,4393,EAST MILTON #3/MILLERS BLUFF RD.,NWFWMD,Well,30.65014311,-86.87701415,,800,660,,POINT (30.6501487858936 -86.8770189055178)
843,-86.3542450619868,30.6793615899892,844,4553,EAFB FLD #1 WELL #2 BLDG#1030/USGS #19,NWFWMD,Well,30.6793559,-86.35424045,,630,323,,POINT (30.6793615899892 -86.3542450619868)
845,-86.4061860954044,30.8850789174768,846,5363,AL LAWSON,NWFWMD,Well,30.88507318,-86.40618146,,360,279,,POINT (30.8850789174768 -86.4061860954044)
849,-86.5630689833811,30.4572019543072,850,8127,EAFB HOUSING #16A,NWFWMD,Well,30.45719632,-86.56306432,,740,460,,POINT (30.4572019543072 -86.5630689833811)
851,-85.2880922674632,29.8131455659258,852,70,NWFWMD-PORT ST JOE FLORIDAN,NWFWMD,Well,29.81314003,-85.28808799,,407,354,,POINT (29.8131455659258 -85.2880922674632)
853,-85.2222945241632,29.6843747677311,854,11,INDIAN PASS CAMPGRND,NWFWMD,Well,29.68436926,-85.22229027,,550,450,,POINT (29.6843747677311 -85.2222945241632)
858,-86.1655244320466,30.3298752514584,859,1074,VAN BUTLER / USGS WALTON #21,NWFWMD,Well,30.32986963,-86.16551989,,466,424,,POINT (30.3298752514584 -86.1655244320466)
860,-86.7598390825907,30.554247705494,861,3642,EAFB METTS TOWER,NWFWMD,Well,30.55424205,-86.75983436,,796,600,,POINT (30.554247705494 -86.7598390825907)
865,-86.2220502888011,30.3532342100054,866,7751,NWFWMD-SEAGROVE DEEP FLORIDAN,NWFWMD,Well,30.35322858,-86.22204573,,645,539,,POINT (30.3532342100054 -86.2220502888011)
866,-84.8713191257186,29.7553433235845,867,9451,EPWSD SITE 3 APT MW-50D,NWFWMD,Well,29.75533779,-84.87131497,,455,425,,POINT (29.7553433235845 -84.8713191257186)
867,-85.8498979931616,30.2031478693499,868,679,ARGONAUT STREET 02,NWFWMD,Well,30.20314227,-85.84989354,,369,267,,POINT (30.2031478693499 -85.8498979931616)
873,-85.5079315023881,30.2433542297543,874,785,BAY CO - HARDERS PARK #2,NWFWMD,Well,30.24334861,-85.50792715,,460,215,,POINT (30.2433542297543 -85.5079315023881)
874,-86.6389438565877,30.4633423789471,875,2822,WRIGHT UPPER FLORIDAN,NWFWMD,Well,30.46333674,-86.63893917,,858,503,,POINT (30.4633423789471 -86.6389438565877)
876,-86.7374698324553,30.6284068360814,877,4262,EAFB 6204 FLD 96 CEG/CEVCE,NWFWMD,Well,30.62840116,-86.73746511,,690,527,,POINT (30.6284068360814 -86.7374698324553)
877,-86.5275393448961,30.6475549366015,878,4368,EAFB DF-WR-27,NWFWMD,Well,30.64754925,-86.52753468,,609,456,,POINT (30.6475549366015 -86.5275393448961)
880,-85.7630428381337,30.4081234086813,881,9941,NW BAY CTY - SITE #3 UFA MONITOR #1,NWFWMD,Well,30.40811776,-85.7630384,,471,230,,POINT (30.4081234086813 -85.7630428381337)
883,-85.7883648833859,30.1683387323797,884,563,ST THOMAS SQUARE,NWFWMD,Well,30.16833314,-85.78836045,,560,294,,POINT (30.1683387323797 -85.7883648833859)
884,-86.0669143467578,30.3269620356747,885,1062,NWFWMD-PT. WASH. FLORIDAN APT,NWFWMD,Well,30.32695641,-86.06690983,,610,295,,POINT (30.3269620356747 -86.0669143467578)
885,-86.6070678504782,30.4060770266957,886,1894,OKALOOSA SCHOOL BOARD/S673,NWFWMD,Well,30.4060714,-86.60706318,,672,504,,POINT (30.4060770266957 -86.6070678504782)
887,-86.3093916714154,30.4816404672654,888,2993,EAFB NR CAMP RUCKER,NWFWMD,Well,30.48163481,-86.30938708,,880,201,,POINT (30.4816404672654 -86.3093916714154)
888,-86.5878040019002,30.5061171815223,889,3209,EAFB FLD #4 WELL #2 BLDG#4204,NWFWMD,Well,30.50611153,-86.58779933,,591,442,,POINT (30.5061171815223 -86.5878040019002)
889,-84.5796094338366,30.5986007909331,890,4026,QUINCY #3,NWFWMD,Well,30.59859506,-84.57960532,,701,430,,POINT (30.5986007909331 -84.5796094338366)
901,-86.5293346790397,31.0176057640559,902,039AA26002,Virgil Lewis / Terry Parrish,GSA,Well,31.0176,-86.52933,,380,0,COVAA-1,POINT (31.0176057640559 -86.5293346790397)
915,-81.5497661385593,30.7205754536208,916,304313081330001,304313081330001,USGS,Well,30.7205696,-81.5497629,,575,575,120FLRDU,POINT (30.7205754536208 -81.5497661385593)
916,-81.551392139441,30.7350058569334,917,304406081330504,304406081330504,USGS,Well,30.735,-81.5513889,,1500,1500,120FLRDL,POINT (30.7350058569334 -81.551392139441)
919,-82.3604089791738,30.8288403542413,920,304942082213801,304942082213801,USGS,Well,30.8288345,-82.3604055,,700,700,120FLRDU,POINT (30.8288403542413 -82.3604089791738)
920,-83.2826556464558,30.8310412260524,921,304949083165301,304949083165301,USGS,Well,30.8310354,-83.2826519,,400,342,120FLRDU,POINT (30.8310412260524 -83.2826556464558)
933,-81.3930251135806,28.559676346899,934,OR0009,Lk Adair,SJRWMD,Well,28.559671,-81.393022,,1281,601,,POINT (28.559676346899 -81.3930251135806)
934,-81.3555111065887,28.6823993780249,935,S-1017,Charlotte St,SJRWMD,Well,28.682394,-81.355508,,480,380,,POINT (28.6823993780249 -81.3555111065887)
968,-82.5688299189036,30.5765888501382,969,N021713001,Sandlin Floridan,SRWMD,Well,30.57658306,-82.56882639,,401,306,,POINT (30.5765888501382 -82.5688299189036)
1005,-82.6686146554271,30.2569501528772,1006,S031601012,Falling Creek UFA,SRWMD,Well,30.25694444,-82.66861111,,361,122,,POINT (30.2569501528772 -82.6686146554271)
1014,-82.6361646427481,30.1751615251513,1015,S041705001,DOT Lake City UFA,SRWMD,Well,30.17515583,-82.63616111,,836,689,,POINT (30.1751615251513 -82.6361646427481)
1017,-82.383059017228,30.1297834720447,1018,S041923001,USGS At LkButler UFA,SRWMD,Well,30.12977778,-82.38305556,,717,694,,POINT (30.1297834720447 -82.383059017228)
1019,-82.0499705801403,30.1069995859855,1020,S042236001,Louis Hill Floridan,SRWMD,Well,30.10699389,-82.04996722,,438,418,,POINT (30.1069995859855 -82.0499705801403)
1094,-82.3443392581943,29.6494858600945,1095,S102006001,UF Anthropology UFA,SRWMD,Well,29.64948028,-82.34433583,,406,142,,POINT (29.6494858600945 -82.3443392581943)
1108,-82.9360313642882,29.2375887967404,1109,S141429001,Rosewood Tower UFA,SRWMD,Well,29.23758333,-82.93602778,,442,422,,POINT (29.2375887967404 -82.9360313642882)
1118,-82.5992034431847,28.096805205271,1119,19612,"ST PETE E-100 FLDN
ST PETE E-100 FLDN
ST PETE E-100 FLDN",SWFWMD,Well,28.0968,-82.5992,,1200,656,,POINT (28.096805205271 -82.5992034431847)
1127,-85.6280641738012,30.3088472646274,1128,9813,MCCALL SOD FARM - DOW #2,NWFWMD,Well,30.3088472,-85.6280639,NAD83,480,280,,POINT (30.3088472646274 -85.6280641738012)
1128,-84.8166655766749,30.3518381680367,1129,1198,HOSFORD-TELOGIA #2,NWFWMD,Well,30.3518381,-84.8166653,WGS84,458,250,,POINT (30.3518381680367 -84.8166655766749)
1131,-84.9742502764878,30.3745633672683,1132,7276,LAKE MYSTIC #1,NWFWMD,Well,30.3745633,-84.97425,NAD83,400,212,,POINT (30.3745633672683 -84.9742502764878)
1133,-86.3099327724201,30.3797111612199,1134,1445,SWUC #5,NWFWMD,Well,30.3797111,-86.3099325,WGS84,730,435,,POINT (30.3797111612199 -86.3099327724201)
1134,-86.3426149723661,30.3802000615211,1135,1453,SWUC #2,NWFWMD,Well,30.3802,-86.3426147,NAD83,600,400,,POINT (30.3802000615211 -86.3426149723661)
1135,-86.4211752726113,30.3856667604913,1136,1586,DWU #7,NWFWMD,Well,30.3856667,-86.421175,NAD83,606,425,,POINT (30.3856667604913 -86.4211752726113)
1136,-86.4647266724181,30.3890753607816,1137,1601,DWU #2,NWFWMD,Well,30.3890753,-86.4647264,NAD83,662,460,,POINT (30.3890753607816 -86.4647266724181)
1137,-86.4371863723851,30.3900944609503,1138,9743,DWU #10,NWFWMD,Well,30.3900944,-86.4371861,WGS84,670,490,,POINT (30.3900944609503 -86.4371863723851)
1138,-86.479800272422,30.3923192609238,1139,1654,DWU #3,NWFWMD,Well,30.3923192,-86.4798,NAD83,746,465,,POINT (30.3923192609238 -86.479800272422)
1140,-86.9228796704776,30.4034269583506,1141,1841,H-N #4,NWFWMD,Well,30.4034269,-86.9228794,NAD83,1104,926,,POINT (30.4034269583506 -86.9228796704776)
1141,-86.8707477710956,30.4050192586948,1142,1887,MIDWAY #1,NWFWMD,Well,30.4050192,-86.8707475,WGS84,1092,744,,POINT (30.4050192586948 -86.8707477710956)
1142,-86.6799116722442,30.4137406597104,1143,1940,MARY ESTHER #3,NWFWMD,Well,30.4137406,-86.6799114,WGS84,902,665,,POINT (30.4137406597104 -86.6799116722442)
1143,-86.7021846717757,30.4166558594274,1144,2073,EAFB HURLBURT #1 #90308,NWFWMD,Well,30.4166558,-86.7021844,WGS84,805,550,,POINT (30.4166558594274 -86.7021846717757)
1144,-86.900849671099,30.4324781587032,1145,2318,MIDWAY #2,NWFWMD,Well,30.4324781,-86.9008494,WGS84,1104,933,,POINT (30.4324781587032 -86.900849671099)
1146,-86.8672502716477,30.447888958267,1147,2627,H-N #2,NWFWMD,Well,30.4478889,-86.86725,WGS84,966,765,,POINT (30.447888958267 -86.8672502716477)
1148,-86.602501072567,30.4633008594403,1149,7209,OCWS-11 (FOREST),NWFWMD,Well,30.4633008,-86.6025008,NAD83,745,495,,POINT (30.4633008594403 -86.602501072567)
1149,-85.9618058740053,30.4759167629444,1150,8505,FREEPORT BRUCE MONITOR,NWFWMD,Well,30.4759167,-85.9618056,WGS84,372,167,,POINT (30.4759167629444 -85.9618058740053)
1152,-86.0408558738666,30.4974194623096,1153,9969,FREEPORT #7,NWFWMD,Well,30.4974194,-86.0408556,WGS84,610,310,,POINT (30.4974194623096 -86.0408558738666)
1153,-86.2210933734293,30.51202816099,1154,8762,FREEPORT PORTLAND TEST,NWFWMD,Well,30.5120281,-86.2210931,WGS84,500,250,,POINT (30.51202816099 -86.2210933734293)
1155,-85.9094391745148,30.5328222623379,1156,9413,RU CHOCTAWHATCHEE R. FLD MONITOR,NWFWMD,Well,30.5328222,-85.9094389,WGS84,560,420,,POINT (30.5328222623379 -85.9094391745148)
1156,-86.4640563729608,30.5341831598891,1157,3432,NICEVILLE #10/COLLEGE BLVD@GRACIE LN.,NWFWMD,Well,30.5341831,-86.4640561,NAD83,600,350,,POINT (30.5341831598891 -86.4640563729608)
1158,-85.9387216752237,30.5389278624146,1159,3502,FAF #79,NWFWMD,Well,30.5389278,-85.9387214,WGS84,441,198,,POINT (30.5389278624146 -85.9387216752237)
1159,-86.1134224744616,30.5434428617797,1160,3540,FREEPORT HIGH #1/OWL'S HEAD #5/FAF #8,NWFWMD,Well,30.5434428,-86.1134222,WGS84,500,210,,POINT (30.5434428617797 -86.1134224744616)
1160,-85.9993599748868,30.5476156621672,1161,3588,FAF #65/AKA USGS 40,NWFWMD,Well,30.5476156,-85.9993597,WGS84,498,224,,POINT (30.5476156621672 -85.9993599748868)
1161,-86.0298030748393,30.5630872618382,1162,3718,SWU-FAF #47 MONITOR/S655,NWFWMD,Well,30.5630872,-86.0298028,WGS84,440,234,,POINT (30.5630872618382 -86.0298030748393)
1162,-85.9584677748721,30.5727578621179,1163,3780,FAF #98,NWFWMD,Well,30.5727578,-85.9584675,WGS84,440,197,,POINT (30.5727578621179 -85.9584677748721)
1164,-85.9915352749236,30.5840694622405,1165,3921,FAF #93,NWFWMD,Well,30.5840694,-85.991535,WGS84,440,202,,POINT (30.5840694622405 -85.9915352749236)
1165,-84.6569446789683,30.6058333679571,1166,4102,GRETNA ELEMENTARY,NWFWMD,Well,30.6058333,-84.6569444,WGS84,467,318,,POINT (30.6058333679571 -84.6569446789683)
1166,-86.1122474750296,30.608019461633,1167,7250,RU MONITOR/ROCK HILL APT PROD./DEEP,NWFWMD,Well,30.6080194,-86.1122472,NAD83,710,284,,POINT (30.608019461633 -86.1122474750296)
1168,-86.236308574074,30.6574056610561,1169,4490,EAFB SITE C-62,NWFWMD,Well,30.6574056,-86.2363083,WGS84,620,354,,POINT (30.6574056610561 -86.236308574074)
1170,-86.6205791734396,30.735993358951,1171,4791,OCWS-MC #1 (ANTIOCH),NWFWMD,Well,30.7359933,-86.6205789,NAD83,740,401,,POINT (30.735993358951 -86.6205791734396)
1171,-86.5608566745039,30.7553036588384,1172,4855,CRESTVIEW #4,NWFWMD,Well,30.7553036,-86.5608564,WGS84,643,423,,POINT (30.7553036588384 -86.5608566745039)
1173,-86.5257288743533,30.7813900587822,1174,4997,OCWS-MC #3 (INDUSTRIAL PARK),NWFWMD,Well,30.78139,-86.5257286,NAD83,603,392,,POINT (30.7813900587822 -86.5257288743533)
1174,-86.5259394748639,30.8432850588684,1175,5236,AUBURN #2,NWFWMD,Well,30.843285,-86.5259392,WGS84,500,350,,POINT (30.8432850588684 -86.5259394748639)
1176,-86.5408338756076,30.9251500583416,1177,5499,W.D. FLOURNOY,NWFWMD,Well,30.92515,-86.5408336,WGS84,500,400,,POINT (30.9251500583416 -86.5408338756076)
1177,-86.8410002744119,30.9384444565656,1178,12335,CAMP PAQUETTE OIL&GAS,NWFWMD,Well,30.9384444,-86.841,NAD83,470,440,,POINT (30.9384444565656 -86.8410002744119)
1183,-82.3281422571593,28.1170052119785,1184,18550,MORRIS BRIDGE 3A FLDN,SWFWMD,Well,28.117,-82.32813889,,600,100,,POINT (28.1170052119785 -82.3281422571593)
1192,-82.4217311531898,27.3274994696322,1193,25682,SARASOTA 9 DEEP,SWFWMD,Well,27.32749445,-82.42172778,,730,101,,POINT (27.3274994696322 -82.4217311531898)
1236,-82.3136974202136,29.6680705858256,1237,McGurn,McGurn,ACEPD,Well,29.668065,-82.313694,WGS84,420,190,,POINT (29.6680705858256 -82.3136974202136)
1289,-82.3301200092951,27.3389828074857,1290,25734,VERNA TEST 0-4,SWFWMD,Well,27.33897778,-82.33011666,,500,140,,POINT (27.3389828074857 -82.3301200092951)
1290,-82.2436755442913,27.3501689238645,1291,25583,VERNA TEST 0-2,SWFWMD,Well,27.35016389,-82.24367222,,530,140,,POINT (27.3501689238645 -82.2436755442913)
1291,-82.2711699987149,27.4014494896967,1292,26160,VERNA TEST 0-1,SWFWMD,Well,27.40144445,-82.27116667,,480,140,,POINT (27.4014494896967 -82.2711699987149)
1292,-81.9288921636776,28.7503359343388,1293,785821,ROMP 111.5 U FLDN AQ MONITOR,SWFWMD,Well,28.75033056,-81.92888889,,390,100,,POINT (28.7503359343388 -81.9288921636776)
1293,-82.483400617237,27.4973300622235,1294,830415,BENNETT PARK U FLDN AQ MONITOR,SWFWMD,Well,27.497325,-82.48339722,,1095,889,,POINT (27.4973300622235 -82.483400617237)
1294,-82.4363367171462,27.5815023064545,1295,833271,ROMP 38 U FLDN AQ (SWNN) MONITOR,SWFWMD,Well,27.58149722,-82.43633333,,640,425,,POINT (27.5815023064545 -82.4363367171462)
1297,-84.4636523724205,30.5184771179028,1298,3340,NWFWMD-HQ FLORIDAN OBS,NWFWMD,Well,30.5184714,-84.4636483,,356,232,,POINT (30.5184771179028 -84.4636523724205)
1298,-84.6886624369255,30.5228701126664,1299,3375,MARCUS EDWARDS,NWFWMD,Well,30.5228644,-84.6886583,,432,,,POINT (30.5228701126664 -84.6886624369255)
1299,-84.5985288119362,30.5558421223372,1300,3653,BUCK REGISTER,NWFWMD,Well,30.5558364,-84.5985247,,396,273,,POINT (30.5558421223372 -84.5985288119362)
1300,-84.7466402554347,30.5714035212383,1301,3785,GREENSBORO #3,NWFWMD,Well,30.5713978,-84.7466361,,420,264,,POINT (30.5714035212383 -84.7466402554347)
1302,-82.0859249510975,26.5217498319285,1303,L-2525,L-2525,SFWMD,Well,26.521745,-82.0859217,,645,405,,POINT (26.5217498319285 -82.0859249510975)
1303,-82.0819472474332,26.4286158095929,1304,L-588,L-588,SFWMD,Well,26.428611,-82.081944,,557,403,,POINT (26.4286158095929 -82.0819472474332)
1304,-82.0553715453301,26.649796264298,1305,L-6433,LM-3353 SITE M,SFWMD,Well,26.6497914,-82.0553683,,645,488,,POINT (26.649796264298 -82.0553715453301)
1307,-81.0453440026473,28.2752942874153,1308,OS0052,TH-9 NOVA ROAD 532 WEST OSF-93,SFWMD,Well,28.2752886,-81.0453408,,405,288,,POINT (28.2752942874153 -81.0453440026473)
1308,-81.4500753157677,28.1516877472702,1309,OSF-11,REEDY CR OVERLOOK WELL-SR531,SFWMD,Well,28.1516825,-81.4500722,,398,134,,POINT (28.1516877472702 -81.4500753157677)
1309,-81.2345155562299,28.2455735751871,1310,OSF-12,OS-250 @ LIVE OAK LAKE,SFWMD,Well,28.2455683,-81.2345125,,400,,,POINT (28.2455735751871 -81.2345155562299)
1311,-81.1581205357936,28.2875141879082,1312,OSF-22,81710901USGS OB WELL NR LAKE JOEL W. NR,SFWMD,Well,28.2875089,-81.1581175,,750,394,,POINT (28.2875141879082 -81.1581205357936)
1312,-81.2220111428189,27.9361366005064,1313,OSF-4,JOE OVERSTREET WELL,SFWMD,Well,27.9361314,-81.2220081,,400,287.83,,POINT (27.9361366005064 -81.2220111428189)
1313,-80.8961637407859,27.6967387505034,1314,OSF-60,OSF-60 YEEHAW JUNCTION - DEEP WELL,SFWMD,Well,27.6967336,-80.8961608,,590,328,,POINT (27.6967387505034 -80.8961637407859)
1315,-81.0511737946677,27.9814135162349,1316,OSF-84,TH-10 RD TO RT OFF WILLIAMS RD,SFWMD,Well,27.9814083,-81.0511708,,405,242,,POINT (27.9814135162349 -81.0511737946677)
1316,-80.9858976855443,28.2752935890373,1317,OSF-92,816059    25S33E26 TH-3   LAKE POINSETT SW,SFWMD,Well,28.2752883,-80.9858947,,377,245,,POINT (28.2752935890373 -80.9858976855443)
1318,-81.6951972517261,29.9881996783979,1319,C-0672,Green Cove Spg ,SJRWMD,Well,29.988194,-81.695194,,480,428,,POINT (29.9881996783979 -81.6951972517261)
1320,-81.4585582070811,30.617170832249,1321,N-0344,Fernandina Bch AP,SJRWMD,Well,30.617165,-81.458555,,638,542,,POINT (30.617170832249 -81.4585582070811)
1322,-81.2275708563861,28.2889052858515,1323,OSF-31,SOUTH EAGLE ROAD GROVE WELL,SFWMD,Well,28.2889,-81.2275678,,474,245,,POINT (28.2889052858515 -81.2275708563861)
1324,-81.1320121323292,28.4258439220825,1325,282532081076000,"COCOA B WELL NEAR BITHLO, FL",USGS,Well,28.4258386,-81.1320091,NAD83,515,,,POINT (28.4258439220825 -81.1320121323292)
1325,-81.2603487703898,28.4433439230269,1326,282623081154000,"COCOA P WELL NEAR TAFT, FL",USGS,Well,28.4433386,-81.2603457,NAD83,439,,,POINT (28.4433439230269 -81.2603487703898)
1327,-81.8737204199815,30.4046879702825,1328,302416081523000,"D-348 MONTICELLO DRUG CO. WELL AT JACKSONVILLE, FL",USGS,Well,30.4046822,-81.8737171,NAD83,708,,,POINT (30.4046879702825 -81.8737204199815)
1328,-81.5195436318481,30.7991304434281,1329,304756081311101,304756081311101,USGS,Well,30.79912457,-81.5195404,NAD83,1306,990,,POINT (30.7991304434281 -81.5195436318481)
1356,-81.2656270619776,28.1308552471124,1357,CCR-W,CCR-W,SFWMD,Well,28.13085,-81.265624,,816,0,,POINT (28.1308552471124 -81.2656270619776)
1357,-80.0633316675924,26.7047249242471,1358,PBF-2,PBF-2,SFWMD,Well,26.70472,-80.063329,,1090,946,,POINT (26.7047249242471 -80.0633316675924)
1359,-80.7854338946116,27.2390600401289,1360,TCRK_GW1,TCRK_GW1,SFWMD,Well,27.239055,-80.785431,,1800,990,,POINT (27.2390600401289 -80.7854338946116)
1386,-81.7305646637822,26.1703897961891,1387,I75-MZ1,SFWMD Tri-Zone FAS well - Naples,SFWMD,Well,26.1703897,-81.7305644,,2350,2300,,POINT (26.1703897961891 -81.7305646637822)
1387,-81.8092519650728,26.5209108949424,1388,L-5641,L-5641 ,SFWMD,Well,26.5209108,-81.8092517,,1410,950,,POINT (26.5209108949424 -81.8092519650728)
1388,-81.6023024675015,26.7422881940944,1389,L-5708,L-5708 ,SFWMD,Well,26.7422881,-81.6023022,,920,620,,POINT (26.7422881940944 -81.6023024675015)
1392,-81.7344722864366,30.6098890806547,1393,N-0341,Four Ck SF,SJRWMD,Well,30.609889,-81.734472,,538,438,,POINT (30.6098890806547 -81.7344722864366)
1401,-81.1959730535499,28.502135339394,1402,OR0678,Alafaya Trl WTP,SJRWMD,Well,28.50213,-81.19597,,470,425,,POINT (28.502135339394 -81.1959730535499)
1404,-81.0547850006688,28.1408522557582,1405,HOLOPAW1,HOLOPAW1,SFWMD,Well,28.140847,-81.054782,,1100,,,POINT (28.1408522557582 -81.0547850006688)
1405,-81.3852531065367,28.4445053201321,1406,SKYLAKE,SKYLAKE,SFWMD,Well,28.4445,-81.38525,,400,100,,POINT (28.4445053201321 -81.3852531065367)
1407,-81.3141697387626,26.9250632502352,1408,GL-267,GL-267,SFWMD,Well,26.9250583,-81.3141667,,600,450,,POINT (26.9250632502352 -81.3141697387626)
1410,-83.9798958467939,30.8329762453941,1411,304959083584801,14E031,USGS,Well,30.83297044,-83.9798919,NAD83,405,,120FLRDU,POINT (30.8329762453941 -83.9798958467939)
1411,-81.5774754609882,31.0696809338306,1412,310410081343801,33G050,USGS,Well,31.069675,-81.5774722,NAD83,650,,120FLRDU,POINT (31.0696809338306 -81.5774754609882)
1412,-83.8212871112968,31.0788040556203,1413,310443083491701,15G010,USGS,Well,31.07879819,-83.8212832,NAD83,431,,120FLRDU,POINT (31.0788040556203 -83.8212871112968)
1415,-82.2654061636116,31.1185619640058,1416,310706082155101,27G003,USGS,Well,31.11855604,-82.2654027,NAD83,1856,,120FLRD,POINT (31.1185619640058 -82.2654061636116)
1416,-81.490936837679,31.1363479112997,1417,310810081292801,34H504,USGS,Well,31.13634196,-81.4909336,NAD83,759,,120FLRDU,POINT (31.1363479112997 -81.490936837679)
1417,-81.490936837679,31.1363479112997,1418,310810081292802,34H505,USGS,Well,31.13634196,-81.4909336,NAD83,1000,,120FLRDU,POINT (31.1363479112997 -81.490936837679)
1418,-83.4340533021189,31.1371413415252,1419,310813083260301,18H016,USGS,Well,31.13713545,-83.4340495,NAD83,865,,120FLRDU,POINT (31.1371413415252 -83.4340533021189)
1419,-81.4933813391686,31.1385978521699,1420,310818081293701,34H371,USGS,Well,31.1385919,-81.4933781,NAD83,700,,120FLRDU,POINT (31.1385978521699 -81.4933813391686)
1420,-81.4947703296492,31.1395978121234,1421,310818081294201,34H391,USGS,Well,31.13959186,-81.49476709,NAD83,1158,,120FLRDL,POINT (31.1395978121234 -81.4947703296492)
1421,-81.4785199349987,31.1505422252204,1422,310901081284401,34H436,USGS,Well,31.15053627,-81.4785167,NAD83,1103,,120FLRDL,POINT (31.1505422252204 -81.4785199349987)
1422,-81.5226048483171,31.1571805455229,1423,310925081312201,33H206,USGS,Well,31.15717459,-81.5226016,NAD83,1100,,120FLRDL,POINT (31.1571805455229 -81.5226048483171)
1423,-81.5226048483171,31.1571805455229,1424,310925081312202,33H207,USGS,Well,31.15717459,-81.5226016,NAD83,720,,120FLRDU,POINT (31.1571805455229 -81.5226048483171)
1424,-81.4861143371429,31.1586170565669,1425,310931081291002,34H514,USGS,Well,31.1586111,-81.4861111,NAD83,685,,120FLRDU,POINT (31.1586170565669 -81.4861143371429)
1425,-81.5044100237724,31.1687360584997,1426,311007081301701,33H127,USGS,Well,31.1687301,-81.50440678,NAD83,952,,120FLRDU,POINT (31.1687360584997 -81.5044100237724)
1426,-81.5044100233887,31.1687971581979,1427,311007081301702,33H133,USGS,Well,31.1687912,-81.50440678,NAD83,790,,120FLRDU,POINT (31.1687971581979 -81.5044100233887)
1427,-81.5127810456962,31.1727837392551,1428,311022081304601,33H324,USGS,Well,31.17277778,-81.5127778,NAD83,740,,120FLRDU,POINT (31.1727837392551 -81.5127810456962)
1428,-81.5127810456962,31.1727837392551,1429,311022081304602,33H325,USGS,Well,31.17277778,-81.5127778,NAD83,1000,,120FLRDU,POINT (31.1727837392551 -81.5127810456962)
1429,-81.4832810375119,31.174533740557,1430,311028081285902,34H552,USGS,Well,31.17452778,-81.4832778,NAD83,750,,120FLRDU,POINT (31.174533740557 -81.4832810375119)
1430,-81.4985310426389,31.1808948518603,1431,311051081295401,34H560,USGS,Well,31.18088889,-81.4985278,NAD83,724,,120FLRDU,POINT (31.1808948518603 -81.4985310426389)
1433,-81.351419901929,31.248839311504,1434,311456081210501,35H068,USGS,Well,31.24883333,-81.3514167,NAD83,1571,,120FLRDL,POINT (31.248839311504 -81.351419901929)
1434,-81.3514754022658,31.2483948718103,1435,311456081210503,35H070,USGS,Well,31.24838889,-81.3514722,NAD83,780,,120FLRDU,POINT (31.2483948718103 -81.3514754022658)
1440,-83.4923894136007,31.4535247607414,1441,312712082593301,18K049,USGS,Well,31.4535188,-83.49238558,NAD83,620,,120FLRDU,POINT (31.4535247607414 -83.4923894136007)
1446,-83.8210131309946,31.5296300072144,1447,313146083491601,15L020,USGS,Well,31.52962404,-83.8210092,NAD83,450,,120FLRDU,POINT (31.5296300072144 -83.8210131309946)
1448,-81.7265047243296,31.5480027187967,1449,313253081433501,32L005,USGS,Well,31.54799668,-81.7265014,NAD83,2070,,120FLRDL,POINT (31.5480027187967 -81.7265047243296)
1449,-81.7265047243296,31.5480027187967,1450,313253081433502,32L015,USGS,Well,31.54799668,-81.7265014,NAD83,750,,120FLRDU,POINT (31.5480027187967 -81.7265047243296)
1451,-81.9092848810724,31.6171640390074,1452,313701081543501,30L003,USGS,Well,31.61715799,-81.9092815,NAD83,594,,120FLRDU,POINT (31.6171640390074 -81.9092848810724)
1453,-81.2614914919725,31.6399479140278,1454,313823081154201,35M013,USGS,Well,31.63994184,-81.2614883,NAD83,553,,120FLRDU,POINT (31.6399479140278 -81.2614914919725)
1454,-81.6009468921621,31.6485560052978,1455,313845081361701,33M004,USGS,Well,31.64854994,-81.6009436,NAD83,870,,120FLRDU,POINT (31.6485560052978 -81.6009468921621)
1456,-81.3978904320422,31.8707730021377,1457,315214081235301,34N089,USGS,Well,31.87076688,-81.39788719,NAD83,789,,120FLRDU,POINT (31.8707730021377 -81.3978904320422)
1457,-81.3163921103142,31.9119505747284,1458,315443081185902,35P110,USGS,Well,31.91194444,-81.31638889,NAD83,441.25,,120FLRDU,POINT (31.9119505747284 -81.3163921103142)
1458,-81.3162810200866,31.9120061345072,1459,315443081185903,35P125,USGS,Well,31.912,-81.3162778,NAD83,1095,,120FLRDL,POINT (31.9120061345072 -81.3162810200866)
1459,-81.0198368357824,31.9852206607084,1460,315906081011202,37P114,USGS,Well,31.9852145,-81.0198337,NAD83,400,,120FLRDU,POINT (31.9852206607084 -81.0198368357824)
1461,-80.8503912873889,32.0229979244658,1462,320122080510204,39Q003,USGS,Well,32.02299175,-80.8503882,NAD83,600,,120FLRDU,POINT (32.0229979244658 -80.8503912873889)
1462,-80.8531690890512,32.0243867146556,1463,320127080511201,39Q024,USGS,Well,32.02438054,-80.853166,NAD83,888,,120FLRDL,POINT (32.0243867146556 -80.8531690890512)
1466,-82.501245671761,32.0404714851618,1467,320226082301101,25Q001,USGS,Well,32.04046536,-82.5012421,NAD83,536,,120FLRDU,POINT (32.0404714851618 -82.501245671761)
1467,-81.0740039559424,32.0760477792489,1468,320433081042701,37Q016,USGS,Well,32.0760416,-81.0740008,NAD83,500,,120FLRDU,POINT (32.0760477792489 -81.0740039559424)
1468,-81.1470598682643,32.0918788609033,1469,320530081085001,36Q008,USGS,Well,32.09187268,-81.14705669,NAD83,406,,,POINT (32.0918788609033 -81.1470598682643)
1470,-82.409853653693,32.2174139281478,1471,321302082243601,26R001,USGS,Well,32.21740776,-82.4098501,NAD83,1000,,120FLRDU,POINT (32.2174139281478 -82.409853653693)
1472,-81.8542839845924,32.52323139459,1473,323123081511601,31U008,USGS,Well,32.52322514,-81.85428058,NAD83,860,,120FLRD,POINT (32.52323139459 -81.8542839845924)
1475,-82.4324474844188,30.4432557635924,1476,BA0121,"Osceola Natl For, Sandhill Rd",SJRWMD,Well,30.44325,-82.432444,NAD83,400,350,,POINT (30.4432557635924 -82.4324474844188)
1483,-80.7644028976775,27.5600051195345,1484,IR1195,Ft. Drum Marsh CA,SJRWMD,Well,27.56,-80.7644,,490,437,,POINT (27.5600051195345 -80.7644028976775)
1487,-81.443603199852,30.5222258109606,1488,N-0347,Amelia Island SP,SJRWMD,Well,30.52222,-81.4436,,510,460,,POINT (30.5222258109606 -81.443603199852)
1488,-80.9786029773424,28.1077852480608,1489,OS0264,Bull Creek north,SJRWMD,Well,28.10778,-80.9786,,425,317,,POINT (28.1077852480608 -80.9786029773424)
1491,-82.1245088931759,28.9236526375628,1492,872383,ROMP 115 U FLDN AQ MONITOR,SWFWMD,Well,28.92364722,-82.12450556,,370,120,,POINT (28.9236526375628 -82.1245088931759)
1494,-82.3393978646738,29.4741860948745,1495,787986,ROMP 133 U FLDN AQ PRODUCTION/MONITOR,SWFWMD,Well,29.47418056,-82.33939444,,1296,308,,POINT (29.4741860948745 -82.3393978646738)
1500,-82.4362908427994,27.5815364113433,1501,863048,ROMP 38 AVPK PZ 4.5-INCH MONITOR,SWFWMD,Well,27.58153133,-82.43628746,,1200,1100,,POINT (27.5815364113433 -82.4362908427994)
1502,-82.3564339131389,27.4885633965334,1503,889859,ROMP 34 OCAL-AVPK FLDN,SWFWMD,Well,27.48855833,-82.35643056,,1140,806,,POINT (27.4885633965334 -82.3564339131389)
1503,-81.4958332397976,31.1430659535731,1504,310835081294502,34H500,USGS,Well,31.14306,-81.49583,NAD83,1400,,120FLRDL,POINT (31.1430659535731 -81.4958332397976)
1504,-81.6117833164731,32.1318761755562,1505,320754081364301,33R045,USGS,Well,32.13187,-81.61178,NAD83,994,,120FLRDL,POINT (32.1318761755562 -81.6117833164731)
1511,-81.2881741838248,28.249131942027,1512,OSF-44,OSF-44,SFWMD,Well,28.2491,81.2882,,614,,,POINT (28.249131942027 -81.2881741838248)
1512,-81.9337704281627,26.4905781617192,1513,FMB-MZU,FMB-MZU,SFWMD,Well,26.4906,81.9338,,1650,,,POINT (26.4905781617192 -81.9337704281627)
1513,-81.7233364641711,25.9591713678497,1514,MIU-MZ1,MIU-MZ1,SFWMD,Well,25.9592,81.7233,,1977,1600,,POINT (25.9591713678497 -81.7233364641711)
1515,-86.5526646887139,31.0852957786551,1516,COV-1,Covington 1,GSA,Well,31.08529,-86.55266,,420,,,POINT (31.0852957786551 -86.5526646887139)
1521,-82.4636034096422,28.1413052187174,1522,637949,CRYSTAL LAKES MANOR 2 FLDN,SWFWMD,Well,28.1413,-82.4636,,560,140,,POINT (28.1413052187174 -82.4636034096422)
1522,-82.1594033182476,28.0359052012141,1523,788472,DOVER NORTH AVPK HPZ MONITOR,SWFWMD,Well,28.0359,-82.1594,,800,470,,POINT (28.0359052012141 -82.1594033182476)
1523,-82.2985033568342,27.9886051861723,1524,789584,DOVER WEST AVPK HPZ MONITOR,SWFWMD,Well,27.9886,-82.2985,,842,530,,POINT (27.9886051861723 -82.2985033568342)
1524,-82.2105033301847,27.938205176026,1525,793066,DOVER SOUTH AVPK HPZ MONITOR,SWFWMD,Well,27.9382,-82.2105,,843,530,,POINT (27.938205176026 -82.2105033301847)
1525,-82.0741032903616,27.9456051816548,1526,798549,DOVER EAST AVPK HPZ MONITOR,SWFWMD,Well,27.9456,-82.0741,,850,530,,POINT (27.9456051816548 -82.0741032903616)
1526,-81.6622031627244,27.6829051274538,1527,841776,ROMP 42 U FLDN AQ  (AVPK) MONITOR,SWFWMD,Well,27.6829,-81.6622,,1380,590,LFA,POINT (27.6829051274538 -81.6622031627244)
1529,-81.837303226909,28.1088052268903,1530,861747,ROMP 75 L FLDN AQ (BELOW MCU I) MONITOR,SWFWMD,Well,28.1088,-81.8373,,1065,820,LFA,POINT (28.1088052268903 -81.837303226909)
1532,-82.1245033382884,28.9236054144973,1533,872386,ROMP 115 L FLDN AQ (BELOW MCU I) MONITOR,SWFWMD,Well,28.9236,-82.1245,,1100,570,,POINT (28.9236054144973 -82.1245033382884)
1533,-81.8374032271321,28.1088052265015,1534,872967,ROMP 75 L FLDN AQ (BELOW MCU II) MONITOR,SWFWMD,Well,28.1088,-81.8374,,1750,1500,,POINT (28.1088052265015 -81.8374032271321)
1539,-84.4040040798301,31.1124502950878,1540,310645084241401,10G314,USGS,Well,31.11244444,-84.40375,,370,370,120FLRDU,POINT (31.1124502950878 -84.4040040798301)
1549,-81.4950032388733,31.1387922523154,1550,310822081294201,34H403,USGS,Well,31.1387863,-81.4946837,,982,982,120FLRD,POINT (31.1387922523154 -81.4950032388733)
1550,-81.4950032389536,31.1404033519033,1551,310825081294201,34H393,USGS,Well,31.1403974,-81.4948504,,1153,723,120FLRDU,POINT (31.1404033519033 -81.4950032389536)
1551,-81.4960032396126,31.1430615127507,1552,310835081294502,34H500,USGS,Well,31.14305556,-81.4958333,,1400,1400,120FLRDL,POINT (31.1430615127507 -81.4960032396126)
1552,-81.6120033158721,32.13187314439,1553,320754081364301,33R045,USGS,Well,32.13186697,-81.6117788,,994,994,120FLRDL,POINT (32.13187314439 -81.6120033158721)
1563,-84.3527490381771,30.4754337128137,1564,W19696,FGS 3K Deep,,Well,30.475428,-84.352745,,855,,,POINT (30.4754337128137 -84.3527490381771)
